"id","name","address","city","psd","usr","pnl","pmp","udmr","alde","lat","lng"
"1","Colegiul Economic Iulian Pop","Strada Emil Isac Nr. 19 Cluj-Napoca Cluj","Cluj-Napoca",2094,7106,2824,9414,9817,5696,46.770751,23.5845592
"2","Colegiul Economic Iulian Pop","Strada Emil Isac Nr. 19 Cluj-Napoca Cluj","Cluj-Napoca",8248,761,4049,2232,5820,4342,46.770751,23.5845592
"3","Colegiul Tehnic de Telecomunicatii Augustin Maior","Calea Moţilor Nr. 78-80 Cluj-Napoca Cluj","Cluj-Napoca",7591,213,7205,4316,3032,223,46.765396,23.577155
"4","Colegiul Tehnic de Telecomunicatii Augustin Maior","Calea Moţilor Nr. 78-80 Cluj-Napoca Cluj","Cluj-Napoca",937,6972,2490,4337,1394,286,46.765396,23.577155
"5","Școala Ion Creangă","Aleea Peana Nr. 4 Cluj-Napoca Cluj","Cluj-Napoca",7236,4743,6287,9084,12,583,46.7557199,23.554129
"6","Școala Ion Creangă","Aleea Peana Nr. 4 Cluj-Napoca Cluj","Cluj-Napoca",4006,7694,4573,617,7690,2110,46.7557199,23.554129
"7","Școala Ion Creangă","Aleea Peana Nr. 4 Cluj-Napoca Cluj","Cluj-Napoca",4099,6260,7453,3863,4907,9100,46.7557199,23.554129
"17","Colegiul Tehnic Napoca","Strada Taberei Nr. 3 Cluj-Napoca Cluj","Cluj-Napoca",1619,8085,641,3340,3804,823,46.7620689,23.552772
"18","Liceul cu Program Sportiv (Fosta Școală Nr. 20).","Strada Arinilor Nr. 9 Cluj-Napoca Cluj","Cluj-Napoca",2650,2739,1294,7837,8912,886,46.762444,23.550382
"19","Liceul cu Program Sportiv (Fosta Școală Nr. 20).","Strada Arinilor Nr. 9 Cluj-Napoca Cluj","Cluj-Napoca",2839,5317,4940,2004,4086,101,46.762444,23.550382
"20","Liceul cu Program Sportiv (Fosta Școală Nr. 20).","Strada Arinilor Nr. 9 Cluj-Napoca Cluj","Cluj-Napoca",338,4835,5085,5473,8990,5073,46.762444,23.550382
"21","Liceul Teoretic Eugen Pora","Strada Mogoşoaia Nr. 6 Cluj-Napoca Cluj","Cluj-Napoca",4673,485,3467,5477,7323,2411,46.7582803,23.5607037
"22","Liceul Teoretic Eugen Pora","Strada Mogoşoaia Nr. 6 Cluj-Napoca Cluj","Cluj-Napoca",722,6620,6510,6293,6865,5401,46.7582803,23.5607037
"23","Liceul Teoretic Eugen Pora","Strada Mogoşoaia Nr. 6 Cluj-Napoca Cluj","Cluj-Napoca",2678,4338,704,9542,8462,4429,46.7582803,23.5607037
"24","Liceul Teoretic Eugen Pora","Strada Mogoşoaia Nr. 6 Cluj-Napoca Cluj","Cluj-Napoca",6582,6434,7952,9198,6590,6863,46.7582803,23.5607037
"25","Școala Internationala Spectrum","Calea Mănăştur Nr. 22-24 Cluj-Napoca Cluj","Cluj-Napoca",6767,1967,6057,4069,335,3408,46.762154,23.569514
"26","Școala Internationala Spectrum","Calea Mănăştur Nr. 22-24 Cluj-Napoca Cluj","Cluj-Napoca",9141,4513,9809,3034,8504,2963,46.762154,23.569514
"27","Școala Internationala Spectrum","Calea Mănăştur Nr. 22-24 Cluj-Napoca Cluj","Cluj-Napoca",1097,1759,6413,9716,5349,1824,46.762154,23.569514
"28","Școala Internationala Spectrum","Calea Mănăştur Nr. 22-24 Cluj-Napoca Cluj","Cluj-Napoca",6899,2910,5509,9411,9288,176,46.762154,23.569514
"29","Liceul Teoretic Eugen Pora, Str. Mogoșoaia Nr. 6","Strada Mogoşoaia Nr. 6 Cluj-Napoca Cluj","Cluj-Napoca",3041,7397,551,2717,1799,413,46.7582803,23.5607037
"30","Sala Sporturilor Horea de mian","Splaiul Independenţei Nr. 6 Cluj-Napoca Cluj","Cluj-Napoca",8644,6022,388,1349,4856,7774,46.7656198,23.5645674
"31","Sala Sporturilor Horea de mian","Splaiul Independenţei Nr. 6 Cluj-Napoca Cluj","Cluj-Napoca",4967,291,9575,4345,901,4043,46.7656198,23.5645674
"32","Sala Sporturilor Horea de mian","Splaiul Independenţei Nr. 6 Cluj-Napoca Cluj","Cluj-Napoca",1729,2632,6976,4486,512,2117,46.7656198,23.5645674
"33","Centrul Regional de Excelenţă","Strada Octavian Goga Nr. 23 Cluj-Napoca Cluj","Cluj-Napoca",9758,854,2672,7539,6277,7272,46.771378,23.572551
"34","Liceul Teoretic Onisifor Ghibu","Strada Alexandru Vlahuţă Nr. 12-14 Cluj-Napoca Cluj","Cluj-Napoca",7381,9079,3280,3173,263,1121,46.770574,23.56398
"35","Liceul Teoretic Onisifor Ghibu","Strada Alexandru Vlahuţă Nr. 12-14 Cluj-Napoca Cluj","Cluj-Napoca",92,5502,8590,4292,3227,1701,46.770574,23.56398
"36","Liceul Teoretic Onisifor Ghibu","Strada Alexandru Vlahuţă Nr. 12-14 Cluj-Napoca Cluj","Cluj-Napoca",8724,1526,241,1750,4864,9940,46.770574,23.56398
"37","Liceul Teoretic Onisifor Ghibu","Strada Alexandru Vlahuţă Nr. 44-48 Cluj-Napoca Cluj","Cluj-Napoca",9187,1593,3630,5025,8433,6973,46.769912,23.557591
"38","Liceul Teoretic Onisifor Ghibu","Strada Alexandru Vlahuţă Nr. 44-48 Cluj-Napoca Cluj","Cluj-Napoca",9787,8408,6088,5331,5185,4868,46.769912,23.557591
"39","Gradiniţa Mica Sirena (Fostă 64)","Strada Alexandru Vlahuţă Nr. 59 Cluj-Napoca Cluj","Cluj-Napoca",3457,8213,2862,259,6755,7403,46.7696632,23.5576068
"40","Grădinița Licurici (Fosta Steluţa Fermecată), Str. Fântânele Nr. 46","Strada Fântânele Nr. 46 Cluj-Napoca Cluj","Cluj-Napoca",3333,4825,1581,591,1921,6258,46.76535000000001,23.546489
"41","Grădinița Licurici (Fosta Steluţa Fermecată), Str. Fântânele Nr. 46","Strada Fântânele Nr. 46 Cluj-Napoca Cluj","Cluj-Napoca",5393,1607,8444,8614,9784,3977,46.76535000000001,23.546489
"42","Institutul de Cercetari în Chimie Raluca Ripan","Strada Fântânele Nr. 30 Cluj-Napoca Cluj","Cluj-Napoca",1730,7139,2477,5032,2923,1595,46.7679166,23.5517868
"43","Grădinița Mica Sirena (Fosta 12)","Strada Donath Nr. 150 Cluj-Napoca Cluj","Cluj-Napoca",365,3347,8535,530,1624,4232,46.7654468,23.544512
"44","Institutul de Cercetari în ChimieRaluca Ripan","Strada Fântânele Nr. 30 Cluj-Napoca Cluj","Cluj-Napoca",7387,3556,1302,117,2245,8587,46.7679166,23.5517868
"45","Institutul de Cercetari în ChimieRaluca Ripan","Strada Fântânele Nr. 30 Cluj-Napoca Cluj","Cluj-Napoca",8074,958,5749,9200,3496,3346,46.7679166,23.5517868
"47","Liceul de Informatică Tiberiu Popoviciu","Strada Zorilor Nr. 27 Cluj-Napoca Cluj","Cluj-Napoca",7722,7348,3214,1445,5109,8219,46.7562617,23.579095
"48","Liceul de Informatică Tiberiu Popoviciu","Strada Zorilor Nr. 27 Cluj-Napoca Cluj","Cluj-Napoca",6114,2976,6545,5306,9623,6838,46.7562617,23.579095
"49","Liceul de Informatică Tiberiu Popoviciu","Strada Zorilor Nr. 27 Cluj-Napoca Cluj","Cluj-Napoca",3999,3654,6614,4519,9160,7856,46.7562617,23.579095
"50","Liceul de Informatică Tiberiu Popoviciu","Strada Zorilor Nr. 27 Cluj-Napoca Cluj","Cluj-Napoca",3859,7705,9865,3588,2478,1567,46.7562617,23.579095
"51","Liceul de Informatică Tiberiu Popoviciu","Strada Zorilor Nr. 27 Cluj-Napoca Cluj","Cluj-Napoca",4295,1616,9456,1556,5172,8234,46.7562617,23.579095
"52","Asociaţia Caritatea","Strada Mircea Eliade Nr. 22 Cluj-Napoca Cluj","Cluj-Napoca",2638,4191,8575,2571,5644,5099,46.75127000000001,23.583917
"53","Grădinița Zîna Zorilor, Str. L. Pasteur Nr. 12","Strada Dr. Louis Pasteur Nr. 12 Cluj-Napoca Cluj","Cluj-Napoca",8370,9672,1808,1894,2389,7175,46.761486,23.58453
"54","Facultatea de Arhitectură și Urbanism, Str. Observatorului Nr. 72","Strada Observatorului Nr. 72 Cluj-Napoca Cluj","Cluj-Napoca",9377,5523,2551,1651,5499,240,46.7555247,23.5876007
"55","Facultatea de Arhitectură și Urbanism, Str. Observatorului Nr. 72","Strada Observatorului Nr. 72 Cluj-Napoca Cluj","Cluj-Napoca",4262,9303,120,1215,4767,2807,46.7555247,23.5876007
"56","Facultatea de Arhitectură și Urbanism, Str. Observatorului Nr. 72","Strada Observatorului Nr. 72 Cluj-Napoca Cluj","Cluj-Napoca",5332,7332,933,9857,3162,9492,46.7555247,23.5876007
"57","Facultatea de Arhitectură și Urbanism, Str. Observatorului Nr. 72","Strada Observatorului Nr. 72 Cluj-Napoca Cluj","Cluj-Napoca",4228,1461,766,5722,2192,8227,46.7555247,23.5876007
"58","Liceul Informatica T. Popoviciu","Calea Turzii Nr. 140 Cluj-Napoca Cluj","Cluj-Napoca",2769,5293,9233,3123,5023,8031,46.75379,23.595849
"59","Liceul Informatica T. Popoviciu","Calea Turzii Nr. 140 Cluj-Napoca Cluj","Cluj-Napoca",1741,6168,1349,5442,3974,1695,46.75379,23.595849
"60","Liceul Informatica T. Popoviciu","Calea Turzii Nr. 140 Cluj-Napoca Cluj","Cluj-Napoca",9049,203,8781,5539,6761,1653,46.75379,23.595849
"61","Palatul Copiilor","Strada Republicii Nr. 23 Cluj-Napoca Cluj","Cluj-Napoca",7187,6383,9231,9405,6510,9810,46.765006,23.5877209
"62","Școala Ioan Bob","Strada Episcop Ioan Bob Nr. 10 Cluj-Napoca Cluj","Cluj-Napoca",8960,582,4384,9973,5998,8821,46.7687202,23.5877157
"63","Colegiul Naţional G. Coșbuc","Strada Avram Iancu Nr. 70-72 Cluj-Napoca Cluj","Cluj-Napoca",3295,9490,5526,3107,7883,7510,46.767348,23.596319
"64","Liceul Teoretic Gh. Sincai","Strada Avram Iancu Nr. 33 Cluj-Napoca Cluj","Cluj-Napoca",9638,3102,977,2774,7094,1172,46.76749,23.596551
"65","Liceul Teoretic Gh. Sincai","Strada Avram Iancu Nr. 33 Cluj-Napoca Cluj","Cluj-Napoca",4683,4060,389,1072,1502,8955,46.76749,23.596551
"66","Liceul Teoretic Gh. Sincai","Calea Dorobanţilor Nr. 72 Cluj-Napoca Cluj","Cluj-Napoca",5143,3796,5507,7646,5619,807,46.773266,23.6075752
"67","Liceul Teoretic Gh. Sincai","Calea Dorobanţilor Nr. 72 Cluj-Napoca Cluj","Cluj-Napoca",6649,6228,7660,7178,1156,9259,46.773266,23.6075752
"68","Liceul Teoretic Gh. Sincai","Calea Dorobanţilor Nr. 72 Cluj-Napoca Cluj","Cluj-Napoca",9679,8027,3662,783,701,790,46.773266,23.6075752
"69","Liceul Teoretic Gh. Sincai","Calea Dorobanţilor Nr. 72 Cluj-Napoca Cluj","Cluj-Napoca",9191,5316,923,3970,668,167,46.773266,23.6075752
"74","Școala Liviu Rebreanu","Aleea Moldoveanu Nr. 1 Cluj-Napoca Cluj","Cluj-Napoca",3259,3835,7539,7601,89,2262,46.7534311,23.5618606
"75","Școala Liviu Rebreanu","Aleea Moldoveanu Nr. 1 Cluj-Napoca Cluj","Cluj-Napoca",1601,1781,972,1622,8588,2961,46.7534311,23.5618606
"76","Școala Liviu Rebreanu","Aleea Moldoveanu Nr. 1 Cluj-Napoca Cluj","Cluj-Napoca",7266,8367,9830,2008,4210,2297,46.7534311,23.5618606
"77","Grădinița Universul Copiilor (Fostă Nr. 71)","Aleea Moldoveanu Nr. 5-7 Cluj-Napoca Cluj","Cluj-Napoca",2217,3541,3017,8650,316,1778,46.753342,23.562764
"78","Școala Liviu Rebreanu ( Fosta Constantin Brâncoveanu), Aleea Retezat Nr. 4","Aleea Retezat Nr. 4 Cluj-Napoca Cluj","Cluj-Napoca",7890,1626,9270,3397,6116,4663,46.7518249,23.5579616
"79","Școala Liviu Rebreanu ( Fosta Constantin Brâncoveanu), Aleea Retezat Nr. 4","Aleea Retezat Nr. 4 Cluj-Napoca Cluj","Cluj-Napoca",7444,1862,6196,8600,6059,9912,46.7518249,23.5579616
"80","Școala Liviu Rebreanu ( Fosta Constantin Brâncoveanu), Aleea Retezat Nr. 4","Aleea Retezat Nr. 4 Cluj-Napoca Cluj","Cluj-Napoca",6607,3198,6867,7563,9363,9482,46.7518249,23.5579616
"82","GradiniţaBuburuza (Fostă Nr. 70)","Strada Mehedinţi Nr. 19 Cluj-Napoca Cluj","Cluj-Napoca",2435,2002,383,4957,1528,2219,46.752866,23.557587
"83","GradiniţaBuburuza (Fostă Nr. 70)","Strada Mehedinţi Nr. 19 Cluj-Napoca Cluj","Cluj-Napoca",6508,9083,1819,5318,2913,97,46.752866,23.557587
"84","Grădinița Academia Piticilor (Fostă Nr. 72)","Aleea Tazlău Nr. 11 Cluj-Napoca Cluj","Cluj-Napoca",5482,4048,3268,6194,2217,9547,46.75237,23.554651
"85","Grădinița Academia Piticilor (Fostă Nr. 72)","Aleea Tazlău Nr. 11 Cluj-Napoca Cluj","Cluj-Napoca",155,4963,5004,145,8472,8923,46.75237,23.554651
"88","Fosta Școală Nr. 6","Aleea Meziad Nr. 4 Cluj-Napoca Cluj","Cluj-Napoca",5588,3834,4424,9925,2145,9276,46.7508558,23.5486485
"89","Fosta Școală Nr. 6","Aleea Meziad Nr. 4 Cluj-Napoca Cluj","Cluj-Napoca",8520,3794,672,7893,3919,9201,46.7508558,23.5486485
"90","Școala Octavian Goga","Aleea Peana Nr. 16 Cluj-Napoca Cluj","Cluj-Napoca",482,5404,8697,5579,6537,2962,46.7551142,23.551663
"91","Școala Octavian Goga","Aleea Peana Nr. 16 Cluj-Napoca Cluj","Cluj-Napoca",3555,8075,4094,3085,7566,6096,46.7551142,23.551663
"92","Școala Octavian Goga","Aleea Peana Nr. 16 Cluj-Napoca Cluj","Cluj-Napoca",4285,821,5911,9147,1639,9972,46.7551142,23.551663
"93","Colegiul Naţional George Coșbuc","Strada Avram Iancu Nr. 70-72 Cluj-Napoca Cluj","Cluj-Napoca",2032,57,235,5797,3870,10000,46.767348,23.596319
"95","Grădinița Poieniţa","Strada Braşov Nr. 27 Cluj-Napoca Cluj","Cluj-Napoca",981,2416,3879,6890,4180,6159,46.76287,23.604406
"96","Grădinița Poienţa","Strada Alverna Nr. 63 Cluj-Napoca Cluj","Cluj-Napoca",374,402,2902,6163,1884,4762,46.756494,23.615142
"97","Grădinița Poienţa","Strada Alverna Nr. 63 Cluj-Napoca Cluj","Cluj-Napoca",3897,8928,8674,5621,8602,1666,46.756494,23.615142
"98","Școala Constantin Brâncuși","Strada Horticultorilor Nr. 1 Cluj-Napoca Cluj","Cluj-Napoca",9531,5292,5591,5693,9052,3109,46.759988,23.617109
"100","Școala Constantin Brâncuși","Strada Horticultorilor Nr. 1 Cluj-Napoca Cluj","Cluj-Napoca",6575,5305,2119,4063,4707,3389,46.759988,23.617109
"101","Școala Constantin Brâncuși","Strada Horticultorilor Nr. 1 Cluj-Napoca Cluj","Cluj-Napoca",4427,7150,6804,6177,3313,2127,46.759988,23.617109
"102","Grădinița Lumea Copiilor, Str. Septimiu Albini Nr 53","Strada Septimiu Albini Nr. 53 Cluj-Napoca Cluj","Cluj-Napoca",9009,7115,9796,2653,7850,4139,46.767335,23.609584
"103","Creșa Castelul Fermecat, Str. Septimiu Albini Nr. 91","Strada Septimiu Albini Nr. 91 Cluj-Napoca Cluj","Cluj-Napoca",9651,961,1206,6173,4741,3723,46.764394,23.612115
"104","Creșa Castelul Fermecat, Str. Septimiu Albini Nr. 91","Strada Septimiu Albini Nr. 91 Cluj-Napoca Cluj","Cluj-Napoca",533,4218,9449,8470,215,7710,46.764394,23.612115
"105","Grădinița Lumea Copiilor (Fostă Nr. 20)","Strada Septimiu Albini Nr. 91 Cluj-Napoca Cluj","Cluj-Napoca",1155,2328,1005,7027,1180,144,46.764394,23.612115
"109","Liceul Teoretic Lucian Blaga","Aleea Băişoara Nr. 2-4 Cluj-Napoca Cluj","Cluj-Napoca",5388,7649,1614,1121,6708,283,46.765484,23.624323
"110","Liceul Teoretic Lucian Blaga","Aleea Băişoara Nr. 2-4 Cluj-Napoca Cluj","Cluj-Napoca",2211,6673,567,2394,349,9810,46.765484,23.624323
"111","Școala N. Titulescu","Aleea Herculane Nr. 7 Cluj-Napoca Cluj","Cluj-Napoca",8168,5790,5001,9847,958,1739,46.7705417,23.622912
"112","Școala N. Titulescu","Aleea Herculane Nr. 7 Cluj-Napoca Cluj","Cluj-Napoca",4970,6730,260,1574,8284,9887,46.7705417,23.622912
"113","Liceul Tehnologic Al. Borza","Strada Alexandru Vaida Voevod Nr. 57 Cluj-Napoca Cluj","Cluj-Napoca",2753,2033,4458,7436,2486,8437,46.7703414,23.6288511
"114","Liceul Tehnologic Al. Borza","Strada Alexandru Vaida Voevod Nr. 57 Cluj-Napoca Cluj","Cluj-Napoca",5514,9539,7513,7718,9216,1163,46.7703414,23.6288511
"115","Colegiul Tehnic de TransporturiTransilvania","Strada Bistriţei Nr. 21 Cluj-Napoca Cluj","Cluj-Napoca",3361,1168,2799,1088,2783,7696,46.772219,23.6168914
"116","Colegiul Tehnic de TransporturiTransilvania","Strada Bistriţei Nr. 21 Cluj-Napoca Cluj","Cluj-Napoca",9913,3848,467,9608,5893,8674,46.772219,23.6168914
"117","Colegiul Tehnic Energetic","Strada Nicolae Pascaly Nr. 2 Cluj-Napoca Cluj","Cluj-Napoca",9998,3540,8651,1465,9757,5055,46.771014,23.6183729
"118","Universitatea Babes-Bolyai- Facultatea de Știinţe Economice și Gestiunea Afacerilor","Strada Teodor Mihali Nr. 58-60 Cluj-Napoca Cluj","Cluj-Napoca",4669,3517,6257,4017,9493,748,46.7743675,23.6216442
"119","Universitatea Babes-Bolyai- Facultatea de Știinţe Economice și Gestiunea Afacerilor","Strada Teodor Mihali Nr. 58-60 Cluj-Napoca Cluj","Cluj-Napoca",9346,7169,7555,1888,1173,7680,46.7743675,23.6216442
"120","Școala Ion Agârbiceanu","Strada Grădinarilor Nr. 1 Cluj-Napoca Cluj","Cluj-Napoca",6348,2456,657,8916,7689,638,46.7827259,23.614022
"121","Școala Ion Agârbiceanu","Strada Grădinarilor Nr. 1 Cluj-Napoca Cluj","Cluj-Napoca",7918,761,6710,5949,5806,2258,46.7827259,23.614022
"122","Școala Ion Agârbiceanu","Strada Grădinarilor Nr. 1 Cluj-Napoca Cluj","Cluj-Napoca",9503,3588,4125,4833,3113,9485,46.7827259,23.614022
"124","Școala Ion Agârbiceanu","Strada Grădinarilor Nr. 1 Cluj-Napoca Cluj","Cluj-Napoca",7478,1286,6080,4809,6217,5315,46.7827259,23.614022
"125","Școala Ion Agârbiceanu","Strada Grădinarilor Nr. 1 Cluj-Napoca Cluj","Cluj-Napoca",4688,986,8279,7191,6922,9079,46.7827259,23.614022
"126","Școala Ion Agârbiceanu","Strada Grădinarilor Nr. 1 Cluj-Napoca Cluj","Cluj-Napoca",2149,8826,7667,3441,760,6220,46.7827259,23.614022
"127","Grădinţa Mămaruţa (Fostă Nr. 42)","Bulevardul 21 Decembrie Nr. 124 Cluj-Napoca Cluj","Cluj-Napoca",7194,9674,6244,4613,3773,2688,46.775986,23.605529
"128","Colegiul Tehnic Anghel Saligny","Bulevardul 21 Decembrie Nr. 128-130 Cluj-Napoca Cluj","Cluj-Napoca",4329,6039,5584,2096,8715,6554,46.7758589,23.6064354
"129","Colegiul Tehnic Anghel Saligny","Bulevardul 21 Decembrie Nr. 128-130 Cluj-Napoca Cluj","Cluj-Napoca",208,630,3089,3645,5050,2379,46.7758589,23.6064354
"131","Colegiul Tehnic Anghel Saligny","Bulevardul 21 Decembrie Nr. 128-130 Cluj-Napoca Cluj","Cluj-Napoca",1429,6153,2654,6106,8385,4148,46.7758589,23.6064354
"132","Colegiul de Muzică Sigismund Toduţă (Fostul Grupul Școlar de Material Rulant- Unirea)","Strada Paris Nr. 60 Cluj-Napoca Cluj","Cluj-Napoca",3940,6535,2248,6380,6605,1946,46.780441,23.599333
"133","Colegiul de Muzică Sigismund Toduţă (Fostul Grupul Școlar de Material Rulant- Unirea)","Strada Paris Nr. 60 Cluj-Napoca Cluj","Cluj-Napoca",4794,8336,1669,1727,9831,9439,46.780441,23.599333
"134","Liceul Teoretic A. Iancu","Strada Onisifor Ghibu Nr. 25 Cluj-Napoca Cluj","Cluj-Napoca",1095,9519,4891,9033,6242,1423,46.7771479,23.601379
"135","Liceul Teoretic Victor Babeș (Fosta Școală David Prodan )","Strada Meseriilor Nr. 20 Cluj-Napoca Cluj","Cluj-Napoca",5163,5919,8904,4547,7750,4397,46.78388899999999,23.602219
"136","Seminarul Teologic Ortodox (Fostă Școala David Prodan)","Strada Meseriilor Nr. 20 Cluj-Napoca Cluj","Cluj-Napoca",8372,4738,4807,7331,9784,3624,46.78388899999999,23.602219
"137","Școala Horea","Strada Horea Nr. 19/A Cluj-Napoca Cluj","Cluj-Napoca",7102,7547,6058,7613,7023,3214,46.776934,23.587065
"138","Liceul Teoretic N. Balcescu","Strada Constanţa Nr. 6 Cluj-Napoca Cluj","Cluj-Napoca",4282,9038,6863,5893,670,6461,46.774378,23.5954729
"139","Liceul Teoretic UnitarianJanos Zsigmond","Bulevardul 21 Decembrie Nr. 9 Cluj-Napoca Cluj","Cluj-Napoca",3014,8396,2386,5687,8124,7803,46.771734,23.592427
"147","Grădinița Degeţica (Fostă Nr. 53)","Strada Târnavelor Nr. 22 Cluj-Napoca Cluj","Cluj-Napoca",4451,4867,1209,7773,3402,5488,46.77885999999999,23.625166
"148","Grădinița Degeţica (Fostă Nr. 53)","Strada Târnavelor Nr. 22 Cluj-Napoca Cluj","Cluj-Napoca",5183,5686,7889,8266,9739,1284,46.77885999999999,23.625166
"149","Școala Al. Vaida Voevod","Strada Oltului Nr. 83 Cluj-Napoca Cluj","Cluj-Napoca",1229,5201,8113,7840,309,7753,46.7778792,23.6331141
"150","Școala Al. Vaida Voevod","Strada Oltului Nr. 83 Cluj-Napoca Cluj","Cluj-Napoca",1006,6773,3250,560,9397,9318,46.7778792,23.6331141
"151","Școala Al. Vaida Voevod","Strada Oltului Nr. 83 Cluj-Napoca Cluj","Cluj-Napoca",5445,3827,4076,1777,4620,4599,46.7778792,23.6331141
"152","Școala Al. Vaida Voevod","Strada Oltului Nr. 83 Cluj-Napoca Cluj","Cluj-Napoca",585,5907,6547,131,1292,5852,46.7778792,23.6331141
"153","Școala Al. Vaida Voevod","Strada Oltului Nr. 83 Cluj-Napoca Cluj","Cluj-Napoca",492,3552,626,5230,5166,5443,46.7778792,23.6331141
"154","Grupul Școlar Samus","Strada Ialomiţa Nr. 17 Cluj-Napoca Cluj","Cluj-Napoca",4921,1583,5378,8551,965,5185,46.7828545,23.618495
"155","Grupul Școlar Samus","Strada Ialomiţa Nr. 17 Cluj-Napoca Cluj","Cluj-Napoca",363,265,7860,6805,2879,5251,46.7828545,23.618495
"156","Grupul Școlar Samus","Strada Ialomiţa Nr. 17 Cluj-Napoca Cluj","Cluj-Napoca",5413,3314,4668,1637,2975,553,46.7828545,23.618495
"157","Colegiul Tehnic Ana Aslan ( Fostul Grupul Școlar Chimie Ind Terapia )","Strada Decebal Nr. 41 Cluj-Napoca Cluj","Cluj-Napoca",1533,5358,1892,6596,2149,9890,46.7798604,23.5887865
"159","Eparhia Reformată din Ardeal , Str. Horea Nr. 51","Strada Horea Nr. 51 Cluj-Napoca Cluj","Cluj-Napoca",6321,5560,242,1114,7026,947,46.780418,23.58725
"160","Școala Horea (Fostă Nr. 27)","Strada 11 Octombrie Nr. 3 Cluj-Napoca Cluj","Cluj-Napoca",7636,8181,9020,548,8141,3515,46.7792646,23.576531
"161","Liceul Teologic Emanuel","Strada 11 Octombrie Nr. 3 Cluj-Napoca Cluj","Cluj-Napoca",2596,1183,9451,7897,3367,2755,46.7792646,23.576531
"162","Liceul Teologic Emanuel","Strada 11 Octombrie Nr. 3 Cluj-Napoca Cluj","Cluj-Napoca",6999,1756,9520,2584,2504,6237,46.7792646,23.576531
"163","Grădinița Neghiniţă","Calea Baciului Nr. 56 Cluj-Napoca Cluj","Cluj-Napoca",1864,5550,4688,4401,1984,8033,46.785397,23.552765
"164","Grădinița Neghiniţă","Calea Baciului Nr. 56 Cluj-Napoca Cluj","Cluj-Napoca",9666,9334,92,7762,5011,9215,46.785397,23.552765
"165","Grădinița Neghiniţă","Strada Corneliu Coposu Nr. 20 Cluj-Napoca Cluj","Cluj-Napoca",3286,9600,4612,6443,9728,953,46.7874089,23.577792
"166","Grădinița Neghiniţă","Strada Corneliu Coposu Nr. 20 Cluj-Napoca Cluj","Cluj-Napoca",5896,26,8315,7947,8928,6032,46.7874089,23.577792
"167","Școala Emil Isac","Strada Giordano Bruno Nr. 46 Cluj-Napoca Cluj","Cluj-Napoca",9103,966,3590,3044,116,8968,46.788775,23.578814
"168","Școala Emil Isac","Strada Giordano Bruno Nr. 46 Cluj-Napoca Cluj","Cluj-Napoca",150,8183,8228,6527,367,8335,46.788775,23.578814
"169","Școala Nicolae Iorga","Strada Războieni Nr. 67 Cluj-Napoca Cluj","Cluj-Napoca",5288,8197,5499,294,4744,3635,46.791934,23.597917
"170","Școala Nicolae Iorga","Strada Războieni Nr. 67 Cluj-Napoca Cluj","Cluj-Napoca",5536,8718,9773,7668,3965,4487,46.791934,23.597917
"171","Școala Nicolae Iorga","Strada Războieni Nr. 67 Cluj-Napoca Cluj","Cluj-Napoca",6680,3015,997,4156,2606,7195,46.791934,23.597917
"172","Școala Nicolae Iorga","Strada Războieni Nr. 67 Cluj-Napoca Cluj","Cluj-Napoca",8199,6292,2569,4753,1077,6242,46.791934,23.597917
"173","Liceul Tehnologic Nr. 1 (Fostul Grupul Școlar Tehnofrig), Str. Maramureșului Nr. 165/A","Strada Maramureşului Nr. 165/A Cluj-Napoca Cluj","Cluj-Napoca",1684,545,2104,2135,9303,2286,46.79290100000001,23.596029
"174","Liceul Tehnologic Nr. 1 (Fostul Grupul Școlar Tehnofrig), Str. Maramureșului Nr. 165/A","Strada Maramureşului Nr. 165/A Cluj-Napoca Cluj","Cluj-Napoca",3810,2873,7132,6238,1116,5445,46.79290100000001,23.596029
"175","Liceul Tehnologic Aurel Vlaicu","Bulevardul Muncii Nr. 199-201 Cluj-Napoca Cluj","Cluj-Napoca",4079,1987,1222,5327,2316,4812,46.7963587,23.6313932
"176","Liceul Tehnologic Aurel Vlaicu","Bulevardul Muncii Nr. 199-201 Cluj-Napoca Cluj","Cluj-Napoca",1951,1145,8732,2676,1236,2379,46.7963587,23.6313932
"177","Garaje Compania de Transport Public Cluj-Napoca S. A.","Strada Plevnei Nr. 12 Cluj-Napoca Cluj","Cluj-Napoca",1594,228,5169,2846,9546,9576,46.78761799999999,23.628501
"179","Școala Traian Darjan","Strada Traian Vuia Nr. 76 Cluj-Napoca Cluj","Cluj-Napoca",3043,566,8382,5854,2294,3287,46.7806103,23.6738298
"180","Școala Traian Darjan","Strada Traian Vuia Nr. 76 Cluj-Napoca Cluj","Cluj-Napoca",7888,6649,2948,1483,3830,6263,46.7806103,23.6738298
"181","Școala Traian Darjan","Strada Traian Vuia Nr. 76 Cluj-Napoca Cluj","Cluj-Napoca",5722,495,8083,6313,4948,841,46.7806103,23.6738298
"182","Colegiul Tehnic Victor Ungureanu","Strada Laminoriștilor Nr. 115 Câmpia Turzii Cluj","Câmpia Turzii",611,41,1977,3032,2331,9296,46.553956,23.878778
"183","Colegiul Tehnic Victor Ungureanu","Strada Laminoriștilor Nr. 115 Câmpia Turzii Cluj","Câmpia Turzii",3927,3470,1447,9197,1045,4219,46.553956,23.878778
"184","Colegiul Tehnic Victor Ungureanu","Strada Laminoriștilor Nr. 115 Câmpia Turzii Cluj","Câmpia Turzii",3346,4834,4908,1376,8557,9911,46.553956,23.878778
"185","Liceul Teroretic Pavel Dan","Strada 1 Decembrie 1918 Nr. 17 Câmpia Turzii Cluj","Câmpia Turzii",5885,1252,1129,2419,1694,3036,46.542719,23.888328
"187","Liceul Teroretic Pavel Dan","Strada 1 Decembrie 1918 Nr. 17 Câmpia Turzii Cluj","Câmpia Turzii",8537,1688,1922,7565,6518,7867,46.542719,23.888328
"188","Liceul Teroretic Pavel Dan","Strada 1 Decembrie 1918 Nr. 17 Câmpia Turzii Cluj","Câmpia Turzii",6993,8808,8860,256,630,6858,46.542719,23.888328
"189","Liceul Teroretic Pavel Dan","Strada 1 Decembrie 1918 Nr. 17 Câmpia Turzii Cluj","Câmpia Turzii",40,9940,5050,1360,3218,5825,46.542719,23.888328
"190","Liceul Teroretic Pavel Dan","Strada 1 Decembrie 1918 Nr. 17 Câmpia Turzii Cluj","Câmpia Turzii",9286,1653,6610,1434,710,8790,46.542719,23.888328
"191","Școala Gimnazială Avram Iancu","Strada Nouă Nr. 8 Câmpia Turzii Cluj","Câmpia Turzii",7354,4047,1773,1336,384,6783,46.545309,23.8845128
"192","Școala Gimnazială Avram Iancu","Strada Nouă Nr. 8 Câmpia Turzii Cluj","Câmpia Turzii",1234,3183,6779,1144,4558,7454,46.545309,23.8845128
"193","Școala Gimnazială Avram Iancu","Strada Nouă Nr. 8 Câmpia Turzii Cluj","Câmpia Turzii",2935,7268,3040,603,9664,3859,46.545309,23.8845128
"194","Grădinița Pinochio","Strada Retezatului Nr. 6A Câmpia Turzii Cluj","Câmpia Turzii",1904,8086,6222,7005,2692,6882,46.536821,23.884039
"195","Grădinița Pinochio","Strada Retezatului Nr. 6A Câmpia Turzii Cluj","Câmpia Turzii",5041,650,7572,7220,9447,6282,46.536821,23.884039
"196","Grădinița Pinochio","Strada Retezatului Nr. 6A Câmpia Turzii Cluj","Câmpia Turzii",1586,4859,1858,6706,223,5787,46.536821,23.884039
"198","Școala Gimnazială Mihai Viteazu","Strada Gheorghe Bariţiu Nr. 57 Câmpia Turzii Cluj","Câmpia Turzii",1899,7621,8939,9528,2118,464,46.5368827,23.885848
"199","Școala Gimnazială Mihai Viteazu","Strada Gheorghe Bariţiu Nr. 57 Câmpia Turzii Cluj","Câmpia Turzii",1727,3326,996,6730,9167,9515,46.5368827,23.885848
"200","Școala Gimnazială Mihai Viteazu","Strada Gheorghe Bariţiu Nr. 57 Câmpia Turzii Cluj","Câmpia Turzii",2761,9620,1114,3361,4599,4371,46.5368827,23.885848
"201","Societatea Comercială Vasrom S. R. L Dej","Strada Bistriţei Nr. 2 Dej Cluj","Dej",6785,2912,5740,2921,8776,4494,47.1557007,23.8802211
"202","Școala Generală Nr. 1 Dej","Strada Mărăşeşti Nr. 2 Dej Cluj","Dej",2517,4852,8312,9753,5408,6533,47.142914,23.882494
"203","Școala Mihai Eminescu Dej","Strada Regina Maria Nr. 22 Dej Cluj","Dej",2433,3852,7189,2690,5665,9290,47.1408812,23.8797935
"205","Școala Mihai Eminescu Dej","Strada Avram Iancu Nr. 2 Dej Cluj","Dej",3117,6456,5916,4237,9323,515,47.141563,23.8775529
"206","Liceul Al. P. Ilarian din Dej","Piaţa Lupeni Nr. 2 Dej Cluj","Dej",5717,5056,244,2242,7354,7255,47.1412802,23.87228
"207","Grădinița Junior de j","Strada Înfrăţirii Nr. 30 Dej Cluj","Dej",1731,1487,2274,2689,5055,7402,47.138996,23.872579
"209","Clubul Copiilor de j","Strada Nicolae Titulescu Nr. 4 Dej Cluj","Dej",9013,7951,650,5621,6394,639,47.144794,23.874472
"210","Căminul Cultural Dej","Strada Valea Codorului Nr. 72 Dej Cluj","Dej",6034,7045,9951,7812,7353,8525,47.13648389999999,23.8460849
"211","Școala Generală Avram Iancu Dej","Strada Mărăşti Nr. 5A Dej Cluj","Dej",3849,1985,5393,6529,2602,8064,47.134736,23.8816872
"215","Școala Generală Nr. 5 Dej","Strada Pepineriei Nr. 6 Dej Cluj","Dej",1071,5918,5769,9220,3903,1699,47.12889209999999,23.8871398
"216","Grădinița Piticot de j","Aleea Tomis Nr. 4 Dej Cluj","Dej",7441,7702,5827,2400,3589,5185,47.134876,23.8857973
"217","Grădinița Piticot de j","Aleea Tomis Nr. 4 Dej Cluj","Dej",8660,6202,5014,6560,5480,4202,47.134876,23.8857973
"218","Grădinița Piticot de j","Aleea Tomis Nr. 4 Dej Cluj","Dej",3322,3799,8283,6743,6025,390,47.134876,23.8857973
"219","Grădinița Paradisul Piticilor de j","Strada Unirii Nr. 1 Dej Cluj","Dej",1552,8532,3267,920,4890,161,47.1309888,23.8867057
"220","Școala Generală Avram Iancu Dej - Corp B","Strada Aurora Nr. 5 Dej Cluj","Dej",800,4076,6447,1111,9212,6810,47.1321474,23.8890852
"221","Școala Generală Avram Iancu Dej - Corp B","Strada Aurora Nr. 5 Dej Cluj","Dej",179,9155,5874,7406,8146,7194,47.1321474,23.8890852
"225","Căminul Cultural Somcutu Mic","Nr. FN ŞOmcutu Mic Cluj","ŞOmcutu Mic",3901,517,998,1722,1609,8702,47.1609113,23.7587125
"226","Școala Generală Pintic","Nr. FN Pintic Cluj","Pintic",7566,9073,6036,6364,521,1459,47.0755852,23.7922525
"227","Liceul Teoretic Petru Maior Gherla","Strada Bobîlna Nr. NR.36 Gherla Cluj","Gherla",3756,8791,4337,5879,6869,4066,47.03135899999999,23.9084957
"228","Liceul Teoretic Petru Maior Gherla","Strada Bobîlna Nr. NR.36 Gherla Cluj","Gherla",2784,9520,7364,834,6109,2907,47.03135899999999,23.9084957
"229","Școala Gimnazială Nr. 2","Strada Bobîlna Nr. 14 Gherla Cluj","Gherla",5081,140,3207,2908,4230,195,47.0299382,23.9077171
"230","Școala Gimnazială Nr. 1","Strada Liviu Rebreanu Nr. NR.27. Gherla Cluj","Gherla",399,1001,3962,3132,7638,1906,47.0306852,23.9151824
"232","Școala Gimnazială Nr. 1","Strada Liviu Rebreanu Nr. 27 Gherla Cluj","Gherla",7402,855,5780,7657,3778,7064,47.0306852,23.9151824
"233","Școala Gimnazială Nr. 2","Strada Dragoş Vodă Nr. NR.3 Gherla Cluj","Gherla",9098,9048,8760,5561,2922,7985,47.0256692,23.9077945
"234","Școala Gimnazială Nr. 2","Strada Dragoş Vodă Nr. NR.3 Gherla Cluj","Gherla",9638,545,3287,2881,9044,5519,47.0256692,23.9077945
"235","Liceul Teoretic Ana Ipătescu","Strada 1 Decembrie 1918 Nr. NR.20 Gherla Cluj","Gherla",6238,7960,5960,9736,8378,9598,47.0255216,23.9046802
"236","Liceul Teoretic Ana Ipătescu","Strada 1 Decembrie 1918 Nr. NR.20 Gherla Cluj","Gherla",4989,6604,2305,2582,6500,1859,47.0255216,23.9046802
"237","Liceul Teoretic Ana Ipatescu","Strada 1 Decembrie 1918 Nr. 20 Gherla Cluj","Gherla",7952,1434,3831,5,8087,4957,47.0255216,23.9046802
"238","Liceul Teoretic Ana Ipatescu","Strada 1 Decembrie 1918 Nr. 20 Gherla Cluj","Gherla",4866,2920,6526,1396,5649,4559,47.0255216,23.9046802
"239","Clubul Copiilor Gherla","Strada 1 Decembrie 1918 Nr. 12 Gherla Cluj","Gherla",1089,8495,110,2168,7503,1362,47.027138,23.905839
"241","Școala Cls. I-IV Hășdate","Nr. NR. 16 Hăşdate Cluj","Hăşdate",1817,1979,290,9495,2737,9159,47.0099367,23.8813722
"242","Școala Cls. I-IV Silivaș","Nr. NR. 25 Silivaş Cluj","Silivaş",7309,5046,1857,9246,6027,1342,46.9871528,23.8651476
"243","Liceul Teoretic Josika Miklos","Strada Bogdan Petriceicu Haşdeu Nr. 4 Turda Cluj","Turda",3204,8501,738,8694,2023,9014,46.5716288,23.7844455
"244","Liceul Teoretic Josika Miklos","Strada Bogdan Petriceicu Haşdeu Nr. 4 Turda Cluj","Turda",6056,5003,183,6261,2883,1129,46.5716288,23.7844455
"245","Școala Gimnazială Teodor Murășanu","Strada Dr. Ioan Raţiu Nr. 53 Turda Cluj","Turda",2467,6655,8752,1843,7159,5661,46.5708977,23.7820886
"246","Colegiul Tehnic Dr. Ioan Raţiu","Strada Ştefan cel Mare Nr. 6 Turda Cluj","Turda",2350,6759,6758,8712,1067,3003,46.5638826,23.7827657
"248","Colegiul Tehnic Dr. Ioan Raţiu","Strada Ştefan cel Mare Nr. 6 Turda Cluj","Turda",5960,6481,7889,8485,9399,2765,46.5638826,23.7827657
"249","Școala Gimnazială Teodor Murășanu","Strada Dr. Ioan Raţiu Nr. 53 Turda Cluj","Turda",5357,976,1384,536,1449,2409,46.5708977,23.7820886
"250","Școala Gimnazială Teodor Murășanu","Strada Constantin Brâncoveanu Nr. 4 Turda Cluj","Turda",5473,8057,9985,7101,2460,648,46.5764114,23.7712794
"251","Școala Gimnazială Teodor Murășanu","Strada Constantin Brâncoveanu Nr. 4 Turda Cluj","Turda",5162,1821,1009,165,7775,6128,46.5764114,23.7712794
"252","Colegiul Tehnic","Strada Basarabiei Nr. 48 Turda Cluj","Turda",3768,9242,6769,2981,264,7576,46.5795286,23.7719291
"253","Colegiul Tehnic","Strada Basarabiei Nr. 48 Turda Cluj","Turda",8604,9520,8966,1503,8639,3563,46.5795286,23.7719291
"254","Colegiul Naţional Mihai Viteazu","Strada Dr. Ioan Raţiu Nr. 111 Turda Cluj","Turda",7804,1633,9556,819,2601,5489,46.5708977,23.7820886
"257","Școala Gimnazială Andrei Șaguna","Strada Axente Sever Nr. 4 Turda Cluj","Turda",4136,5350,5791,733,1658,547,46.5728225,23.7877275
"258","Școala Gimnazială Andrei Șaguna","Strada Axente Sever Nr. 4 Turda Cluj","Turda",1736,7949,2883,6091,580,6083,46.5728225,23.7877275
"259","Școala Gimnazială Avram Iancu","Strada Rapsodiei Nr. 1B Turda Cluj","Turda",6442,6187,292,4671,327,8767,46.55850299999999,23.801611
"261","Școala Gimnazială Avram Iancu","Strada Rapsodiei Nr. 1B Turda Cluj","Turda",9577,2194,3307,7229,7099,1439,46.55850299999999,23.801611
"262","Școala Gimnazială Avram Iancu","Strada Rapsodiei Nr. 1B Turda Cluj","Turda",3640,1693,5860,7748,4496,1296,46.55850299999999,23.801611
"263","Școala Gimnazială Ion Opriș","Strada Aviatorilor Nr. 1 Turda Cluj","Turda",1447,1961,7298,2000,7702,9832,46.5588679,23.810706
"264","Școala Gimnazială Ion Opriș","Strada Aviatorilor Nr. 1 Turda Cluj","Turda",8669,4821,1519,868,5259,5201,46.5588679,23.810706
"266","Liceul Teoretic Liviu Rebreanu","Strada Tineretului Nr. 6 Turda Cluj","Turda",4127,8943,2848,4602,3008,2126,46.55510959999999,23.8085119
"267","Liceul Teoretic Liviu Rebreanu","Strada Tineretului Nr. 6 Turda Cluj","Turda",7037,4373,3666,1308,4691,6511,46.55510959999999,23.8085119
"268","Liceul Teoretic Liviu Rebreanu","Strada Tineretului Nr. 6 Turda Cluj","Turda",6829,9720,6994,3824,3235,1882,46.55510959999999,23.8085119
"269","Liceul Teoretic Liviu Rebreanu","Strada Tineretului Nr. 6 Turda Cluj","Turda",8802,6546,1669,1235,1839,9063,46.55510959999999,23.8085119
"271","Liceul Teoretic Liviu Rebreanu","Strada Tineretului Nr. 6 Turda Cluj","Turda",6787,2721,4040,9448,909,3004,46.55510959999999,23.8085119
"275","Școala Gimnazială Horea Cloșca și Crișan","Strada Lotus Nr. 7 Turda Cluj","Turda",4922,6372,3275,4391,19,5845,46.556131,23.815155
"276","Școala Gimnazială Horea Cloșca și Crișan","Strada Lotus Nr. 7 Turda Cluj","Turda",911,9594,8410,54,9718,2116,46.556131,23.815155
"278","Școala Gimnazială Horea Cloșca și Crișan","Strada Lotus Nr. 7 Turda Cluj","Turda",7503,4099,2711,7226,6410,1699,46.556131,23.815155
"279","Școala Profesională Poiana","Strada Cîmpiei Nr. 51 Turda Cluj","Turda",279,5426,310,3596,8412,1417,46.560501,23.830739
"280","Școala Profesională Poiana","Strada Cîmpiei Nr. 51 Turda Cluj","Turda",2274,9847,4706,7469,4054,1109,46.560501,23.830739
"281","Școala Noua cu 16 Sali de Clasa","Nr. 42 Huedin Cluj","Huedin",6378,666,5065,5671,4487,1157,46.8623427,23.0218215
"282","Grupul Scolar Huedin","Nr. 78 Huedin Cluj","Huedin",2355,1582,1921,8278,9936,8537,46.8623427,23.0218215
"284","Primăria Oras Huedin","Nr. 1 Huedin Cluj","Huedin",5389,5963,7545,1726,9438,5203,46.8623427,23.0218215
"285","Liceul Teoretic Octavian Goga","Nr. 11 Huedin Cluj","Huedin",635,5252,3082,110,3430,6842,46.8623427,23.0218215
"286","Căminul Cultural","Nr. FN Huedin Cluj","Huedin",5238,5123,623,7888,7615,7789,46.8623427,23.0218215
"287","Căminul Cultural","Nr. FN Bicălatu Cluj","Bicălatu",5433,4150,6531,5274,3622,1973,45.881111,23.0525
"288","Școala Generală Aghiresu","Aghireşu Cluj","Aghireşu",8618,2833,7651,170,3141,7167,46.8725,23.241667
"289","Sediu Consiliu Local","Aghireşu-Fabrici Cluj","Aghireşu-Fabrici",1556,115,9301,463,3071,3460,46.86600869999999,23.2742734
"290","Școala Generală Aghiresu-Fabrici","Aghireşu-Fabrici Cluj","Aghireşu-Fabrici",456,6273,7549,3341,8718,7423,46.86600869999999,23.2742734
"291","Căminul Cultural Arghisu","Arghişu Cluj","Arghişu",9356,4677,4614,4346,1546,2190,46.936763,23.2397354
"292","Școala Generală Bagara","Băgara Cluj","Băgara",9005,7799,3244,8045,6528,4073,46.86425800000001,23.3032696
"294","Căminul Cultural Doroltu","Dorolţu Cluj","Dorolţu",4233,4961,8615,2582,3739,5869,46.8559837,23.2941597
"296","Școala Generală Leghia","Leghia Cluj","Leghia",4162,9053,4697,5937,2408,4933,46.8471403,23.187769
"297","Imobil Consiliu Nr. 7","Macău Cluj","Macău",4668,4611,325,2986,1026,6868,46.8312032,23.2904837
"298","Școala Generală Ticu","Ticu Cluj","Ticu",8366,4095,4169,5560,2401,2774,46.9076405,23.2442054
"300","Căminul Cultural Aiton","Aiton Cluj","Aiton",4803,6413,6056,6034,9768,7146,46.68208689999999,23.7388896
"302","Căminul Cultural Alunis","Aluniş Cluj","Aluniş",1553,4529,4847,5326,5060,6165,47.0404387,23.7442563
"304","Sediu Administrativ Ghirolt","Ghirolt Cluj","Ghirolt",3627,8352,7469,7808,642,5273,47.0366914,23.7818269
"305","Căminul Cultural Vale","Vale Cluj","Vale",6496,8845,6,6978,2280,4246,47.0812793,23.7164471
"306","Sala Sport Liceu Tehnologic Ștefan Pascu","Strada Libertăţii Nr. 114 Apahida Cluj","Apahida",2302,3565,475,1585,6427,24,46.8053955,23.7517343
"308","Sala Sport Liceu Tehnologic Ștefan Pascu","Strada Libertăţii Nr. 114 Apahida Cluj","Apahida",4242,9566,3113,9040,560,3741,46.8053955,23.7517343
"309","Sala Sport Liceu Tehnologic Ștefan Pascu","Strada Libertăţii Nr. 114 Apahida Cluj","Apahida",4834,4012,9318,2416,7919,2096,46.8053955,23.7517343
"310","Căminul Cultural Sînnicoară","Strada 1 Mai Nr. 14 Sînnicoară Cluj","Sînnicoară",425,837,1975,4734,2521,7709,46.7917074,23.7239386
"311","Sediu Primăria de zmir","Strada Viilor Nr. 15 Dezmir Cluj","Dezmir",7080,7103,1924,4820,405,153,46.7672548,23.7213829
"314","Sediu Sector Piscicola","Strada Salcâmilor Nr. 148 Cîmpeneşti Cluj","Cîmpeneşti",1607,527,1944,661,5808,1066,46.811373,23.7571206
"315","Grădinița așchileu Mare","Nr. 180 Aşchileu Mare Cluj","Aşchileu Mare",5865,1637,5050,7329,8584,250,46.9855141,23.4923816
"316","Grădinița așchileu Mic","Nr. 158 Aşchileu Mic Cluj","Aşchileu Mic",4414,2696,8704,1387,4934,876,46.9848199,23.4363217
"317","Grădinița Cristorel","Nr. 31 Cristorel Cluj","Cristorel",2563,5190,3148,9599,7063,7315,46.9650139,23.4596785
"318","Școala Primară Fodora","Nr. 34 Fodora Cluj","Fodora",1909,5904,5644,6016,3272,3768,46.9782849,23.5227437
"319","Spațiu Comercial","Strada Jupiter Nr. 3 Bloc G Baciu Cluj","Baciu",959,4707,5286,4218,2503,5682,46.7848396,23.5418703
"320","Casa de Cultură Baciu","Strada Transilvaniei Nr. 269 Baciu Cluj","Baciu",1275,2642,5676,111,3402,629,46.7946888,23.5217975
"321","Casa de Cultură Baciu","Strada Transilvaniei Nr. 269 Baciu Cluj","Baciu",7461,4369,3256,5448,9043,5221,46.7946888,23.5217975
"323","Școala Corusu","Nr. 219 Coruşu Cluj","Coruşu",9915,5,8014,5405,8281,416,46.8460049,23.5003807
"324","Școala Mera","Nr. 180 Mera Cluj","Mera",341,6045,1782,4204,3935,7058,46.815521,23.4521425
"326","Școala Salistea Noua","Nr. 53 Săliştea Nouă Cluj","Săliştea Nouă",5790,5140,1656,3244,852,7866,46.8725879,23.4899618
"327","Școala Suceagu","Nr. 98 Suceagu Cluj","Suceagu",9115,8330,8314,6475,4997,8505,46.7843115,23.4634357
"328","Școala Generală Băișoara","Nr. 34 Băişoara Cluj","Băişoara",5244,3622,9213,2262,9219,9183,46.575556,23.4675
"329","Școala Primară Săcel","Nr. 9A Săcel Cluj","Săcel",2000,4669,9529,5704,9966,4305,46.6017856,23.455102
"330","Școala Primară Muntele Băișorii","Nr. 44A Muntele Băişorii Cluj","Muntele Băişorii",4163,9156,3477,9439,3938,6272,46.5624551,23.3485652
"332","Școala Primară Muntele Săcelului","Nr. 11 Muntele Săcelului Cluj","Muntele Săcelului",8319,1221,4318,6146,8642,7112,46.6024808,23.384182
"333","Gospodăria D-Nei. Pașca Todorica, Sat Moara de Pădure, Nr. 24","Nr. 24 Moara De Pădure Cluj","Moara De Pădure",6718,9592,8741,3563,5476,9096,46.6039273,23.4231473
"334","Primăria Beliș","Nr. 105 A Beliş Cluj","Beliş",2023,2189,9435,307,6925,4959,46.684444,23.029167
"335","Școala Primarǎ Bǎlcești","Nr. FN Bălceşti Cluj","Bălceşti",2572,4937,6226,7668,2989,8070,46.6739964,23.0007088
"339","Școala Primarǎ Poiana Horea","Nr. FN Poiana Horea Cluj","Poiana Horea",3487,890,4718,600,5103,7940,46.5905646,22.9128978
"340","Scola Generală Babdiu","Nr. 162 Băbdiu Cluj","Băbdiu",9092,6462,8611,5221,9542,8699,47.127,23.6995
"343","Școala Generală Osorhel","Nr. 14 Oşorhel Cluj","Oşorhel",7419,6939,23,8076,7883,4380,47.1294055,23.6037165
"345","Școala Generală Razbuneni","Nr. 103 Răzbuneni Cluj","Răzbuneni",1867,7539,553,5770,4251,9638,47.1479258,23.7017894
"346","Căminul Cultural Suarăș","Nr. 45 Suarăş Cluj","Suarăş",7351,1379,8750,129,631,2325,47.135438,23.7102659
"347","Școala Generală Vîlcelele","Nr. 51 Vîlcelele Cluj","Vîlcelele",7896,9732,2883,6582,8310,8962,47.1064987,23.5951021
"350","Școala Generală Rascruci","Nr. 109 Răscruci Cluj","Răscruci",3716,388,8968,5761,8745,5043,46.9042955,23.7704217
"355","Școala Generală Ciumăfaia","Nr. 81 Ciumăfaia Cluj","Ciumăfaia",9188,3704,3173,3131,6416,6121,46.9424945,23.6223294
"356","Căminul Cultural Buza","Buza Cluj","Buza",5277,5493,2196,6943,1120,2672,46.9092506,24.1477964
"359","Școala Generală Căianu Vamă","Nr. 40 Căianu-Vamă Cluj","Căianu-Vamă",688,4655,1564,5165,1683,8459,46.8095994,23.8729018
"360","Școala Gimnazială Vaida Cămăras","Nr. 223A Vaida-Cămăraş Cluj","Vaida-Cămăraş",9235,4153,2600,5401,8012,1125,46.82305059999999,23.9410102
"361","Căminul Cultural Calarasi","Nr. 8 Călăraşi Cluj","Călăraşi",7245,1277,947,7542,8074,3182,46.4831357,23.8550202
"362","Căminul Cultural Bogata","Nr. 79/A Bogata Cluj","Bogata",9582,2969,8194,5340,3585,8961,46.5139623,23.8133721
"364","Școala din Călăţele","Călăţele Cluj","Călăţele",8119,8521,5243,9440,931,9169,46.75,23.008333
"366","Școala Călata","Călata Cluj","Călata",8330,7239,1804,6202,4875,9249,46.8026219,22.99643
"369","Școala din Dealu Negru","Dealu Negru Cluj","Dealu Negru",4949,6816,6406,5558,7251,3886,46.7133018,23.0629545
"370","Căminul Cultural Camarasu","Nr. 32 Cămăraşu Cluj","Cămăraşu",1929,5685,2233,9284,8418,4775,46.793056,24.129167
"371","Căminul Cultural Naoiu","Nr. 129 Năoiu Cluj","Năoiu",5194,4097,9062,5993,8787,1676,46.7650381,24.095258
"373","Căminul Cultural Căpușu Mare","Nr. 59 Căpuşu Mare Cluj","Căpuşu Mare",4039,2319,7734,4913,7460,7295,46.7913715,23.2885538
"376","Fostul Sediu C. A. P.","Nr. 74 Dumbrava Cluj","Dumbrava",3887,5545,8954,1322,9253,2433,46.82279339999999,23.2134879
"377","Școla cu Clasele I-IV","Nr. 164 Păniceni Cluj","Păniceni",5911,2236,1618,2908,3793,8123,46.8083658,23.1853963
"381","Școala Gimnazială Rugășești","Nr. 15 Rugăşeşti Cluj","Rugăşeşti",5653,9923,5713,7895,2818,1331,47.2384998,23.872503
"382","Școala Guga","Nr. 91 Guga Cluj","Guga",5495,9706,9023,488,5189,7817,47.2625369,23.8426145
"383","Școala Garbăul Dejului","Nr. 153 A Gîrbău Dejului Cluj","Gîrbău Dejului",2987,456,2029,6794,6685,6419,47.23759829999999,23.9058541
"385","Școala Primară Urișor","Nr. 71 A Urişor Cluj","Urişor",871,2723,8177,7143,278,9076,47.1704995,23.8763435
"387","Școla cu clasele I-IV Feldioara","Nr. 119 Feldioara Cluj","Feldioara",5273,3055,4165,993,1938,6246,46.8840734,24.1511812
"389","Căminul Cultural Ceanu Mare","Nr. 376 Ceanu Mare Cluj","Ceanu Mare",10,8415,4450,7878,7091,5806,46.65,23.966667
"391","Căminul Cultural Boldut","Nr. 54 Bolduţ Cluj","Bolduţ",6282,8674,1400,3272,8000,446,46.62071599999999,23.9504957
"393","Școala Dosu Napului","Nr. 76 Dosu Napului Cluj","Dosu Napului",9225,9910,2847,2859,1009,450,46.6634533,23.9132531
"395","Școala Cls. I-IV Deușu","Deuşu Cluj","Deuşu",7554,6703,1265,2451,3973,6112,46.8969902,23.5250753
"397","Punct Lucru Feiurdeni al Primăriei Comunei Chinteni","Feiurdeni Cluj","Feiurdeni",5002,4541,4884,1110,7777,407,46.8817421,23.6216078
"401","Școala Primară Huta","Huta Cluj","Huta",3439,3116,5871,6223,9409,8218,47.3290071,24.0014267
"403","Școala Clasele I-IV Calea Lata","Nr. 442 Ciucea Cluj","Ciucea",4561,3954,2797,9845,1836,3657,46.9543006,22.8130342
"408","Căminul Cultural Sălicea","Nr. 45 Sălicea Cluj","Sălicea",9580,4465,1568,1141,2599,2563,46.6768199,23.5263236
"409","Parohia Ortodoxa Saliste","Nr. 75 Sălişte Cluj","Sălişte",330,3030,3362,3379,4352,7497,46.6509954,23.5834529
"412","Școala Gen. Sălișca","Nr. 181 Sălişca Cluj","Sălişca",8137,4951,863,3668,7112,3304,46.6768199,23.5263236
"415","Școala Boju","Nr. 1A Boju Cluj","Boju",4091,9231,1525,4878,9492,7230,46.70984869999999,23.7811635
"416","Magazin Cooperatist Boju Catun (Fostul)","Nr. FN Boj-Cătun Cluj","Boj-Cătun",397,3062,8373,8720,4572,1641,46.6974471,23.8374746
"417","Biroul Primăriei Cara","Nr. 29 Cara Cluj","Cara",8788,6220,4184,7505,5935,167,46.7556859,23.7820526
"420","Căminul Cultural Tiocu de Sus","Nr. 75 Tiocu De Sus Cluj","Tiocu De Sus",3559,704,1075,2856,9996,2749,47.0775119,23.6483527
"423","Cooperativa Veche- Stoiana","Nr. 109 Stoiana Cluj","Stoiana",9744,4734,9156,9136,9951,8387,47.0175644,23.6872587
"426","Căminul Cultural Bîrlea","Nr. 135 Bîrlea Cluj","Bîrlea",9193,4320,6855,8783,5886,9143,46.9886317,23.7254745
"427","Căminul Cultural Tioltiur","Nr. 154 Tioltiur Cluj","Tioltiur",5090,6702,9582,5413,1772,5205,47.01314130000001,23.7191984
"429","Căminul Cultural","Nr. 107 Cuzdrioara Cluj","Cuzdrioara",5110,986,5644,7414,9397,5701,47.166667,23.9
"432","Școala cu Clasele I-IV Luna de Jos","Nr. 173 Luna De Jos Cluj","Luna De Jos",8504,2260,7015,3179,3084,807,46.9378102,23.7493028
"434","Căminul Cultural Feleacu din Localitatea Feleacu","Nr. 141 Feleacu Cluj","Feleacu",2246,783,4068,6875,8111,7033,46.7139067,23.616848
"435","Căminul Cultural din Localitatea Gheorgheni","Nr. 270/A Gheorghieni Cluj","Gheorghieni",3473,6846,730,9676,5733,3731,46.7683396,23.6250702
"436","Fostul Sediu C. A. P. Vilcele din Localitatea Vilcele","Nr. 158/E Vîlcele Cluj","Vîlcele",8135,1322,5535,9423,8384,8554,46.6909224,23.651921
"437","Căminul Cultural Fizesu Gherlii","Fizeşu Gherlii Cluj","Fizeşu Gherlii",7447,5566,598,5073,6966,3581,47.016667,23.983333
"438","Școala Cls. I-IV","Nicula Cluj","Nicula",2838,3031,8812,4803,4171,7764,47.0088982,23.939888
"439","Școala Cls. I-IV Bont","Bonţ Cluj","Bonţ",9501,7523,2035,7780,7431,5363,46.9884601,23.9246996
"440","Școala Cls. I-IV Sacalaia","Săcălaia Cluj","Săcălaia",3906,2327,9753,5508,5792,6279,46.9614844,23.9216732
"441","Primăria Comunei Floresti","Strada Avram Iancu Nr. 170 Floreşti Cluj","Floreşti",408,2090,9995,7036,469,7996,46.74437169999999,23.4840117
"442","Primăria Comunei Floresti","Strada Avram Iancu Nr. 170 Floreşti Cluj","Floreşti",5243,1531,1077,1600,2450,2056,46.74437169999999,23.4840117
"443","Primăria Comunei Floresti","Strada Avram Iancu Nr. 170 Floreşti Cluj","Floreşti",9608,1984,9466,3234,6927,1530,46.74437169999999,23.4840117
"444","Școala Gheorghe Șincai","Strada Avram Iancu Nr. 221 Floreşti Cluj","Floreşti",4087,4395,6270,2604,7514,5068,46.74437169999999,23.4840117
"445","Școala Gh. Sincai","Strada Avram Iancu Nr. 221 Floreşti Cluj","Floreşti",542,6178,849,9894,5427,3960,46.74437169999999,23.4840117
"446","Grădinița Nr. 1","Strada Avram Iancu Nr. 132 Floreşti Cluj","Floreşti",5078,7888,1592,4015,5196,9838,46.74437169999999,23.4840117
"447","Grădinița Nr. 1","Strada Avram Iancu Nr. 132 Floreşti Cluj","Floreşti",1481,472,6994,5778,6332,2707,46.74437169999999,23.4840117
"448","Grădinița Nr. 2","Strada Horea Nr. 55 Floreşti Cluj","Floreşti",8889,5546,2339,8550,3622,3879,46.7798362,23.587277
"450","Sala de Sport Cetatea Fetei","Floreşti Cluj","Floreşti",3647,9414,5546,5235,7307,3472,46.74360000000001,23.483
"451","Sala de Sport Cetatea Fetei","Floreşti Cluj","Floreşti",3493,2419,4091,8252,2836,4320,46.74360000000001,23.483
"453","Sala de Sport Cetatea Fetei","Floreşti Cluj","Floreşti",1720,1135,7092,3209,3337,7741,46.74360000000001,23.483
"454","Școala Luna de Sus","Nr. 369 Luna De Sus Cluj","Luna De Sus",5983,7883,5550,1846,6804,8211,46.7441717,23.43052
"455","Școala Luna de Sus","Nr. 369 Luna De Sus Cluj","Luna De Sus",3520,3259,7486,1786,7877,9851,46.7441717,23.43052
"456","Căminul Cultural Tauti","Nr. 58 Tăuţi Cluj","Tăuţi",3185,8701,2001,7346,4128,6393,46.7119114,23.505758
"457","Căminul Cultural Frata","Frata Cluj","Frata",1104,8710,6498,6775,526,6858,46.7,24.05
"458","Căminul Cultural Berchiesu","Berchieşu Cluj","Berchieşu",4746,3707,1472,3204,8251,4338,46.7299856,24.0370222
"459","Căminul Cultural Poiana Fratii","Poiana Frăţii Cluj","Poiana Frăţii",7077,842,6340,1658,4841,9992,46.67071259999999,24.070465
"460","Căminul Cultural Soporul de Campie","Soporu De Cîmpie Cluj","Soporu De Cîmpie",1277,6623,3432,8154,7415,3843,46.6958957,23.9946699
"461","Căminul Cultural Geaca","Nr. 183 Geaca Cluj","Geaca",3249,413,4528,7021,4853,9814,46.85,24.083333
"462","Căminul Cultural Sucutard","Sucutard Cluj","Sucutard",5826,724,4851,9565,5028,9587,46.8983834,24.0640633
"463","Căminul Cultural Lacu","Lacu Cluj","Lacu",1960,6395,8890,8820,1221,4455,46.8837003,24.1068581
"464","Căminul Cultural Legii","Legii Cluj","Legii",2956,3899,4690,6961,2688,9837,46.8557772,24.0449111
"465","Școala Chiris","Chiriş Cluj","Chiriş",5274,5078,9041,1101,8349,9000,46.8832949,24.0380849
"466","Căminul Cultural Puini","Puini Cluj","Puini",9445,104,636,1360,5759,9140,46.9095331,24.0096234
"467","Casa de Cultură Dumitru Sopon","Strada Principală Nr. 723 Gilău Cluj","Gilău",9178,6996,3938,5600,3141,8661,46.74290740000001,23.4331462
"468","Căminul Cultural Vechi Gilău","Strada Principală Nr. 723 Gilău Cluj","Gilău",3305,6853,4486,9473,7724,806,46.74290740000001,23.4331462
"469","Liceul Teoretic Gelu Voievod, Clădire a Internat","Strada Principală Nr. 721 Gilău Cluj","Gilău",5811,1011,8032,4816,4311,7088,46.74290740000001,23.4331462
"470","Căminul Cultural Someșu Rece","Nr. 115 Someşu Rece Cluj","Someşu Rece",2483,5311,4796,6654,5637,6918,46.7326799,23.3655186
"471","Grădinița - Uzina Electrică","Nr. FN Someşu Rece Cluj","Someşu Rece",8492,1922,442,1381,4361,270,46.7326799,23.3655186
"473","Școala Primară Vistea","Nr. 34 Viştea Cluj","Viştea",3088,5209,4436,7645,1569,1274,46.8022433,23.4012085
"474","Căminul Cultural Turea","Nr. 161 Turea Cluj","Turea",4916,9814,6684,1747,4364,5394,46.8517436,23.3525136
"475","Căminul Cultural Nădășelu","Nr. 3 Nădăşelu Cluj","Nădăşelu",8162,7291,2655,8429,1035,2431,46.8273641,23.4151226
"476","Căminul Cultural Cornesti","Nr. 74 Corneşti Cluj","Corneşti",5472,577,2636,5438,2798,8507,47.0348851,23.6786044
"478","Scoala","Cacova Ierii Cluj","Cacova Ierii",5771,3152,8537,9997,4575,4264,46.5460898,23.4684112
"479","Scoala","Făgetu Ierii Cluj","Făgetu Ierii",180,3249,2239,5909,8270,7973,46.5399952,23.5228628
"480","Scoala","Iara Cluj","Iara",9425,7312,7160,6424,9285,4331,46.5532007,23.5177116
"481","Scoala","Iara Cluj","Iara",152,5785,5500,4391,7880,89,46.5532007,23.5177116
"482","Scoala","Maşca Cluj","Maşca",4166,746,3313,6877,176,7473,46.552158,23.4550817
"483","Scoala","Ocolişel Cluj","Ocolişel",4494,2710,828,7534,2230,3765,46.5146957,23.4871134
"484","Scoala","Surduc Cluj","Surduc",8631,3091,3358,7368,5166,2538,46.5406829,23.5489504
"485","Scoala","Valea Vadului Cluj","Valea Vadului",1784,197,5731,5358,7544,3306,46.55394,23.4248151
"486","Casă Proprietate Particulară","Nr. 146 Borzeşti Cluj","Borzeşti",7489,2775,6397,6626,7113,8878,46.5398775,23.6110357
"487","Casă Proprietate Particulară","Nr. 90 Buru Cluj","Buru",3479,2907,5047,4401,336,8260,46.5078015,23.6006212
"488","Casă Proprietate Particulară","Nr. 17 A Lungeşti Cluj","Lungeşti",3225,4952,1521,9420,5007,6394,46.4970219,23.5289841
"489","Casă Proprietate Particulară","Nr. 44 Măgura Ierii Cluj","Măgura Ierii",5957,5175,4468,2628,6199,1083,46.5436695,23.5834383
"490","Așezământul Cultural din Iclod","Iclod Cluj","Iclod",2047,6809,4557,8750,5501,5207,46.9847173,23.8076555
"491","Școala din Fundatura","Fundătura Cluj","Fundătura",1050,6772,248,9747,2139,7433,46.9567715,23.7769799
"493","Școala din Orman","Orman Cluj","Orman",7441,1773,6767,664,5651,5625,47.0451827,23.8192699
"495","Primăria Comunei","Izvoru Crişului Cluj","Izvoru Crişului",540,2534,2151,7288,8729,3841,46.833333,23.1
"496","Școala Generală","ŞAula Cluj","ŞAula",1180,6625,9171,1017,2496,7243,46.8521432,23.0728782
"497","Căminul Cultural","Nr. 145 Jichişu De Jos Cluj","Jichişu De Jos",6329,189,6673,7260,8257,9998,47.133333,23.8
"498","Căminul Cultural","Nr. 40 Codor Cluj","Codor",5739,6376,6035,9115,1179,4212,47.1252698,23.8182193
"499","Școala Generală","Nr. 138 Jichişu De Sus Cluj","Jichişu De Sus",448,4559,8267,3583,4002,9144,47.133333,23.8
"500","Școala Generală","Nr. 61 Tărpiu Cluj","Tărpiu",4056,6039,7255,5548,3157,7518,47.1439293,23.7597175
"501","Școala Generală","Nr. 57 ŞIgău Cluj","ŞIgău",9076,4080,253,7043,2596,911,47.1018542,23.7136235
"502","Primăria Comunei","Nr. 112 Jucu De Sus Cluj","Jucu De Sus",3398,3703,5074,6073,4800,1145,46.86037049999999,23.7952009
"503","Școala Primară","Nr. 152 Jucu De Mijloc Cluj","Jucu De Mijloc",1397,4558,4773,6524,1643,9776,46.8454014,23.7670913
"504","Școala Primară","Nr. 272 Gădălin Cluj","Gădălin",5307,8808,143,9255,6127,1607,46.8400289,23.8497118
"505","Școala Primară","Nr. 16 Vişea Cluj","Vişea",2682,3272,8353,1127,6861,703,46.8564241,23.8741863
"506","Grădinița cu Program Normal","Nr. 42 Juc-Herghelie Cluj","Juc-Herghelie",9513,8282,6306,1201,5109,5401,46.8604974,23.7625514
"507","Căminul Cultural Prof. Nicolae MazareLuna","Nr. 752 Luna Cluj","Luna",8853,8096,6959,7860,394,6399,46.505556,23.921111
"508","Căminul Cultural Prof. Nicolae MazareLuna","Nr. 752 Luna Cluj","Luna",201,5767,877,6999,4931,7397,46.505556,23.921111
"509","Căminul Cultural Luncani","Nr. 399 Luncani Cluj","Luncani",9650,2914,5044,385,8808,2545,46.468408,23.9503263
"510","Grădinița Gligoresti","Nr. 136 Gligoreşti Cluj","Gligoreşti",456,159,8581,503,7432,2619,46.45082,23.9750952
"511","Căminul Cultural","Muntele Rece Cluj","Muntele Rece",9123,1093,2560,8253,7175,1799,46.6595843,23.3023454
"512","Primăria Comunei","Măguri-Răcătău Cluj","Măguri-Răcătău",2422,8608,3584,2349,8583,1369,46.642778,23.196111
"513","Școala Generală","Măguri Cluj","Măguri",3340,6143,8852,5458,412,4131,46.63049729999999,23.1171136
"514","Primăria Comunei","Mănăstireni Cluj","Mănăstireni",5363,1429,584,5326,5633,525,46.77861859999999,23.0854825
"515","Școala Generală","Bedeciu Cluj","Bedeciu",4087,4741,8651,48,6245,218,46.7945638,23.1304402
"516","Căminul Cultural","Nr. 48 Scrind-Frăsinet Cluj","Scrind-Frăsinet",1651,7431,9179,5303,3578,6896,46.7438934,22.8997958
"517","Căminul Cultural","Nr. 18 Buteni Cluj","Buteni",4712,2428,6745,6423,3669,6895,46.78747509999999,22.9806222
"518","Primăria Comunei Mărgău","Nr. 204 Mărgău Cluj","Mărgău",6310,3949,2491,4510,8458,5270,46.743056,22.964167
"519","Căminul Cultural","Nr. 166 Răchiţele Cluj","Răchiţele",3966,7834,9122,8227,3030,1037,46.7152837,22.891139
"520","Școala Generală","Mărişel Cluj","Mărişel",8450,1013,3518,5514,8621,29,46.6676666,23.1098752
"521","Școala Generală","Mărişel Cluj","Mărişel",9493,5331,6122,4237,4881,5262,46.6676666,23.1098752
"522","Școala Generală","Mărişel Cluj","Mărişel",9590,9389,3240,1450,8655,673,46.6676666,23.1098752
"523","Căminul Cultural","Mica Cluj","Mica",4789,6568,1230,5150,8222,8398,47.145833,23.930556
"524","Căminul Cultural","Mănăstirea Cluj","Mănăstirea",3769,7512,4121,6129,8711,8885,47.1204131,23.9220338
"525","Fostul Sediu C. A. P.","Nireş Cluj","Nireş",5898,6449,3884,8788,3105,264,47.1142634,23.9847267
"526","Școala Generală","Sînmărghita Cluj","Sînmărghita",1330,414,507,5711,6788,8656,47.1560887,23.9939533
"527","Școala Generală","Nr. 474 Mihai Viteazu Cluj","Mihai Viteazu",5892,3692,427,3259,2879,1524,46.533333,23.75
"528","Școala Generală","Nr. 222 Cheia Cluj","Cheia",3945,7020,7182,4257,73,2470,46.542144,23.70833
"529","Școala Generală","Nr. 161 Corneşti Cluj","Corneşti",3751,8225,285,7674,4894,6300,47.0348851,23.6786044
"530","Căminul Cultural","Nr. 1127 Mihai Viteazu Cluj","Mihai Viteazu",2578,8481,164,6075,5458,5151,46.533333,23.75
"531","Sala de Sport","Nr. 1014 Mihai Viteazu Cluj","Mihai Viteazu",4855,3359,4361,9810,9499,2388,46.533333,23.75
"532","Primăria Comunei","Nr. 184 Mintiu Gherlii Cluj","Mintiu Gherlii",9418,7026,4236,8624,1950,5687,47.056389,23.9475
"533","Școala Generală","Nr. 228 Buneşti Cluj","Buneşti",3834,8256,7047,5323,2388,1611,47.0635037,23.9054679
"534","Școala Generală","Nr. 186 Nima Cluj","Nima",8421,1941,1566,9179,939,3904,47.085231,23.888758
"535","Școala Generală","Nr. 28 Pădurenii Cluj","Pădurenii",630,4646,4732,9238,5504,5866,47.0715976,23.9997851
"536","Școala Generală","Nr. 77 Petreşti Cluj","Petreşti",3002,2420,3214,7338,7646,8874,47.0777508,23.9371546
"537","Școala Generală","Nr. 49 Salatiu Cluj","Salatiu",5897,5446,5009,2812,9749,1361,47.1005334,23.9273884
"538","Căminul Cultural Mociu - Sala Mica","Nr. 105 Mociu Cluj","Mociu",4477,2661,452,1414,4117,5673,46.7952336,24.0316528
"539","Școala Elementara","Nr. 139 Chesău Cluj","Chesău",3255,6140,8303,9536,2252,8736,46.81761830000001,24.008826
"540","Școala Generală","Nr. 132 Crişeni Cluj","Crişeni",1530,4164,3062,4911,8663,7437,46.75284329999999,24.0465141
"541","Clădire Multifuncțională","Nr. 75 Ghirişu Român Cluj","Ghirişu Român",3298,9573,4909,7441,5145,147,46.804907,23.9765851
"543","Sală Multifuncţională","Nr. 104 Boteni Cluj","Boteni",837,5666,9785,5917,3406,2010,46.7655333,24.0240297
"544","Clădire Multifuncţională","Nr. 19 Roşieni Cluj","Roşieni",8131,8923,5294,5686,5168,7840,46.8143693,24.0652029
"546","Școala cu Clasele I-VIII","Moldoveneşti Cluj","Moldoveneşti",6173,5105,741,7280,5281,3132,46.4980151,23.6774068
"547","Școala cu Clasele I-IV","Plăieşti Cluj","Plăieşti",1620,2092,592,8569,530,628,46.5007739,23.7112588
"548","Casa Satului","Bădeni Cluj","Bădeni",3600,9613,5796,7192,5497,5999,46.4900036,23.7371508
"549","Clădire a Primăriei","Nr. 131 Stejeriş Cluj","Stejeriş",8859,7179,5242,4310,9694,1355,46.4657881,23.7344904
"550","Căminul Cultural","Pietroasa Cluj","Pietroasa",174,26,1239,166,9847,2379,46.4639057,23.6371812
"551","Școala cu Clasele I-IV","Podeni Cluj","Podeni",1952,7995,4797,2153,9178,7344,46.4275884,23.6391511
"552","Căminul Cultural","Nr. 57 Negreni Cluj","Negreni",538,1986,5487,5741,8390,3090,46.9542924,22.7612251
"553","Casa de Cultură","Nr. 50 Bucea Cluj","Bucea",3176,961,1171,1659,8179,2615,46.9494151,22.689769
"554","Școala cu Clasele I-IV","Nr. 20 Prelucele Cluj","Prelucele",6049,4694,1834,973,894,3810,46.9340921,22.7798826
"555","Școala Primară","Nr. 216 A Sărata Cluj","Sărata",9974,5989,3010,2770,9879,5337,47.0552333,23.4951291
"556","Primăria Comunei Sediul Vechi","Nr. 93 Panticeu Cluj","Panticeu",4720,5102,820,7883,4130,1301,47.04416699999999,23.558611
"559","Căminul Cultural","Nr. 51 Cătălina Cluj","Cătălina",1644,44,9031,6393,1315,1995,47.0364787,23.5045823
"560","Căminul Cultural Pălatca","Nr. 449 Pălatca Cluj","Pălatca",1251,7972,4681,6768,2468,6368,46.8435898,23.9871784
"561","Căminul Cultural Sava","Nr. 98 Sava Cluj","Sava",2026,2036,1028,8616,1762,12,46.882134,23.9667325
"562","Căminul Cultural","Nr. 42 Plaiuri Cluj","Plaiuri",640,6385,4199,5418,75,4057,46.5881019,23.5696092
"563","Școala Generală","Nr. 10 Petreştii De Mijloc Cluj","Petreştii De Mijloc",6784,7328,9803,3762,4285,6350,46.5644103,23.6531648
"564","Școala Generală","Nr. 67 Deleni Cluj","Deleni",56,5514,3170,1357,1433,1012,46.6058618,23.6383823
"566","Căminul Cultural","Nr. 76 Petreştii De Jos Cluj","Petreştii De Jos",1222,5926,1622,956,2706,3827,46.58083300000001,23.655278
"568","Căminul Cultural","Nr. FN Petreştii De Sus Cluj","Petreştii De Sus",770,4648,4029,9143,9591,3905,46.58083300000001,23.655278
"569","Căminul Cultural","Nr. 50 Ploscoş Cluj","Ploscoş",7719,9171,9571,760,7906,3294,46.6426911,23.8453736
"570","Școala cu Clasele I-IV","Nr. 50 Valea Florilor Cluj","Valea Florilor",4389,9277,6955,2157,5800,3919,46.6622978,23.8577958
"571","Primăria Comunei Poieni","Nr. 268 Poieni Cluj","Poieni",443,6838,9587,3488,4890,3618,46.9178945,22.8585717
"572","Școala Primăria Bologa","Nr. 204 /A Bologa Cluj","Bologa",8219,8399,8841,3498,3510,4884,46.8860027,22.8765768
"573","Școala Primăria Morlaca","Nr. 110 / A Morlaca Cluj","Morlaca",4047,1964,1290,7840,6685,462,46.85749879999999,22.9179243
"575","Școala Gimnazială Aurel MunteanuValea Drăganului","Nr. 417 /A Valea Drăganului Cluj","Valea Drăganului",8012,8442,1860,2452,6146,5377,46.8972048,22.8293746
"577","Școala Lunca Vișagului","Nr. 42 Lunca Vişagului Cluj","Lunca Vişagului",4627,1452,4802,8390,80,2912,46.8266764,22.7641123
"578","Sediul Primăriei Sala de Sedinţe","Recea-Cristur Cluj","Recea-Cristur",5995,6533,3293,8068,6464,4094,47.080278,23.522778
"579","Școala","Elciu Cluj","Elciu",4625,1880,1804,6474,192,4487,47.0830955,23.5666553
"580","Școala","Pustuţa Cluj","Pustuţa",3576,7145,1284,224,2549,2682,47.1238833,23.5640196
"581","Școala","Osoi Cluj","Osoi",8479,8589,5853,4839,5381,5475,47.1483244,23.5196701
"582","Școala","Ciubăncuţa Cluj","Ciubăncuţa",3793,7628,3262,8137,8234,3810,47.1432232,23.5520542
"583","Căminul Cultural Ciubanca","Nr. 81 Ciubanca Cluj","Ciubanca",466,7731,4882,4476,8359,1505,47.1621581,23.5716048
"585","Școala Primară cu Clasele I-IV","Nr. 84 Dealu Mare Cluj","Dealu Mare",5457,6521,8554,3552,93,2678,46.7164971,23.1526439
"586","Școala Primară cu Clasele I-IV","Nr. 28 Mărceşti Cluj","Mărceşti",9147,5466,6305,8417,200,5331,46.7437265,23.1534751
"590","Școala","Nr. 162 Sănduleşti Cluj","Sănduleşti",9583,8720,9403,604,1677,9909,46.593889,23.746944
"591","Școala Simion Balint","Nr. 178 Copăceni Cluj","Copăceni",3367,2302,6668,2555,4501,6158,46.5962968,23.7402487
"592","Căminul Cultural","Nr. 368 Săvădisla Cluj","Săvădisla",4248,8485,3900,8220,7791,5470,46.672778,23.455278
"593","Căminul Cultural","Nr. 78 Lita Cluj","Lita",5133,3623,3943,5461,5832,4318,46.63787629999999,23.464897
"595","Căminul Cultural","Nr. 240 Vlaha Cluj","Vlaha",5304,6758,2068,4571,3304,5611,46.6969002,23.4543394
"596","Școala cu Clasele I-VIII","Nr. 41/A Hăşdate Cluj","Hăşdate",7240,331,6506,1286,3062,4120,47.0099367,23.8813722
"597","Școala cu Clasele I-VIII","Nr. 103 Finişel Cluj","Finişel",8145,9009,5205,7286,3804,2913,46.6772181,23.4244737
"598","Școala cu Clasele I-IV","Nr. 177 Liteni Cluj","Liteni",8585,6469,9523,7899,3649,7903,46.620365,23.4516367
"599","Școala cu Clasele I-IV","Nr. 19 Stolna Cluj","Stolna",1445,9682,8728,9739,4163,3311,46.7097798,23.3977318
"600","Căminul Cultural, Sancraiu Nr. 330","Nr. 330 Sâncraiu Cluj","Sâncraiu",8923,8731,56,5571,6602,9451,46.8304,22.9893
"601","Căminul Cultural","Nr. 74 Alunişu Cluj","Alunişu",7027,5441,4532,4432,8680,4431,46.8317796,22.9430228
"602","Domosu Nr. 22 Căminul Cultural","Nr. 22 Domoşu Cluj","Domoşu",9748,9657,8817,4663,8607,3195,46.8307447,23.023298
"603","Primăria Sanmartin","Nr. 207 Sânmărtin Cluj","Sânmărtin",6431,6392,6844,265,5145,8173,47.0089,24.0786
"604","Şcoala Prim. Ceaba","Nr. 70 Ceaba Cluj","Ceaba",5832,5924,3370,4484,3754,9762,47.0500092,24.096793
"605","Școala Gimnazială Cutca","Nr. 163 Cutca Cluj","Cutca",5647,2295,7991,2357,104,5935,47.0335604,24.0795404
"606","Cămin Cultural Samboieni","Nr. 35 Sîmboieni Cluj","Sîmboieni",8569,5872,9733,6082,7395,1125,47.0290322,24.0579427
"608","Şcoala Prim. Mahal","Nr. 47 Măhal Cluj","Măhal",2153,8471,8470,3702,4460,8158,46.9745795,24.043766
"609","Şcoala Prim. Div-Mari","Nr. 148 Diviciorii Mari Cluj","Diviciorii Mari",5511,1540,7967,7466,7176,3591,46.9875149,24.0723593
"610","Şcoala Prim. Div-Mici","Nr. 71 Diviciorii Mici Cluj","Diviciorii Mici",2624,4338,689,7178,985,9706,46.9730984,24.099496
"611","Căminul Cultural Sic","Strada Strada III Sic Cluj","Sic",6220,6558,4545,6842,6743,2877,46.9310611,23.8936403
"614","Sediul Școlii Gen Sardu","Nr. 7 ŞArdu Cluj","ŞArdu",620,5930,5738,7987,9023,7264,46.8607467,23.3908569
"615","Sediul Școlii Gen Berindu","Nr. 56 Berindu Cluj","Berindu",4946,4825,6523,9648,8363,8956,46.93407670000001,23.4367353
"616","Căminul Cultural Mihaiesti","Nr. 29 Mihăieşti Cluj","Mihăieşti",7770,5610,7518,8429,3378,985,46.9017148,23.4145566
"617","Magazinul Cooperaţiei","Nr. 19 Topa Mică Cluj","Topa Mică",8371,2532,4042,663,6648,8951,46.93658689999999,23.3865466
"618","Sediul Administrativ al Primăriei Suatu","Nr. 685 Suatu Cluj","Suatu",6849,4925,1807,2335,2236,2381,46.7792,23.9642
"619","Sediul Administrativ din Aruncuta","Nr. 201A Aruncuta Cluj","Aruncuta",3381,4675,4453,5628,1243,1491,46.7333058,23.9644775
"620","Școala Pavel Dan","Nr. 390 Tritenii De Jos Cluj","Tritenii De Jos",393,5832,3929,4708,9859,3722,46.58609999999999,23.9965
"621","Școala Primăria","Nr. 84 Tritenii De Sus Cluj","Tritenii De Sus",6362,9942,8056,7459,8901,2698,46.6057921,23.9975928
"622","Școala Primăria","Nr. 124 Colonia Cluj","Colonia",8168,3481,5195,3184,1625,6971,46.596675,23.9696703
"623","Căminul Cultural","Nr. 257 Pădureni Cluj","Pădureni",8417,8638,7211,1178,2683,3965,46.6070696,23.5598088
"624","Școala cu Cls I-IV","Nr. 102 Tritenii-Hotar Cluj","Tritenii-Hotar",6816,8398,1948,9859,5713,6131,46.5676133,23.9942326
"625","Casă Particulară","Nr. 30 Clapa Cluj","Clapa",7238,7453,5879,4975,3921,8661,46.5731085,24.0283291
"626","Primăria Comunei Tureni , Nr. 243","Nr. 243 Tureni Cluj","Tureni",5160,2586,1567,4117,8466,9969,46.6231,23.7034
"627","Căminul Cultural Ceanu Mic , Nr. 184","Nr. 184 Ceanu Mic Cluj","Ceanu Mic",9412,7713,7204,8868,124,8128,46.64355279999999,23.7108826
"628","Școala cu clasele I-IV Comsesti , Nr. 111","Nr. 111 Comşeşti Cluj","Comşeşti",1250,6754,5667,7919,2990,5650,46.6329526,23.666088
"629","Școala cu clasele I-IV Mărtinești , Nr. 60","Nr. 60 Mărtineşti Cluj","Mărtineşti",9222,5015,5644,5771,412,5964,46.6593577,23.6853398
"630","Școala cu clasele I-IV Micesti , Nr. 57","Nr. 57 Miceşti Cluj","Miceşti",1316,3482,821,9446,5263,7345,46.6466493,23.6150792
"631","Primăria Ţaga","Nr. 23 ŢAga Cluj","ŢAga",9025,6056,2255,4548,6183,8241,46.9457,24.0594
"633","Fosta Școală I-IV Năsal","Nr. 276 Năsal Cluj","Năsal",2717,7903,1561,7280,4,2529,46.9415436,24.1097386
"635","Grădinița cu Program Normal","Nr. 36 Unguraş Cluj","Unguraş",3564,2890,5194,6515,3938,9966,47.1081,24.0571
"636","Căminul Cultural Unguras","Nr. 154 Unguraş Cluj","Unguraş",1068,9855,8439,7344,6379,495,47.1081,24.0571
"637","Școala Gimnazială Batin","Nr. 53 Batin Cluj","Batin",1208,2963,6849,5613,6786,2864,47.0747886,24.0608
"638","Grădinița cu Program Normal Valea Ungurașului","Nr. 24 Valea Unguraşului Cluj","Valea Unguraşului",5404,8869,634,4251,8225,5925,47.0747615,24.1129768
"640","Școala Cetan","Nr. 67 Cetan Cluj","Cetan",4109,6849,3177,4522,486,937,47.1914551,23.8017223
"641","Centru de Zi Pentru Copii","Nr. 21 Bogata De Jos Cluj","Bogata De Jos",377,323,6056,1607,8627,6250,47.2048381,23.705431
"642","Școala Curtuiuș","Nr. 110 Curtuiuşu Dejului Cluj","Curtuiuşu Dejului",814,2397,4436,5867,6803,8312,47.2159499,23.6797056
"643","Școala Bogata de Sus","Nr. 138 Bogata De Sus Cluj","Bogata De Sus",6647,7561,786,9548,3028,8386,47.1937485,23.6661795
"644","Școala Valea Groșilor","Nr. 27 Valea Groşilor Cluj","Valea Groşilor",8419,9916,8174,8596,7824,5326,47.23979629999999,23.7432577
"645","Căminul Cultural Calna","Nr. 68 Calna Cluj","Calna",3582,9234,9160,8149,1695,9373,47.176816,23.6448092
"646","Școala Gimnazială Valea Ierii","Nr. 48 Valea Ierii Cluj","Valea Ierii",5254,345,6316,9589,7362,7839,46.6439087,23.3485441
"647","Școala Gen Cls I-VIII","Viişoara Cluj","Viişoara",7497,7342,5857,8777,2813,7293,46.5579,23.9098
"648","Școala generală Cls I-IV","Viişoara Cluj","Viişoara",607,4675,9193,3896,6885,9641,46.5579,23.9098
"649","Școala generală Cls I-IV","Viişoara Cluj","Viişoara",3193,3516,9344,2727,8545,5692,46.5579,23.9098
"650","Școala Gen Cls I-VIII Urca","Urca Cluj","Urca",4836,8508,3985,5120,2504,8681,46.54925069999999,23.9620547
"651","Primăria Comunei Vultureni","Nr. 73 Vultureni Cluj","Vultureni",5664,4022,5621,9069,7463,6212,46.9646,23.5574
"652","Școala Babutiu","Nr. 68 Băbuţiu Cluj","Băbuţiu",265,8034,8630,8543,8800,724,46.94031409999999,23.5277487
"655","Căminul Cultural Faureni","Nr. 21 Făureni Cluj","Făureni",4630,2678,5873,9117,9650,8597,46.9268102,23.5412101