id,nr_circumscriptie,circumscriptie,localitate,psd_cdep,usr_cdep,pnl_cdep,pmp_cdep,udmr_cdep,alde_cdep,pru_cdep,altele_cdep,psd_senat,usr_senat,pnl_senat,pmp_senat,udmr_senat,alde_senat,pru_senat,altele_senat,name,address,city,lat,lng
82,12,CĂLĂRAȘI,ALEXANDRU ODOBESCU,149,3,278,26,1,7,5,23,146,5,276,23,1,5,6,25,Școala Gimnazială nr. 2 Alexandru Odobescu,Str. Berzei nr. 64,Alexandru Odobescu,44.268,27.09
68,12,CĂLĂRAȘI,ORAŞ BUDEŞTI,134,4,59,0,0,9,2,9,126,3,63,3,0,10,5,14,Școala Gimnazială nr. 1aprozi,Str. Mihail Sadoveanu nr. 21,Aprozi,44.2642,26.4979
155,12,CĂLĂRAȘI,ILEANA,125,3,8,5,0,0,2,9,125,3,11,7,0,0,1,4,Școala Artari,Nr. 1,Arțari,44.5674,26.6687
84,12,CĂLĂRAȘI,BELCIUGATELE,176,0,350,6,1,19,0,27,177,7,350,10,1,18,2,18,Școala Gimnazială nr. 1 Belciugatele,,Belciugatele,44.486,26.4304
148,12,CĂLĂRAȘI,GRĂDIŞTEA,69,2,125,11,0,3,2,10,70,1,126,11,1,2,3,12,Școala Bogata,Calea Călărași nr. 74,Bogata,44.2072,27.1134
86,12,CĂLĂRAȘI,BORCEA,153,3,98,6,0,11,3,18,155,3,98,9,0,12,4,13,Școala Gimnazială nr. 3 Borcea,Nr. 158,Borcea,44.3222,27.7147
87,12,CĂLĂRAȘI,BORCEA,156,10,98,9,0,18,0,11,159,11,94,10,0,16,1,12,Grădinița cu Program Normal nr. 3 Borcea,Nr. 161,Borcea,44.3225,27.7146
88,12,CĂLĂRAȘI,BORCEA,204,12,161,6,1,7,5,25,196,13,169,6,1,6,7,22,Liceul Tehnologic nr. 1 Borcea Clasele I-IV Sala A,Nr. 278,Borcea,44.3308,27.7476
89,12,CĂLĂRAȘI,BORCEA,262,20,169,11,0,7,2,20,251,16,165,17,0,11,2,23,Liceul Tehnologic nr. 1 Borcea Clasele I-IV Sala B,Nr. 278,Borcea,44.3308,27.7476
90,12,CĂLĂRAȘI,BORCEA,218,7,135,20,2,12,6,25,225,9,133,22,1,13,6,18,Școala Gimnazială nr. 2 Borcea,Nr. 570,Borcea,44.3373,27.7629
123,12,CĂLĂRAȘI,DOROBANŢU,79,0,110,0,0,1,0,3,76,0,107,0,0,1,1,6,Școala cu Clasele I-IV Boșneagu,Nr. 64,Boșneagu,44.2378,26.9326
69,12,CĂLĂRAȘI,ORAŞ BUDEŞTI,87,0,56,1,1,26,3,6,86,0,54,1,0,25,3,9,Școala Primară nr. 2 Buciumeni,Str. Carol I nr. 21,Buciumeni,44.2544,26.4135
66,12,CĂLĂRAȘI,ORAŞ BUDEŞTI,203,7,82,8,0,50,12,19,203,4,80,10,0,49,12,20,Școala Gimnazială Gheorghe Manu,Calea București nr. 77,Budești,44.2346,26.4621
67,12,CĂLĂRAȘI,ORAŞ BUDEŞTI,217,0,65,11,0,55,10,19,219,1,62,12,0,59,9,18,Școala Gimnazială Gheorghe Manu,,Budești,44.2346,26.4621
80,12,CĂLĂRAȘI,ORAŞ LEHLIU GARĂ,163,7,18,1,0,6,6,23,155,8,20,1,0,5,8,21,Școala cu Clasele I-IV,Str. Primăverii nr. 56,Buzoeni,44.4144,26.8107
109,12,CĂLĂRAȘI,CUZA VODA,208,16,216,11,0,10,8,25,205,18,212,11,0,13,5,23,Școala Ceacu,Str. 7 nr. 35,Ceacu,44.2641,27.2525
207,12,CĂLĂRAȘI,SPANŢOV,119,4,188,1,1,4,9,17,115,4,183,1,2,6,6,18,Școala Cetatea Veche,Nr. 141,Cetatea Veche,44.1255,26.7698
92,12,CĂLĂRAȘI,CHIRNOGI,195,9,96,7,0,23,5,53,206,9,124,10,0,28,8,20,Școala cu Clasele I-VIII nr. 1,Nr. 12,Chirnogi,44.1077,26.5686
93,12,CĂLĂRAȘI,CHIRNOGI,327,22,127,12,2,42,9,26,324,23,119,16,2,43,9,25,Școala cu Clasele I-VIII nr. 2,Nr. 73,Chirnogi,44.1063,26.5762
94,12,CĂLĂRAȘI,CHIRNOGI,250,18,121,14,0,21,8,34,249,18,138,18,0,19,12,19,Școala cu Clasele I-VIII nr. 2,Nr. 73,Chirnogi,44.1063,26.5762
95,12,CĂLĂRAȘI,CHIRNOGI,214,11,71,10,0,14,10,33,222,12,71,13,0,14,11,27,Școala cu Clasele I-VIII nr. 3,Nr. 35,Chirnogi,44.1145,26.5755
96,12,CĂLĂRAȘI,CHISELET,92,3,128,2,0,15,7,12,94,3,126,3,0,15,8,11,Școala Generală nr. 1,Nr. 228,Chiselet,44.1679,26.8555
97,12,CĂLĂRAȘI,CHISELET,149,4,339,3,0,17,4,27,151,4,343,5,1,16,7,19,Școala Generală nr. 1,Nr. 228,Chiselet,44.1679,26.8555
98,12,CĂLĂRAȘI,CHISELET,116,6,145,3,0,26,2,12,123,6,144,3,1,24,5,15,Școala Generală nr. 2,Nr. 98,Chiselet,44.1581,26.8434
99,12,CĂLĂRAȘI,CIOCĂNEŞTI,108,8,139,4,2,14,5,25,104,7,132,3,4,13,4,41,Școala Smardan,Str. Lalelelor nr. 20,Ciocănești,44.2055,27.1017
100,12,CĂLĂRAȘI,CIOCĂNEŞTI,99,0,99,3,0,4,1,21,97,5,98,6,1,3,2,14,Școala Margineni,Str. Margaretelor nr. 4,Ciocănești,44.1982,27.0745
101,12,CĂLĂRAȘI,CIOCĂNEŞTI,168,15,185,7,1,12,9,25,170,13,189,12,1,11,10,21,Grădinița nr. 1 Sarbi,Str. Principală nr. 289,Ciocănești,44.1965,27.0631
102,12,CĂLĂRAȘI,CIOCĂNEŞTI,117,8,200,11,1,2,2,8,122,9,194,11,2,4,2,9,Școala Andolina,Str. Principală nr. 413 BIS,Ciocănești,44.1993,27.0477
176,12,CĂLĂRAȘI,MITRENI,80,3,66,0,0,7,9,21,80,3,65,3,0,8,8,14,Grădinița cu Program Normal nr. 3 Clatesti,Nr. 227,Clătești,44.1427,26.5982
172,12,CĂLĂRAȘI,MÂNĂSTIREA,92,0,107,15,1,5,2,10,102,0,102,6,1,5,4,7,Școala Generală Coconi,Str. Macului nr. 155,Coconi,44.244,26.8791
129,12,CĂLĂRAȘI,DRAGALINA,176,0,65,1,1,3,2,10,182,0,61,1,0,2,2,12,Școala Gimnazială nr. 2 Constantin Brancoveanu,Nr. 9,Constantin Brâncoveanu,44.4766,27.412
113,12,CĂLĂRAȘI,DICHISENI,147,7,165,14,0,10,2,10,147,7,161,15,0,13,2,11,Școala Primară nr. 1,Str. Ștefan Bănică nr. 14,Coslogeni,44.2258,27.492
150,12,CĂLĂRAȘI,GURBĂNEŞTI,70,2,78,2,0,2,2,6,68,1,80,2,0,1,3,10,Grădinița cu Program Normal Cotofanca,Str. Haiducilor nr. 19,Coțofanca,44.3809,26.6998
103,12,CĂLĂRAȘI,CRIVĂŢ,102,0,151,3,0,66,2,16,97,2,151,5,0,65,4,17,Școala Gimnazială „Nicolae Petrescu”,Nr. 62,Crivăț,44.1929,26.441
104,12,CĂLĂRAȘI,CRIVĂŢ,102,9,124,4,0,48,2,11,110,9,120,7,1,41,3,12,Școala Gimnazială „Nicolae Petrescu”,Nr. 62,Crivăț,44.1929,26.441
191,12,CĂLĂRAȘI,PLĂTĂREŞTI,89,5,79,5,0,2,5,8,87,5,76,3,0,2,6,13,Școala Generală Cucuieti,Nr. 33,Cucuieți,44.3309,26.3966
147,12,CĂLĂRAȘI,GRĂDIŞTEA,142,7,156,4,0,5,3,12,145,9,154,3,0,7,3,10,Școala Cunești,Calea Călărași nr. 54,Cunești,44.2229,27.1767
105,12,CĂLĂRAȘI,CURCANI,202,5,107,7,0,9,8,16,199,6,107,8,1,10,6,17,Școala nr. 1,Nr. 47,Curcani,44.1965,26.5887
106,12,CĂLĂRAȘI,CURCANI,170,3,138,4,0,11,7,13,161,3,139,5,1,11,9,13,Școala nr. 1,Nr. 47,Curcani,44.1968,26.5888
107,12,CĂLĂRAȘI,CURCANI,253,7,146,7,2,7,3,14,250,8,145,9,3,6,2,12,Școala nr. 1,Nr. 47,Curcani,44.1968,26.5895
108,12,CĂLĂRAȘI,CURCANI,208,7,309,4,0,13,9,18,210,9,309,4,1,14,15,21,Școala nr. 2,Nr. 32,Curcani,44.2055,26.5878
110,12,CĂLĂRAȘI,CUZA VODA,274,12,314,12,1,8,5,22,273,11,309,17,1,7,5,23,Școala Cuza Vodă,Str. 18 nr. 47,Cuza Vodă,44.2651,27.2693
1,12,CĂLĂRAȘI,MUNICIPIUL CĂLĂRAŞI,331,61,129,49,1,31,24,78,331,65,131,56,0,36,27,63,Școala Gimnazială Carol I Calarasi,Str. București nr. 159,Călărași,44.1926,27.332
2,12,CĂLĂRAȘI,MUNICIPIUL CĂLĂRAŞI,143,48,52,22,0,12,2,33,148,48,48,31,0,16,4,24,Școala Gimnazială Carol I Calarasi,Str. București nr. 159,Călărași,44.1926,27.332
3,12,CĂLĂRAȘI,MUNICIPIUL CĂLĂRAŞI,198,46,79,21,0,24,18,57,208,41,77,29,0,32,15,41,Școala Gimnazială Carol I Calarasi,Str. București nr. 72,Călărași,44.1952,27.3259
4,12,CĂLĂRAȘI,MUNICIPIUL CĂLĂRAŞI,141,45,87,35,0,29,9,40,140,51,90,41,0,29,9,24,Școala Gimnazială Carol I Calarasi,Str. București nr. 72,Călărași,44.1952,27.3259
5,12,CĂLĂRAȘI,MUNICIPIUL CĂLĂRAŞI,240,54,94,35,0,31,13,46,239,54,95,42,0,29,16,42,Colegiul Național „Barbu Știrbei”,Str. Eroilor Revoluției 22 Dec.1989 (Str. 30 Decembrie) nr. 36,Călărași,44.1977,27.3317
6,12,CĂLĂRAȘI,MUNICIPIUL CĂLĂRAŞI,203,27,47,20,1,14,7,39,197,23,54,25,0,18,10,36,Colegiul Național „Barbu Știrbei”,Str. Eroilor Revoluției 22 Dec.1989 (Str. 30 Decembrie) nr. 36,Călărași,44.1977,27.3317
7,12,CĂLĂRAȘI,MUNICIPIUL CĂLĂRAŞI,231,45,95,22,2,13,20,54,225,42,102,28,1,15,18,43,Grădinița cu Pr.Normal nr. 5 Calarasi,Str. Grivița nr. 98,Călărași,44.1951,27.3281
8,12,CĂLĂRAȘI,MUNICIPIUL CĂLĂRAŞI,343,32,85,16,1,19,10,40,335,31,94,22,1,18,12,40,Grădinița cu Pr.Normal nr. 4 Calarasi,Str. Stadionului nr. 27,Călărași,44.202,27.3241
9,12,CĂLĂRAȘI,MUNICIPIUL CĂLĂRAŞI,343,28,93,15,0,27,14,43,342,27,91,22,2,27,17,37,Grădinița cu Pr. Prel. (Micro6),Aleea Aleea Centralei nr. 7,Călărași,44.2001,27.321
10,12,CĂLĂRAȘI,MUNICIPIUL CĂLĂRAŞI,268,25,83,35,0,24,13,64,265,30,92,39,2,28,14,45,Colegiul Agricol „Sandu Aldea” Calarasi,Prelungirea București nr. 10,Călărași,44.2009,27.3182
11,12,CĂLĂRAȘI,MUNICIPIUL CĂLĂRAŞI,214,58,84,26,1,20,11,40,202,53,86,35,1,28,22,41,Colegiul Agricol „Sandu Aldea” Calarasi,Prelungirea București nr. 10,Călărași,44.2009,27.3182
12,12,CĂLĂRAȘI,MUNICIPIUL CĂLĂRAŞI,162,18,78,16,2,21,2,39,174,18,78,17,2,16,9,30,Colegiul Agricol „Sandu Aldea” Calarasi,Prelungirea București nr. 10,Călărași,44.2009,27.3182
13,12,CĂLĂRAȘI,MUNICIPIUL CĂLĂRAŞI,242,31,107,20,0,16,14,44,248,33,108,27,2,12,16,30,Liceul Teoretic „Mihai Eminescu”,Prelungirea București nr. 14,Călărași,44.2024,27.3167
14,12,CĂLĂRAȘI,MUNICIPIUL CĂLĂRAŞI,278,50,94,32,0,19,14,66,292,50,85,46,0,20,21,47,Liceul Teoretic „Mihai Eminescu”,Prelungirea București nr. 14,Călărași,44.2024,27.3167
15,12,CĂLĂRAȘI,MUNICIPIUL CĂLĂRAŞI,272,32,117,23,0,22,18,45,287,34,109,30,1,21,13,33,Liceul Teoretic „Mihai Eminescu”,Prelungirea București nr. 14,Călărași,44.2024,27.3167
16,12,CĂLĂRAȘI,MUNICIPIUL CĂLĂRAŞI,185,45,116,16,0,20,14,69,195,42,117,28,0,20,14,49,Școala Gimnazială Mihai Viteazul Calarasi,Prelungirea București nr. 12,Călărași,44.2018,27.3172
17,12,CĂLĂRAȘI,MUNICIPIUL CĂLĂRAŞI,265,31,93,19,0,14,19,40,260,31,85,31,0,14,21,36,Școala Gimnazială Mihai Viteazul Calarasi,Prelungirea București nr. 12,Călărași,44.2018,27.3172
18,12,CĂLĂRAȘI,MUNICIPIUL CĂLĂRAŞI,253,38,117,28,1,24,11,45,259,41,107,33,0,28,11,38,Școala Gimnazială Mihai Viteazul Calarasi,Prelungirea București nr. 12,Călărași,44.2018,27.3172
19,12,CĂLĂRAȘI,MUNICIPIUL CĂLĂRAŞI,168,27,49,8,2,12,5,34,177,25,40,11,1,10,8,32,Școala Gimnazială Mihai Viteazul Calarasi,Prelungirea București nr. 12,Călărași,44.2018,27.3172
20,12,CĂLĂRAȘI,MUNICIPIUL CĂLĂRAŞI,184,25,88,11,0,17,4,23,183,26,83,20,1,13,6,20,Sala de Sport a Scolii Gimnaziale Nicolae Titulescu,Bulevardul Nicolae Titulescu (Str. Călărașilor) nr. 3,Călărași,44.203,27.3204
21,12,CĂLĂRAȘI,MUNICIPIUL CĂLĂRAŞI,296,22,92,19,0,8,8,38,296,25,85,24,0,12,9,33,Sala de Sport a Scolii Gimnaziale Nicolae Titulescu,Bulevardul Nicolae Titulescu (Str. Călărașilor) nr. 3,Călărași,44.203,27.3204
22,12,CĂLĂRAȘI,MUNICIPIUL CĂLĂRAŞI,256,29,88,33,0,27,12,40,266,31,80,32,0,26,17,38,Grădinița cu Pr.Prel.nr. 1,Str. Dunării (D) nr. 1,Călărași,44.2033,27.3196
23,12,CĂLĂRAȘI,MUNICIPIUL CĂLĂRAŞI,420,36,99,22,0,24,15,52,422,35,100,26,0,28,18,42,Grădinița cu Program Normal nr. 2 Calarasi,Str. Bărăganului nr. 34,Călărași,44.2048,27.321
24,12,CĂLĂRAȘI,MUNICIPIUL CĂLĂRAŞI,266,34,89,21,1,14,13,48,266,35,93,19,0,18,17,42,Liceul Danubius Calarasi,Str. Știrbei Vodă (Str. Proiectată) nr. 1,Călărași,44.2066,27.3191
25,12,CĂLĂRAȘI,MUNICIPIUL CĂLĂRAŞI,292,15,95,28,2,21,6,59,292,17,92,35,1,24,8,52,Liceul Danubius Calarasi,Str. Știrbei Vodă (Str. Proiectată) nr. 1,Călărași,44.2066,27.3191
26,12,CĂLĂRAȘI,MUNICIPIUL CĂLĂRAŞI,269,26,113,25,2,16,5,56,278,23,122,28,4,11,13,45,Liceul Danubius Calarasi,Str. Știrbei Vodă (Str. Proiectată) nr. 1,Călărași,44.2066,27.3191
27,12,CĂLĂRAȘI,MUNICIPIUL CĂLĂRAŞI,215,5,55,21,1,3,6,44,229,10,47,26,1,5,7,32,Liceul Danubius Calarasi,Str. Știrbei Vodă (Str. Proiectată) nr. 1,Călărași,44.2066,27.3191
28,12,CĂLĂRAȘI,MUNICIPIUL CĂLĂRAŞI,216,30,90,19,1,20,6,41,219,25,108,22,2,17,7,28,Creșa Săptămânală cu 100 Locuri,Str. Mușețelului nr. 9,Călărași,44.2081,27.3162
29,12,CĂLĂRAȘI,MUNICIPIUL CĂLĂRAŞI,139,10,38,7,1,12,5,16,141,10,39,9,1,11,4,11,Creșa Săptămânală cu 100 Locuri,Str. Mușețelului nr. 9,Călărași,44.2081,27.3162
30,12,CĂLĂRAȘI,MUNICIPIUL CĂLĂRAŞI,286,55,136,16,0,24,12,70,285,52,142,22,0,30,14,51,Școala Gimnazială T.Vladimirescu,Str. Belșugului nr. 2,Călărași,44.2077,27.3145
31,12,CĂLĂRAȘI,MUNICIPIUL CĂLĂRAŞI,278,39,103,16,0,25,14,55,284,36,101,20,0,26,16,50,Școala Gimnazială T.Vladimirescu,Str. Belșugului nr. 2,Călărași,44.2077,27.3145
32,12,CĂLĂRAȘI,MUNICIPIUL CĂLĂRAŞI,248,51,97,33,1,22,13,51,255,54,91,41,0,21,13,39,Școala Gimnazială T.Vladimirescu,Str. Belșugului nr. 2,Călărași,44.2077,27.3145
33,12,CĂLĂRAȘI,MUNICIPIUL CĂLĂRAŞI,285,32,97,25,0,25,19,68,294,37,97,29,1,27,18,48,Școala Gimnazială T.Vladimirescu,Str. Belșugului nr. 2,Călărași,44.2077,27.3145
34,12,CĂLĂRAȘI,MUNICIPIUL CĂLĂRAŞI,216,39,97,24,0,16,10,49,223,38,94,30,0,12,10,43,Sala de Sport de la Școala 12,Prelungirea București nr. 133,Călărași,44.2067,27.3108
35,12,CĂLĂRAȘI,MUNICIPIUL CĂLĂRAŞI,204,29,97,18,1,25,7,36,208,29,93,25,1,18,10,33,Sala de Sport de la Școala 12,Prelungirea București nr. 133,Călărași,44.2067,27.3108
36,12,CĂLĂRAȘI,MUNICIPIUL CĂLĂRAŞI,235,40,100,29,0,20,9,63,244,34,100,37,0,22,6,48,Școala Gimnazială Mircea Vodă,Prelungirea București nr. 189,Călărași,44.2085,27.3075
37,12,CĂLĂRAȘI,MUNICIPIUL CĂLĂRAŞI,165,25,69,17,0,11,6,46,174,25,69,18,1,10,14,33,Școala Gimnazială Mircea Vodă,Prelungirea București nr. 189,Călărași,44.2085,27.3075
38,12,CĂLĂRAȘI,MUNICIPIUL CĂLĂRAŞI,261,62,145,28,1,18,16,77,274,62,148,38,1,18,19,55,Școala Gimnazială Mircea Vodă,Prelungirea București nr. 189,Călărași,44.2085,27.3075
39,12,CĂLĂRAȘI,MUNICIPIUL CĂLĂRAŞI,203,27,75,11,1,12,7,39,202,26,78,20,2,13,8,31,Școala Gimnazială Mircea Vodă,Prelungirea București nr. 189,Călărași,44.2085,27.3075
40,12,CĂLĂRAȘI,MUNICIPIUL CĂLĂRAŞI,282,19,129,31,1,14,14,51,289,22,129,30,0,17,13,41,Grădinița cu Program Prelungit nr. 9 Voinicel,Str. Crângului (Str. Crîngului) nr. 20,Călărași,44.2099,27.303
41,12,CĂLĂRAȘI,MUNICIPIUL CĂLĂRAŞI,243,12,67,22,0,13,7,29,238,15,69,22,0,20,7,22,Grădinița cu Program Prelungit nr. 9 Voinicel,Str. Crângului (Str. Crîngului) nr. 20,Călărași,44.2099,27.303
42,12,CĂLĂRAȘI,MUNICIPIUL CĂLĂRAŞI,175,27,71,26,1,14,6,28,180,22,70,34,2,14,9,22,Grădinița cu Pr.Prelungit nr. 5 Aricel Calarasi,Str. București nr. 227,Călărași,44.1905,27.3394
43,12,CĂLĂRAȘI,MUNICIPIUL CĂLĂRAŞI,269,4,89,24,0,14,7,51,278,16,99,26,0,11,4,26,Colegiul Economic Sediul B,Str. Grivița nr. 188,Călărași,44.1916,27.3366
44,12,CĂLĂRAȘI,MUNICIPIUL CĂLĂRAŞI,284,14,88,29,1,6,6,52,289,13,90,30,0,9,7,41,Liceul Tehnologic Transporturi Auto Calarasi,Str. Sloboziei nr. 2,Călărași,44.1998,27.3369
45,12,CĂLĂRAȘI,MUNICIPIUL CĂLĂRAŞI,323,25,108,19,2,19,7,42,328,26,103,30,1,17,7,35,Școala Gimnazială C-Tin Brâncoveanu,Str. Grivița nr. 343,Călărași,44.1902,27.3449
46,12,CĂLĂRAȘI,MUNICIPIUL CĂLĂRAŞI,200,15,71,19,6,22,12,37,199,16,66,25,3,16,14,36,Școala Gimnazială C-Tin Brâncoveanu,Str. Grivița nr. 343,Călărași,44.1902,27.3449
47,12,CĂLĂRAȘI,MUNICIPIUL CĂLĂRAŞI,242,22,81,21,1,14,10,40,245,20,82,26,2,15,8,33,Școala Gimnazială C-Tin Brâncoveanu,Str. Grivița nr. 343,Călărași,44.1902,27.3449
48,12,CĂLĂRAȘI,MUNICIPIUL CĂLĂRAŞI,203,19,92,21,2,24,1,24,203,16,94,26,1,23,1,23,Școala Primară nr. 6,Prelungirea Independența (Prelungirea 23 August) nr. 20,Călărași,44.1849,27.3508
49,12,CĂLĂRAȘI,MUNICIPIUL CĂLĂRAŞI,189,19,77,17,1,13,9,38,193,19,73,22,2,12,11,35,Școala Primară nr. 6,Prelungirea Independența (Prelungirea 23 August) nr. 20,Călărași,44.1849,27.3508
50,12,CĂLĂRAȘI,MUNICIPIUL CĂLĂRAŞI,95,1,60,13,0,3,3,30,102,0,60,16,0,3,5,17,Oborul Duminical,Prelungirea Dobrogei nr. 8B,Călărași,44.202,27.3436
51,12,CĂLĂRAȘI,MUNICIPIUL CĂLĂRAŞI,386,73,138,35,2,28,20,73,382,79,137,47,2,28,20,56,Colegiul Economic Sediu,Str. 1 Decembrie 1918 (Str. Gheorghe Gheorghiu Dej) nr. 98,Călărași,44.189,27.3367
111,12,CĂLĂRAȘI,CUZA VODA,137,1,108,8,0,7,5,15,132,2,111,11,0,5,8,14,Școala Călărași Vechi,Str. 19 nr. 27,Călărașii Vechi,44.2706,27.2893
91,12,CĂLĂRAȘI,CĂSCIOARELE,212,8,366,16,1,25,11,24,225,9,355,19,0,26,10,20,Caminul Cultural,Nr. 96,Căscioarele,44.1278,26.4703
112,12,CĂLĂRAȘI,DICHISENI,134,9,158,7,0,10,5,17,133,10,159,10,0,8,5,14,Școala Gimnazială nr. 1 Dichiseni,Str. Lichirești nr. 41,Dichiseni,44.2307,27.5396
114,12,CĂLĂRAȘI,DOR MĂRUNT,325,16,72,16,0,19,7,20,307,18,93,18,1,17,8,20,Școala nr. 2 Dor Marunt Gara,Nr. 193,Dor Mărunt,44.4381,26.948
115,12,CĂLĂRAȘI,DOR MĂRUNT,221,4,43,8,0,16,5,17,211,3,56,10,0,14,8,14,Școala nr. 1 Dor Marunt Sat,Nr. 77,Dor Mărunt,44.4435,26.9335
121,12,CĂLĂRAȘI,DOROBANŢU,239,10,375,2,0,10,15,35,253,8,379,6,1,9,12,24,Școala cu Clasele I-VIII Dorobanțu,Nr. 69,Dorobanțu,44.2211,26.9475
190,12,CĂLĂRAȘI,PLĂTĂREŞTI,88,1,152,4,2,1,9,15,96,0,150,3,3,2,8,12,Școala Generală Dorobantu,Nr. 55,Dorobanțu,44.3627,26.4106
124,12,CĂLĂRAȘI,DRAGALINA,165,0,124,7,0,4,11,33,173,4,122,8,0,2,12,24,Școala Gimnazială nr. 1 Dragalina,Bulevardul General Ioan Dragalina nr. 23,Dragalina,44.4338,27.3324
125,12,CĂLĂRAȘI,DRAGALINA,144,6,153,3,0,7,4,8,154,7,142,2,0,6,6,14,Școala Gimnazială nr. 1 Dragalina,Bulevardul General Ioan Dragalina nr. 23,Dragalina,44.4338,27.3324
126,12,CĂLĂRAȘI,DRAGALINA,199,3,109,3,0,6,14,31,210,3,111,2,0,7,17,22,Școala Gimnazială nr. 1 Dragalina,Bulevardul General Ioan Dragalina nr. 20,Dragalina,44.4322,27.3355
127,12,CĂLĂRAȘI,DRAGALINA,158,0,72,3,0,4,2,7,161,0,71,2,0,4,2,8,Școala Gimnazială nr. 1 Dragalina,Nr. 16,Dragalina,44.4332,27.3356
130,12,CĂLĂRAȘI,DRAGOŞ VODĂ,180,9,257,4,2,7,3,17,176,8,254,5,3,10,3,19,Școala Gimnazială nr. 1,Str. Principală nr. 29,Dragoș Vodă,44.4367,27.1583
131,12,CĂLĂRAȘI,DRAGOŞ VODĂ,160,3,171,6,1,3,5,18,155,3,177,8,1,5,7,13,Școala Gimnazială nr. 1,Str. Principală nr. 29,Dragoș Vodă,44.4367,27.1583
128,12,CĂLĂRAȘI,DRAGALINA,157,9,124,15,2,2,1,16,160,9,120,18,1,5,4,12,Școala Gimnazială nr. 1 Drajna Noua,Str. Narciselor nr. 31,Drajna Nouă,44.4222,27.3774
120,12,CĂLĂRAȘI,DOR MĂRUNT,87,6,65,6,0,5,4,6,66,6,78,14,0,5,2,6,Școala Dalga Sat,Str. Dispensarului nr. 5,Dâlga,44.4405,27.0645
119,12,CĂLĂRAȘI,DOR MĂRUNT,222,7,54,5,2,4,4,19,222,11,58,4,0,6,4,19,Școala Dalga Gara,Nr. 21,Dâlga-Gară,44.4339,27.053
153,12,CĂLĂRAȘI,ILEANA,98,2,10,4,0,0,1,9,99,2,11,4,0,0,2,8,Școala Florica,Nr. 1,Florica,44.4934,26.6359
233,12,CĂLĂRAȘI,VÎLCELELE,76,2,343,8,1,2,2,10,82,2,333,9,0,3,4,9,Consiliul Local Vilcelele,Str. Erou Constantin Mușat nr. 183,Floroaica,44.3565,27.1816
136,12,CĂLĂRAȘI,FRUMUŞANI,86,21,73,2,1,7,0,12,87,19,74,3,1,9,1,12,Școala Generală nr. 1.Frumusani,,Frumușani,44.2941,26.3147
137,12,CĂLĂRAȘI,FRUMUŞANI,88,19,81,4,0,10,1,11,89,19,79,7,0,13,1,6,Școala Generală nr. 1.Frumusani,Nr. 96,Frumușani,44.2941,26.3147
133,12,CĂLĂRAȘI,FRĂSINET,347,1,51,11,0,8,2,16,348,1,52,10,3,11,3,13,Școala Gimnazială nr. 1 Frasinet,Str. Barajului nr. 11,Frăsinet,44.3209,26.8132
140,12,CĂLĂRAȘI,FUNDENI,228,13,39,58,0,9,4,14,228,12,35,58,0,9,6,18,Școala Clasele 1-8 nr. 1,Nr. 71,Fundeni,44.3891,26.3518
141,12,CĂLĂRAȘI,FUNDENI,241,8,26,12,0,8,7,30,232,8,24,18,0,9,9,24,Primăria Comunei Fundeni,,Fundeni,44.3829,26.347
142,12,CĂLĂRAȘI,FUNDENI,257,10,33,4,2,4,5,12,261,13,31,7,2,1,7,15,Școala Clasele 1-4 nr. 3,Nr. 11,Fundeni,44.3734,26.3516
71,12,CĂLĂRAȘI,ORAŞ FUNDULEA,205,45,85,24,1,17,7,28,197,46,88,23,1,19,9,26,Liceul Tehnologic nr. 1,Str. Nicolae Titulescu nr. 3,Fundulea,44.4495,26.5253
72,12,CĂLĂRAȘI,ORAŞ FUNDULEA,395,45,109,20,1,27,9,34,392,41,110,23,2,27,7,30,Grădinița cu Program Prelungit,Bulevardul 22 Decembrie nr. 127,Fundulea,44.4675,26.5098
73,12,CĂLĂRAȘI,ORAŞ FUNDULEA,272,17,66,14,0,22,4,29,268,16,76,12,1,19,5,22,Școala Gimnazială Mircea Nedelciu,Str. Nichita Stănescu nr. 2,Fundulea,44.4704,26.5086
74,12,CĂLĂRAȘI,ORAŞ FUNDULEA,309,11,183,14,1,21,4,23,311,10,187,19,1,18,5,24,Grădinița cu Program Normal nr. 2 Crangu,Bulevardul 22 Decembrie nr. 9,Fundulea,44.4696,26.4883
185,12,CĂLĂRAȘI,NICOLAE BĂLCESCU,37,4,27,1,0,4,5,8,36,4,29,2,0,2,5,8,Școala cu Clasele I-IV,Str. Lalelei nr. 23,Fântâna Doamnei,44.4256,26.7377
222,12,CĂLĂRAȘI,ULMU,49,1,223,4,0,2,0,3,49,1,224,5,0,2,0,3,Școala cu Clasele I-IV Faurei,Nr. 230,Făurei,44.2912,26.8969
75,12,CĂLĂRAȘI,ORAŞ FUNDULEA,158,2,19,3,0,4,2,8,154,3,16,4,0,4,2,5,Școala Gimnazială nr. 1 Gostilele,Str. Școlii nr. 2,Gostilele,44.5022,26.4959
70,12,CĂLĂRAȘI,ORAŞ BUDEŞTI,106,2,52,7,1,49,11,19,104,1,47,8,1,54,9,21,Școala Primară nr. 1 Gruiu,Șoseaua Olteniței nr. 4,Gruiu,44.2312,26.4188
145,12,CĂLĂRAȘI,GRĂDIŞTEA,311,0,462,13,0,13,7,33,307,6,472,13,0,15,5,18,Școala Veche,Calea Călărași nr. 153,Grădiștea,44.2347,27.2059
149,12,CĂLĂRAȘI,GURBĂNEŞTI,70,5,181,2,2,4,3,7,67,5,179,2,3,4,4,12,Școala Gimnazială nr. 1 Gurbanesti,Nr. 22,Gurbănești,44.382,26.6901
160,12,CĂLĂRAȘI,JEGĂLIA,217,6,140,5,1,11,1,14,220,12,138,5,1,12,1,14,Școala Primară nr. 1,Nr. 86,Gâldău,44.307,27.6717
143,12,CĂLĂRAȘI,GĂLBINAŞI,393,5,64,7,0,32,7,18,384,6,59,9,0,35,7,18,Școala nr. 1 Galbinasi,Nr. 78,Gălbinași,44.3133,26.4164
144,12,CĂLĂRAȘI,GĂLBINAŞI,180,3,34,10,0,22,4,10,173,3,36,14,1,20,4,12,Școala nr. 1galbinasi,Nr. 78,Gălbinași,44.323,26.4119
83,12,CĂLĂRAȘI,ALEXANDRU ODOBESCU,72,2,66,6,0,3,2,7,76,3,64,3,0,4,0,8,Grădinița cu Program Normal nr. 3 Galatui,Str. Găunoși nr. 42,Gălățui,44.2627,27.1103
161,12,CĂLĂRAȘI,JEGĂLIA,142,7,136,4,2,6,3,20,144,7,146,4,0,5,4,12,Școala Primară nr. 2,Nr. 44,Iezeru,44.2858,27.6224
152,12,CĂLĂRAȘI,ILEANA,182,1,14,3,0,4,5,12,184,2,16,2,0,3,5,10,Școala Ileana,Nr. 1,Ileana,44.5085,26.6574
156,12,CĂLĂRAȘI,INDEPENDENŢA,232,13,443,13,0,8,17,46,252,12,440,18,2,12,19,36,Grădinița de Copii,Str. Unirii nr. 43,Independența,44.2756,27.1603
159,12,CĂLĂRAȘI,JEGĂLIA,236,7,284,10,1,7,8,34,230,7,285,22,1,10,7,27,Școala Gimnazială nr. 1,Nr. 4,Jegălia,44.2903,27.6329
162,12,CĂLĂRAȘI,LEHLIU,393,7,65,9,1,19,6,19,390,4,73,12,0,20,7,20,Camin Cultural,Nr. 188,Lehliu,44.4745,26.8172
76,12,CĂLĂRAȘI,ORAŞ LEHLIU GARĂ,682,39,79,27,0,22,8,38,630,47,105,29,1,32,12,46,Primarie,Str. Pompieri nr. 3,Lehliu-Gară,44.4422,26.8511
77,12,CĂLĂRAȘI,ORAŞ LEHLIU GARĂ,776,24,115,22,3,38,10,42,723,30,136,30,3,45,14,52,Casa de Cultura,Bulevardul Gării nr. 19,Lehliu-Gară,44.4409,26.8556
164,12,CĂLĂRAȘI,LUICA,131,4,183,0,0,113,7,19,138,3,182,5,0,106,10,15,Școala cu Clasele I-VIII Luica,Nr. 13,Luica,44.2314,26.586
134,12,CĂLĂRAȘI,FRĂSINET,137,4,40,2,0,4,3,14,136,4,41,3,0,4,6,16,Școala Primară nr. 1 Luptatori,Str. Bisericii nr. 36,Luptători,44.3026,26.8087
167,12,CĂLĂRAȘI,LUPŞANU,116,5,26,2,0,2,1,8,119,5,25,1,1,2,3,6,Grădinița cu Program Normal nr. 3 Lupsanu,Nr. 133,Lupșanu,44.3869,26.9133
235,12,CĂLĂRAȘI,VLAD ŢEPEŞ,57,6,58,4,0,11,4,10,57,6,60,5,0,9,4,11,Grădinița Mihai Viteazu,Str. București nr. 30,Mihai Viteazu,44.3472,27.0728
174,12,CĂLĂRAȘI,MITRENI,331,9,189,4,0,8,8,29,336,11,188,6,1,9,7,20,Școala Gimnazială nr. 2 Mitreni,Nr. 40,Mitreni,44.1699,26.6073
177,12,CĂLĂRAȘI,MODELU,280,27,207,20,0,16,8,37,290,30,204,20,0,19,7,33,Școala Generală nr. 1,Str. Plopilor nr. 19,Modelu,44.1941,27.3834
178,12,CĂLĂRAȘI,MODELU,240,11,245,14,0,17,7,31,237,11,250,18,0,16,7,28,Școala Generală nr. 1,Str. Plopilor nr. 19,Modelu,44.1941,27.3834
179,12,CĂLĂRAȘI,MODELU,238,7,240,6,0,14,10,32,231,7,243,11,0,14,10,26,Școala Generală nr. 1,Str. Plopilor nr. 19,Modelu,44.1941,27.3834
180,12,CĂLĂRAȘI,MODELU,304,13,183,14,1,20,16,47,303,12,190,15,1,21,17,40,Școala Generală nr. 2,Str. Aurora nr. 2,Modelu,44.1969,27.3905
170,12,CĂLĂRAȘI,MÂNĂSTIREA,191,6,312,6,0,9,2,16,185,7,308,7,0,11,5,15,Liceul Tehnologic Matei Basarab,Nr. 79,Mânăstirea,44.2104,26.9002
171,12,CĂLĂRAȘI,MÂNĂSTIREA,187,9,274,10,1,15,13,30,185,11,281,12,1,17,12,24,Liceul Tehnologic Matei Basarab,Nr. 79,Mânăstirea,44.2104,26.9001
85,12,CĂLĂRAȘI,BELCIUGATELE,59,4,90,2,0,1,3,6,59,4,89,3,0,1,3,9,Școala Primară Mariuta,Nr. 200,Măriuța,44.5352,26.4823
182,12,CĂLĂRAȘI,NANA,165,7,71,3,0,24,10,21,171,5,63,11,0,28,8,12,Școala Gimnazială nr. 1,,Nana,44.2665,26.594
183,12,CĂLĂRAȘI,NANA,139,7,57,3,0,33,2,14,144,6,57,6,0,30,3,12,Școala Gimnazială nr. 1,,Nana,44.2665,26.594
211,12,CĂLĂRAȘI,ŞOLDANU,105,0,123,7,0,42,6,23,103,1,126,7,1,40,6,17,Școala Primară nr. 1 Negoești,Nr. 52,Negoești,44.2316,26.5014
81,12,CĂLĂRAȘI,ALEXANDRU ODOBESCU,175,12,356,8,1,5,4,17,156,10,364,8,3,6,5,21,Școala Gimnazială nr. 1 Nicolae Bălcescu,Str. Centrală nr. 26,Nicolae Bălcescu,44.2847,27.0786
184,12,CĂLĂRAȘI,NICOLAE BĂLCESCU,110,0,80,20,0,16,5,22,117,1,79,21,1,14,8,13,Școala cu Clasele I-VIII,Nr. 10,Nicolae Bălcescu,44.4481,26.7481
166,12,CĂLĂRAȘI,LUPŞANU,146,0,11,9,0,5,5,17,148,1,16,8,0,4,7,13,Grădinița cu Program Normal nr. 4 Nucetu,Nr. 222,Nucetu,44.3948,26.8977
230,12,CĂLĂRAȘI,VASILAŢI,68,0,18,3,0,1,3,8,71,0,19,4,0,1,3,5,Școala Gimnazială Nuci,Nr. 10,Nuci,44.2809,26.4131
116,12,CĂLĂRAȘI,DOR MĂRUNT,128,0,10,3,0,2,0,5,123,1,14,3,0,2,0,4,Proprietate Privata,Str. Islazului nr. 3,Ogoru,44.4579,26.9023
52,12,CĂLĂRAȘI,MUNICIPIUL OLTENIŢA,345,26,102,12,3,30,20,64,357,27,111,14,3,30,25,43,Grădinița nr. 5 (Incinta Școala Gimnazială „Al.D.Ghica”),Str. Mihail Eminescu nr. 17,Oltenița,44.0847,26.6318
53,12,CĂLĂRAȘI,MUNICIPIUL OLTENIŢA,364,25,52,25,0,32,13,36,368,24,47,30,1,34,16,28,Cantina de Ajutor Social,Str. Traian nr. 16,Oltenița,44.0902,26.6341
54,12,CĂLĂRAȘI,MUNICIPIUL OLTENIŢA,283,22,43,14,1,36,14,35,291,24,37,14,2,43,13,28,Școala Gimnazială „Prof.Lucian Pavel” Local nr. 1,Str. Argeșului nr. 10,Oltenița,44.0909,26.6379
55,12,CĂLĂRAȘI,MUNICIPIUL OLTENIŢA,379,48,44,31,1,57,26,51,383,47,34,31,0,69,29,49,Școala Gimnazială „Prof.Lucian Pavel” Local nr. 2,Str. Argeșului nr. 12,Oltenița,44.0905,26.6378
56,12,CĂLĂRAȘI,MUNICIPIUL OLTENIŢA,442,54,74,42,0,69,19,48,430,55,65,39,0,85,25,56,Primăria Municipiului Oltenita,Bulevardul Republicii nr. 40,Oltenița,44.0864,26.6374
57,12,CĂLĂRAȘI,MUNICIPIUL OLTENIŢA,425,49,97,41,1,58,41,70,431,49,84,40,0,76,45,65,Primăria Municipiului Oltenita,Bulevardul Republicii nr. 40,Oltenița,44.0864,26.6374
58,12,CĂLĂRAȘI,MUNICIPIUL OLTENIŢA,397,27,58,21,0,41,20,51,389,32,54,20,1,51,22,47,Școala Gimnazială „Spiru Haret”,Str. Mihail Eminescu nr. 23,Oltenița,44.0835,26.6391
59,12,CĂLĂRAȘI,MUNICIPIUL OLTENIŢA,426,34,62,29,0,70,20,50,431,35,61,34,1,69,23,45,Liceul Teoretic „Neagoe Basarab”,Bulevardul Tineretului (Str. Alexandru Sahia) nr. 157,Oltenița,44.0836,26.6373
60,12,CĂLĂRAȘI,MUNICIPIUL OLTENIŢA,400,31,70,15,2,43,20,46,401,33,62,15,1,46,22,51,Școala Gimnazială „Alexandru Vlahuță”,Bulevardul Mărășești nr. 21C,Oltenița,44.0914,26.6455
61,12,CĂLĂRAȘI,MUNICIPIUL OLTENIŢA,336,36,57,18,0,52,27,63,332,39,57,18,0,61,28,54,Grădinița nr. 4,Bulevardul Mărășești nr. 28,Oltenița,44.0901,26.6449
62,12,CĂLĂRAȘI,MUNICIPIUL OLTENIŢA,329,38,74,12,1,39,22,47,329,40,67,14,0,52,22,37,Școala Gimnazială „Prof.Lucian Pavel” Local nr. 3,Str. Cuza Vodă nr. 36,Oltenița,44.0932,26.6409
63,12,CĂLĂRAȘI,MUNICIPIUL OLTENIŢA,229,12,71,16,1,30,9,32,244,13,72,16,2,28,9,25,Școala cu Clasele I-IV „Constantin Deculescu”,Str. Războieni nr. 9,Oltenița,44.0961,26.6438
64,12,CĂLĂRAȘI,MUNICIPIUL OLTENIŢA,298,27,49,15,0,28,16,38,296,32,46,21,0,30,19,36,Școala Gimnazială „Mircea Eliade”,Bulevardul 22 Decembrie (Str. 11 Iunie) nr. 76,Oltenița,44.1004,26.6393
65,12,CĂLĂRAȘI,MUNICIPIUL OLTENIŢA,410,18,45,20,0,30,16,36,401,19,43,20,0,31,23,45,Grădinița nr. 2,Str. Spiru Haret (Str. Doreanu Popescu) nr. 1,Oltenița,44.1007,26.6408
139,12,CĂLĂRAȘI,FRUMUŞANI,112,11,47,8,0,5,8,18,111,10,49,11,0,6,8,14,Școala Generală Orasti,Nr. 41,Orăști,44.3192,26.2829
135,12,CĂLĂRAȘI,FRUMUŞANI,110,14,77,8,0,10,5,14,112,12,81,8,0,8,5,15,Școala Generală Pasarea,Nr. 287,Pasărea,44.2793,26.334
118,12,CĂLĂRAȘI,DOR MĂRUNT,21,0,2,0,0,3,0,2,16,0,5,0,0,7,0,1,Școala Pelinu,Str. Lalelelor nr. 7,Pelinu,44.4645,27.0118
186,12,CĂLĂRAȘI,PERIŞORU,323,7,71,24,0,74,10,16,301,6,44,22,0,121,7,13,Primăria Perisoru,Str. Parcului nr. 2,Perișoru,44.4357,27.5447
187,12,CĂLĂRAȘI,PERIŞORU,348,14,56,53,1,47,7,25,328,12,46,55,1,75,10,25,Primăria Perisoru,Str. Parcului nr. 2,Perișoru,44.4357,27.5447
169,12,CĂLĂRAȘI,LUPŞANU,79,6,18,6,0,8,2,8,85,6,20,5,0,9,2,5,Școala Primară nr. 1 Plevna,Nr. 241,Plevna,44.3635,26.9933
217,12,CĂLĂRAȘI,TĂMĂDĂU MARE,109,2,60,0,0,2,1,9,111,2,61,3,0,2,1,4,Școala Primară nr. 2,,Plumbuita,44.4535,26.5751
189,12,CĂLĂRAȘI,PLĂTĂREŞTI,186,11,182,5,1,16,10,16,185,11,181,5,1,16,13,21,Primăria Plătărești,Nr. 115,Plătărești,44.3542,26.3634
192,12,CĂLĂRAȘI,PLĂTĂREŞTI,62,2,53,4,1,4,8,15,59,2,58,3,1,3,8,15,Școala Generală Podul Pitarului,Nr. 40,Podu Pitarului,44.3413,26.3771
231,12,CĂLĂRAȘI,VASILAŢI,39,1,24,0,0,2,5,10,45,1,23,0,0,2,5,8,Școala Gimnazială Popesti,Nr. 22,Popești,44.3047,26.4046
158,12,CĂLĂRAȘI,INDEPENDENŢA,123,6,107,8,0,5,9,18,123,5,107,10,0,4,14,21,Școala Generală,Nr. 22,Potcoava,44.2642,27.1298
205,12,CĂLĂRAȘI,SOHATU,106,2,137,6,0,2,1,15,108,3,139,7,0,1,3,10,Școala Generală nr. 2,Nr. 23,Progresu,44.3574,26.4619
138,12,CĂLĂRAȘI,FRUMUŞANI,52,5,40,3,0,11,3,8,54,5,40,3,0,10,3,7,Școala Generală Padurisu,Nr. 143,Pădurișu,44.3159,26.3036
193,12,CĂLĂRAȘI,RADOVANU,153,3,167,3,1,30,6,14,148,4,171,3,2,31,6,14,Școala cu Clasele I-VIII „Di Ghica” Radovanu,Nr. 154,Radovanu,44.193,26.5119
194,12,CĂLĂRAȘI,RADOVANU,169,1,203,7,1,14,8,16,166,2,206,8,1,13,9,17,Școala cu Clasele I-VIII „Di Ghica” Radovanu,Nr. 154,Radovanu,44.193,26.5119
195,12,CĂLĂRAȘI,RADOVANU,187,4,144,6,0,10,10,16,188,4,143,7,0,6,13,21,Școala cu Clasele I-IV Coadele,Nr. 296,Radovanu,44.184,26.526
168,12,CĂLĂRAȘI,LUPŞANU,214,7,37,9,0,7,3,9,212,8,35,11,0,8,5,9,Școala Gimnazială nr. 1 Radu-Voda,Nr. 265,Radu Vodă,44.3858,26.9239
146,12,CĂLĂRAȘI,GRĂDIŞTEA,148,8,241,9,0,5,6,22,153,7,240,11,1,6,7,15,Școala Veche,Calea Călărași nr. 74,Rasa,44.2133,27.147
197,12,CĂLĂRAȘI,ROSEŢI,492,8,57,14,2,8,9,29,499,7,56,15,2,9,11,28,Școala Generală cu Clasele I-IV-Sector,Str. Dunărea nr. 81,Roseți,44.2094,27.4418
198,12,CĂLĂRAȘI,ROSEŢI,342,6,44,7,0,6,4,16,338,5,43,11,1,7,7,15,Școala Gimnazială Iancu Rosetti-Centru,Str. C. A. Rosetti nr. 101,Roseți,44.2119,27.449
199,12,CĂLĂRAȘI,ROSEŢI,467,17,73,11,2,7,6,38,470,15,75,19,3,7,6,23,Școala cu Clasele I-IV-Deal,Str. Constantin Brîncoveanu nr. 32,Roseți,44.2174,27.4539
78,12,CĂLĂRAȘI,ORAŞ LEHLIU GARĂ,227,4,36,7,0,7,6,24,218,9,41,10,0,5,8,26,Școala cu Clasele I-VIII,Str. Sfîntul Constantin nr. 18,Răzvani,44.4215,26.88
79,12,CĂLĂRAȘI,ORAŞ LEHLIU GARĂ,261,6,64,6,0,9,6,35,256,10,71,13,0,10,3,21,Școala cu Clasele I-IV,Str. Călărașilor nr. 54,Răzvani,44.4203,26.8797
227,12,CĂLĂRAȘI,VALEA ARGOVEI,93,6,88,1,0,47,3,9,92,7,84,1,0,50,3,7,Școala Generală Silistea,Nr. 7,Siliștea,44.3649,26.7576
132,12,CĂLĂRAȘI,DRAGOŞ VODĂ,24,0,87,0,0,0,1,4,25,0,85,1,0,0,1,4,Grădinița cu Program Normal nr. 3,Str. Bujorului nr. 4,Socoalele,44.4768,27.1576
204,12,CĂLĂRAȘI,SOHATU,177,4,99,1,0,6,6,21,192,4,98,3,0,6,4,15,Școala Generală nr. 1,Nr. 34,Sohatu,44.3236,26.4982
203,12,CĂLĂRAȘI,SĂRULEŞTI,92,0,6,3,0,1,2,7,93,0,5,4,1,1,1,5,Școala cu Clasele I-IV,Nr. 1,Solacolu,44.3791,26.5587
206,12,CĂLĂRAȘI,SPANŢOV,134,9,213,8,3,11,1,6,138,7,212,7,3,11,2,12,Școala Spantov,Nr. 314,Spanțov,44.1235,26.7894
208,12,CĂLĂRAȘI,SPANŢOV,136,6,300,5,0,3,3,24,145,6,310,5,0,3,5,13,Școala Stancea,Nr. 82,Stancea,44.1368,26.8089
209,12,CĂLĂRAȘI,SPANŢOV,111,1,293,4,2,3,9,24,109,3,300,4,3,1,7,18,Școala Clinciu,Nr. 122,Stancea,44.1411,26.8168
173,12,CĂLĂRAȘI,MÂNĂSTIREA,123,9,134,2,0,3,4,21,130,9,138,1,0,5,4,15,Școala Gimnazială nr. 2 Sultana,Nr. 16,Sultana,44.2582,26.8575
201,12,CĂLĂRAȘI,SĂRULEŞTI,251,3,8,2,0,3,1,9,260,3,8,2,0,2,1,4,Școala cu Clasele I-IV,Nr. 22,Săndulița,44.4178,26.6315
163,12,CĂLĂRAȘI,LEHLIU,165,12,32,4,1,6,3,19,167,10,31,6,0,8,3,17,Școala Sapunari,Nr. 359,Săpunari,44.5007,26.8352
202,12,CĂLĂRAȘI,SĂRULEŞTI,162,0,11,3,0,1,0,4,158,0,11,3,0,1,0,4,Școala cu Clasele I-IV,Nr. 25,Sărulești,44.4135,26.6451
200,12,CĂLĂRAȘI,SĂRULEŞTI,488,0,33,10,0,17,1,26,488,6,33,9,1,18,3,17,Grădinița cu 4 Grupe,Nr. 4,Sărulești-Gară,44.4422,26.6556
181,12,CĂLĂRAȘI,MODELU,162,17,314,12,1,18,3,31,162,17,321,15,1,15,5,28,Școala Tonea,Nr. 23,Tonea,44.2032,27.406
188,12,CĂLĂRAȘI,PERIŞORU,93,4,14,30,0,13,0,7,85,3,16,33,0,17,3,11,Școala Tudor Vladimirescu,Str. Lahovari nr. 39,Tudor Vladimirescu,44.4368,27.4633
216,12,CĂLĂRAȘI,TĂMĂDĂU MARE,242,9,31,8,0,8,10,18,243,9,33,10,0,8,7,13,Școala Gimnazială nr. 1,,Tămădău Mare,44.4676,26.5686
218,12,CĂLĂRAȘI,ULMENI,208,5,172,9,2,18,13,39,204,7,177,9,0,19,12,34,Școala Gimnazială Grigore Moisil,Nr. 312,Ulmeni,44.1437,26.7179
219,12,CĂLĂRAȘI,ULMENI,118,2,486,5,2,8,6,34,108,3,248,5,0,9,7,282,Școala Gimnazială nr. 2 Ulmeni,Nr. 85,Ulmeni,44.1392,26.6999
220,12,CĂLĂRAȘI,ULMENI,231,6,148,5,0,26,11,26,226,6,146,6,0,25,14,31,Școala Primară nr. 3 Ulmeni,Nr. 437,Ulmeni,44.1499,26.7396
221,12,CĂLĂRAȘI,ULMU,135,3,285,15,1,3,2,9,144,4,288,14,0,1,2,13,Școala cu Clasele I-VIII Ulmu,Nr. 363,Ulmu,44.2655,26.9202
224,12,CĂLĂRAȘI,UNIREA,272,6,152,2,0,7,5,19,268,5,154,3,0,7,4,14,Școala Gimnazială nr. 1 (Local Langa Biserica),Nr. 317,Unirea,44.2577,27.5951
225,12,CĂLĂRAȘI,UNIREA,283,7,98,4,0,8,5,18,283,9,106,5,2,4,5,13,Școala Gimnazială nr. 1 (Local Langa Caminul Cultural),Nr. 2,Unirea,44.2571,27.5955
226,12,CĂLĂRAȘI,VALEA ARGOVEI,184,2,195,11,1,21,4,13,181,2,190,16,2,24,4,15,Școala Gimnazială Valea Argovei,Nr. 89,Valea Argovei,44.3518,26.7866
196,12,CĂLĂRAȘI,RADOVANU,121,3,74,2,0,7,5,11,122,3,71,2,0,7,6,13,Școala cu Clasele I-IV Valea Popii,Nr. 42,Valea Popii,44.1602,26.5503
151,12,CĂLĂRAȘI,GURBĂNEŞTI,48,2,30,1,0,2,1,4,50,2,30,1,0,3,1,3,Grădinița cu Program Normal Valea Presnei,Str. Ecaterina Teodoroiu nr. 16,Valea Presnei,44.3504,26.7176
175,12,CĂLĂRAȘI,MITRENI,320,10,310,2,2,22,9,45,327,6,318,6,2,21,8,39,Școala Gimnazială nr. 1 Valea Rosie,Nr. 416,Valea Roșie,44.1767,26.6316
165,12,CĂLĂRAȘI,LUICA,26,1,147,1,1,27,0,4,30,1,148,0,1,20,0,4,Școala cu Clasele I-IV Valea Stanii,Nr. 19,Valea Stânii,44.2515,26.6154
228,12,CĂLĂRAȘI,VASILAŢI,162,7,74,0,0,4,3,11,160,8,78,0,0,4,5,9,Școala Constantin Brancoveanu,Nr. 99,Vasilați,44.2929,26.4449
229,12,CĂLĂRAȘI,VASILAŢI,292,7,57,5,0,15,6,17,287,8,56,8,0,13,7,21,Școala Constantin Brancoveanu,Nr. 17,Vasilați,44.2859,26.4412
157,12,CĂLĂRAȘI,INDEPENDENŢA,53,7,69,5,1,2,3,8,54,6,73,5,0,1,3,13,Grădinița de Copii,Nr. 24,Vișinii,44.296,27.1833
234,12,CĂLĂRAȘI,VLAD ŢEPEŞ,213,3,131,9,1,36,5,29,209,4,130,14,3,37,6,18,Școala Vlad Țepeș,Nr. 40,Vlad Țepeș,44.3403,27.0907
232,12,CĂLĂRAȘI,VÎLCELELE,235,10,293,11,0,6,3,21,237,12,278,19,1,6,5,18,Școala Gimnazială Florenta Albu Vilcelele,Str. Florența Albu nr. 717,Vâlcelele,44.3871,27.1402
122,12,CĂLĂRAȘI,DOROBANŢU,130,3,167,1,0,13,6,17,130,4,163,0,0,13,7,17,Școala cu Clasele I-IV Vărăști,Nr. 58,Vărăști,44.2149,26.9716
223,12,CĂLĂRAȘI,ULMU,23,0,50,0,0,0,0,2,22,0,51,0,0,0,0,2,Fosta Școala Primară Zimbru,Nr. 93,Zimbru,44.3185,26.935
117,12,CĂLĂRAȘI,DOR MĂRUNT,63,1,11,1,1,2,1,7,57,2,18,2,1,3,1,3,Școala Infratirea,Nr. 28,Înfrățirea,44.4065,26.9897
210,12,CĂLĂRAȘI,ŞOLDANU,259,11,377,7,0,26,16,32,259,9,373,12,0,28,16,32,Școala Gimnazială „Constantin Teodorescu” Șoldanu,Nr. 3,Șoldanu,44.223,26.5251
214,12,CĂLĂRAȘI,ŞTEFAN VODĂ,218,2,99,28,0,14,7,27,230,4,101,29,1,15,5,14,Școala cu Clasele I-VIII Ștefan Vodă,Str. Viorelelor nr. 118,Ștefan Vodă,44.3247,27.3223
215,12,CĂLĂRAȘI,ŞTEFAN VODĂ,150,10,87,10,1,15,10,22,150,10,91,12,1,18,11,18,Școala cu Clasele I-VIII Ștefan Vodă,Str. Viorelelor nr. 118,Ștefan Vodă,44.3247,27.3223
212,12,CĂLĂRAȘI,ŞTEFAN CEL MARE,396,9,73,6,0,11,2,13,400,9,69,9,0,12,2,10,Școala Gimnazială Dragos Marin,Nr. 30,Ștefan cel Mare,44.4269,27.64
213,12,CĂLĂRAȘI,ŞTEFAN CEL MARE,292,4,69,9,0,8,4,9,291,4,66,11,0,6,4,12,Școala Gimnazială Dragos Marin,Nr. 30,Ștefan cel Mare,44.4269,27.6404
154,12,CĂLĂRAȘI,ILEANA,125,3,22,16,0,3,3,12,122,4,23,18,0,4,3,10,Școala Stefanesti,Nr. 1,Ștefănești,44.5138,26.7409