id,nr_circumscriptie,circumscriptie,localitate,psd_cdep,usr_cdep,pnl_cdep,pmp_cdep,udmr_cdep,alde_cdep,pru_cdep,altele_cdep,psd_senat,usr_senat,pnl_senat,pmp_senat,udmr_senat,alde_senat,pru_senat,altele_senat,name,address,city,lat,lng
181,21,HARGHITA,MĂRTINIŞ,7,0,1,2,130,1,0,2,8,NaN,0,1,124,1,0,5,Școala Primară Aldea,Nr. 145,Aldea,46.2526,25.4308
198,21,HARGHITA,MUGENI,3,2,1,0,80,1,2,4,3,NaN,1,0,83,2,1,2,Căminul Cultural Aluniș,Nr. 78,Aluniș,46.2632,25.1844
109,21,HARGHITA,CIUCSÎNGEORGIU,3,0,1,0,397,2,0,3,1,NaN,1,0,394,2,1,4,Căminul Cultural Armășeni,,Armășeni,46.3537,25.9629
108,21,HARGHITA,CIUCSÎNGEORGIU,3,1,2,0,157,1,2,5,3,NaN,1,0,154,1,3,6,Căminul Cultural Armășeni-Noi,Nr. 603,Armășenii Noi,46.3376,25.9714
121,21,HARGHITA,CORUND,2,0,2,1,85,1,0,3,2,NaN,2,0,78,1,2,3,Căminul Cultural Atia,Nr. 117,Atia,46.487,25.1297
87,21,HARGHITA,ATID,15,0,12,3,298,0,2,24,19,NaN,12,5,301,1,1,11,Căminul Cultural Atid,Nr. 469,Atid,46.4501,25.0461
92,21,HARGHITA,AVRĂMEŞTI,12,1,2,2,259,1,1,13,12,NaN,2,2,261,1,1,6,Sediul Primăriei Avrămești,Nr. 126,Avrămești,46.336,25.008
110,21,HARGHITA,CIUCSÎNGEORGIU,3,2,0,0,455,8,1,11,3,NaN,3,1,459,7,2,9,Școala Gimnazială „Marton Ferenc” Bancu,Nr. 154,Bancu,46.3041,25.9478
217,21,HARGHITA,PRAID,8,1,1,0,50,3,1,2,10,NaN,1,1,49,1,0,2,Școala Gimnazială Becaș,Nr. 14,Becaș,46.5159,25.1975
199,21,HARGHITA,MUGENI,1,0,3,0,150,1,0,2,1,NaN,2,1,146,1,0,4,Căminul Cultural Beta,Nr. 68/A,Beta,46.2784,25.2222
75,21,HARGHITA,ORAŞ CRISTURU SECUIESC,1,3,4,1,133,3,1,4,2,NaN,4,3,135,1,0,2,Căminul Cultural Betești,Nr. 116,Betești,46.2909,25.0803
96,21,HARGHITA,BILBOR,182,9,68,7,2,2,7,17,173,NaN,74,10,2,4,13,23,Căminul Cultural,Nr. 120/B,Bilbor,47.0645,25.4907
97,21,HARGHITA,BILBOR,267,6,114,15,1,11,11,16,236,NaN,114,22,0,17,23,37,Căminul Cultural,Nr. 120/B,Bilbor,47.0645,25.4907
174,21,HARGHITA,LUPENI,2,3,1,3,318,0,2,7,4,NaN,3,3,308,1,4,12,Școala Gimnazială „Benedek Fidel” Bisericani,Nr. 166,Bisericani,46.3603,25.2384
242,21,HARGHITA,SECUIENI,3,2,6,0,176,1,2,7,4,NaN,6,0,175,1,3,6,Birou Administrativ,Nr. 172,Bodogaia,46.2743,24.9957
73,21,HARGHITA,ORAŞ BORSEC,34,1,22,13,261,0,5,11,39,NaN,19,15,254,1,5,10,Liceul Tehnologic „Zimmethausen”,Str. Mihail Eminescu nr. 1,Borsec,46.9706,25.5561
74,21,HARGHITA,ORAŞ BORSEC,78,9,33,9,381,4,5,18,77,NaN,32,11,380,8,11,20,Sediul Consiliului Local,Str. Carpați nr. 6/A,Borsec,46.9653,25.5608
153,21,HARGHITA,JOSENI,4,2,0,0,358,1,2,7,2,NaN,0,0,364,1,2,5,"Școala Primară Gaál Tamás, Borzont",Nr. 77,Borzont,46.6942,25.4459
98,21,HARGHITA,BRĂDEŞTI,7,9,1,2,544,1,0,5,8,NaN,4,2,536,1,2,5,Școala Gimnazială Marton Aron Brădești,Nr. 264,Brădești,46.34,25.3397
175,21,HARGHITA,LUPENI,2,1,0,2,137,2,1,1,3,NaN,0,4,132,1,0,3,Școala Primară Bulgăreni,Nr. 25,Bulgăreni,46.3672,25.2543
144,21,HARGHITA,FRUMOASA,4,1,1,0,288,1,1,6,3,NaN,1,1,292,1,1,3,Căminul Cultural,Nr. 111,Bârzava,46.4316,25.8186
182,21,HARGHITA,MĂRTINIŞ,1,2,1,1,104,1,0,4,2,NaN,1,2,103,1,1,5,Școala Primară Bădeni,Nr. 18,Bădeni,46.2185,25.3469
67,21,HARGHITA,ORAŞ BĂILE TUŞNAD,31,17,15,3,517,3,1,7,30,NaN,21,5,514,6,4,9,Sediu Primarie,Str. Oltului nr. 63,Băile Tușnad,46.1492,25.8598
68,21,HARGHITA,ORAŞ BĂLAN,102,5,9,16,223,12,7,14,105,NaN,8,14,220,12,11,20,Casa de Cultură Bălan,Str. 1 Decembrie (Str. Republicii) nr. 21/A,Bălan,46.6555,25.8075
69,21,HARGHITA,ORAŞ BĂLAN,92,12,21,13,156,12,4,19,93,NaN,24,7,153,19,4,28,Școala Gimnazială „Geo Bogza” Bălan - Clădire Școala nr. 1,Str. 1 Decembrie (Str. Republicii) nr. 30,Bălan,46.6555,25.8064
70,21,HARGHITA,ORAŞ BĂLAN,123,3,18,15,104,7,6,15,112,NaN,16,12,108,9,11,27,"Școala Gimnazială „Geo Bogza” Bălan - Corp A, B",Str. Florilor (Str. Hășmașului) nr. 82,Bălan,46.6511,25.8129
71,21,HARGHITA,ORAŞ BĂLAN,131,2,14,6,56,7,3,19,130,NaN,9,8,55,10,6,24,Liceul Tehnologic „Liviu Rebreanu” Bălan - Clădire Grădinița nr. 2,Str. Florilor (Str. Hășmașului) nr. 10,Bălan,46.6501,25.8105
72,21,HARGHITA,ORAŞ BĂLAN,181,4,21,13,65,5,12,35,181,NaN,19,13,70,6,16,34,Clubul Elevilor Bălan,Str. Florilor (Str. Hășmașului) nr. 7,Bălan,46.6508,25.8129
117,21,HARGHITA,CORBU,78,0,28,5,0,6,2,3,93,NaN,14,4,1,5,4,4,Liceul Tehnologic Corp D,Nr. 167,Capu Corbului,46.9999,25.6272
210,21,HARGHITA,PLĂIEŞII DE JOS,4,0,1,1,263,2,1,9,5,NaN,1,3,264,1,2,6,Școala Gimnazială Tuzson János nr. 2 Casinu Nou,Nr. 333,Casinu Nou,46.1986,26.0506
93,21,HARGHITA,AVRĂMEŞTI,14,0,3,1,161,2,3,8,13,NaN,1,1,161,1,2,5,Școala Primară Cechești,Nr. 31,Cechești,46.3149,25.0207
261,21,HARGHITA,ŞIMONEŞTI,3,0,1,0,42,1,1,2,3,NaN,1,0,45,1,1,1,Căminul Cultural Cehețel,Nr. 88,Cehețel,46.4001,25.1425
251,21,HARGHITA,SÎNSIMION,6,3,2,0,432,3,1,11,4,NaN,6,0,440,5,0,4,Cămin Cultural,Nr. 65,Cetățuia,46.2419,25.8966
256,21,HARGHITA,SUSENI,5,1,2,0,296,1,2,7,6,NaN,1,1,294,1,1,3,Școala Primară Chileni,Nr. 207,Chileni,46.6821,25.5742
180,21,HARGHITA,MĂRTINIŞ,2,1,1,0,67,1,1,2,2,NaN,1,0,67,1,1,3,Căminul Cultural Chinușu,Nr. 70,Chinușu,46.2575,25.3616
104,21,HARGHITA,CICEU,10,6,2,1,801,1,4,9,14,NaN,4,2,797,2,3,7,Parohia Rom.Cat.,Nr. 440,Ciceu,46.4143,25.7791
105,21,HARGHITA,CICEU,1,0,1,0,350,3,1,6,2,NaN,1,0,351,1,1,5,Parohia Rom.Cat.,Nr. 440,Ciceu,46.4143,25.7791
106,21,HARGHITA,CIUCSÎNGEORGIU,4,1,1,4,321,4,1,18,4,NaN,2,7,320,4,2,9,Școala Gimnazială „Gal Sandor” Ciucsângeorgiu,Nr. 558,Ciucsângeorgiu,46.3226,25.9556
107,21,HARGHITA,CIUCSÎNGEORGIU,2,0,3,0,320,2,1,4,1,NaN,2,2,321,3,2,6,Școala Gimnazială „Gal Sandor” Ciucsângeorgiu,Nr. 558,Ciucsângeorgiu,46.3226,25.9556
113,21,HARGHITA,CIUMANI,5,6,2,1,718,1,1,7,6,NaN,2,4,721,2,2,7,Școala Primară Köllő Miklós,Nr. 218,Ciumani,46.6785,25.5169
114,21,HARGHITA,CIUMANI,8,0,0,1,551,0,1,9,11,NaN,1,1,546,1,1,8,Școala Primară Köllő Miklós,Nr. 218,Ciumani,46.6785,25.5169
115,21,HARGHITA,CIUMANI,4,0,2,1,516,1,1,4,4,NaN,1,1,511,1,1,7,Școala Primară Szilágyi,Nr. 1093/A,Ciumani,46.6721,25.5069
260,21,HARGHITA,ŞIMONEŞTI,6,4,3,2,174,1,2,4,7,NaN,4,2,181,1,3,6,Căminul Cultural Cobătești,Nr. 77,Cobătești,46.3568,25.1423
167,21,HARGHITA,LUNCA DE SUS,3,0,3,0,154,1,1,5,2,NaN,3,1,154,1,1,3,Școala Primară Comiat,Nr. 21,Comiat,46.5118,25.9494
185,21,HARGHITA,MĂRTINIŞ,7,0,1,0,84,2,0,3,9,NaN,1,0,85,1,0,2,Școala Primară Comănești,Nr. 132,Comănești,46.2631,25.4375
116,21,HARGHITA,CORBU,187,0,38,6,17,2,4,11,192,NaN,30,9,16,3,7,13,Liceul Tehnologic Corbu Corp A,Nr. 352,Corbu,46.9902,25.6852
118,21,HARGHITA,CORUND,9,4,4,4,464,1,0,7,6,NaN,4,4,465,3,3,10,Grădinița de Copii cu Program Prelungit Corund,Nr. 448,Corund,46.4713,25.1899
119,21,HARGHITA,CORUND,1,3,1,2,593,1,0,3,3,NaN,2,1,587,2,0,2,Școala Gimnazială Corund,Nr. 570,Corund,46.4708,25.1837
120,21,HARGHITA,CORUND,34,0,2,3,487,1,1,12,35,NaN,2,5,484,2,1,6,Școala Gimnazială Corund,Nr. 570,Corund,46.4708,25.1837
124,21,HARGHITA,COZMENI,38,2,3,0,533,2,4,21,41,NaN,4,3,543,2,4,12,Comuna Cozmeni,Nr. 200,Cozmeni,46.2232,25.9382
76,21,HARGHITA,ORAŞ CRISTURU SECUIESC,10,2,2,2,383,1,2,3,8,NaN,2,3,376,2,1,5,Școala Gimnazială „Petőfi Sándor” Cristuru Secuiesc,Str. Timafalvi (Cartierul I.O.S.F.) nr. 43,Cristuru Secuiesc,46.2922,25.0411
77,21,HARGHITA,ORAŞ CRISTURU SECUIESC,11,12,2,1,562,5,1,4,12,NaN,3,1,564,5,0,5,Școala Gimnazială „Petőfi Sándor” Cristuru Secuiesc,Str. Kriza János (Str. Școlii) nr. 27,Cristuru Secuiesc,46.2879,25.0303
78,21,HARGHITA,ORAŞ CRISTURU SECUIESC,11,5,9,2,485,2,4,11,12,NaN,8,6,486,2,4,9,Parohia Romano-Catolică Cristuru Secuiesc,Piața Libertății (Str. Libertății) nr. 62,Cristuru Secuiesc,46.2909,25.0368
79,21,HARGHITA,ORAŞ CRISTURU SECUIESC,4,18,4,0,497,1,0,4,7,NaN,6,0,508,2,0,6,Asociatia Intreprinzatorilor Particulari,Piața Libertății (Str. Libertății) nr. 22,Cristuru Secuiesc,46.2902,25.0336
80,21,HARGHITA,ORAŞ CRISTURU SECUIESC,8,6,8,3,527,1,0,7,9,NaN,11,8,516,2,0,11,Liceul Teologic Unitarian „Berde Mózes” Cristuru Secuiesc,Str. Orbán Balázs nr. 1,Cristuru Secuiesc,46.2838,25.0279
88,21,HARGHITA,ATID,6,0,1,1,170,2,0,9,5,NaN,2,6,173,2,1,6,Căminul Cultural Criseni,Nr. 287,Crișeni,46.4174,24.9726
202,21,HARGHITA,OCLAND,14,1,1,1,177,0,0,7,14,NaN,1,3,179,0,2,11,Căminul Cultural,Nr. 58,Crăciunel,46.1829,25.4287
89,21,HARGHITA,ATID,10,1,3,0,132,1,2,13,9,NaN,3,3,134,1,1,6,Căminul Cultural Cusmed,Nr. 34,Cușmed,46.478,25.0449
102,21,HARGHITA,CÂRŢA,9,6,2,0,506,1,1,6,10,NaN,3,1,495,1,2,6,Primăria Cîrța,Nr. 159,Cârța,46.5329,25.7594
100,21,HARGHITA,CĂPÎLNIŢA,4,1,0,0,377,1,1,6,3,NaN,0,1,379,1,2,7,Căminul Cultural „Sütő András”,Nr. 525,Căpâlnița,46.3605,25.5137
101,21,HARGHITA,CĂPÎLNIŢA,3,2,0,0,313,1,1,6,4,NaN,0,1,307,1,3,9,Căminul Cultural „Sütő András”,Nr. 525,Căpâlnița,46.3605,25.5137
278,21,HARGHITA,ULIEŞ,4,0,1,0,93,1,0,4,3,NaN,1,0,97,1,0,2,Școala Primară Daia,Nr. 168,Daia,46.1946,25.3127
128,21,HARGHITA,DEALU,1,3,4,2,716,2,0,11,3,NaN,2,3,715,1,4,10,Casa Socială,Nr. 95,Dealu,46.3939,25.3065
197,21,HARGHITA,MUGENI,3,0,2,1,90,1,1,1,3,NaN,2,1,88,1,2,2,Căminul Cultural Dejuțiu,Nr. 51,Dejuțiu,46.2543,25.1772
205,21,HARGHITA,PĂULENI-CIUC,3,2,0,0,284,1,1,4,4,NaN,0,0,282,1,1,4,Școala Primară Delnița,Nr. 184,Delnița,46.4119,25.8255
131,21,HARGHITA,DITRĂU,11,3,3,0,710,2,0,6,11,NaN,4,0,707,2,0,6,Școala Gimnazială „Siklody Lorinc” Ditrău,Nr. 2/A,Ditrău,46.8031,25.4962
132,21,HARGHITA,DITRĂU,9,2,1,0,397,1,1,5,9,NaN,1,1,398,1,1,8,Grădinița cu Program Normal „Csigabiga” Ditrău,Nr. 101,Ditrău,46.7993,25.4882
133,21,HARGHITA,DITRĂU,3,1,2,0,427,1,1,5,3,NaN,2,1,423,0,1,3,Școala Gimnazială „Csiby Andor” Ditrău „Kohid”,Nr. 80,Ditrău,46.803,25.4971
134,21,HARGHITA,DITRĂU,7,0,2,0,393,2,0,5,10,NaN,2,0,390,1,0,2,Școala Gimnazială „Dr. Csiby Andor” Ditrău,Nr. 127,Ditrău,46.8094,25.5124
200,21,HARGHITA,MUGENI,3,0,2,0,244,2,0,8,2,NaN,1,1,249,2,1,9,Căminul Cultural Dobeni,Nr. 69,Dobeni,46.2876,25.1882
136,21,HARGHITA,DÎRJIU,4,2,2,0,238,1,1,4,6,NaN,1,2,238,1,2,4,Cămin Cultural,Nr. 185,Dârjiu,46.2018,25.1987
126,21,HARGHITA,DĂNEŞTI,4,0,1,0,519,2,1,8,4,NaN,1,1,527,2,1,3,Căminul Cultural Dănești,Nr. 32,Dănești,46.5167,25.7562
127,21,HARGHITA,DĂNEŞTI,7,1,7,0,579,1,1,11,4,NaN,6,2,580,3,2,7,Căminul Cultural Dănești,Nr. 32,Dănești,46.5167,25.7562
111,21,HARGHITA,CIUCSÎNGEORGIU,4,0,1,0,86,0,2,2,4,NaN,2,1,82,0,1,1,Căminul Cultural Eghersec-Cinod,Nr. 560,Eghersec,46.3041,26.0656
112,21,HARGHITA,CIUCSÎNGEORGIU,2,1,1,0,34,1,1,1,2,NaN,1,0,35,1,1,1,Căminul Cultural Eghersec,Nr. 610/A,Eghersec,46.3425,26.0663
241,21,HARGHITA,SECUIENI,19,1,5,4,208,1,2,44,22,NaN,3,8,230,2,4,17,Camin Cultural,Nr. 217,Eliseni,46.2925,24.9359
138,21,HARGHITA,FELICENI,9,9,7,2,352,3,2,10,8,NaN,10,4,357,3,3,8,Școala Gimnazială „Fulop Aron” Feliceni,Nr. 9,Feliceni,46.2743,25.2815
81,21,HARGHITA,ORAŞ CRISTURU SECUIESC,4,1,3,0,264,1,3,11,2,NaN,3,1,254,1,18,21,Centrul de Planificare a Familiei Filiaș,Nr. 188,Filiaș,46.271,25.022
95,21,HARGHITA,AVRĂMEŞTI,3,1,1,0,62,0,1,6,3,NaN,1,1,60,0,1,2,Școala Primară Firtănuș,Nr. 124,Firtănuș,46.4084,25.0957
158,21,HARGHITA,LELICENI,5,0,7,0,249,1,1,7,5,NaN,5,1,252,1,2,6,Caminul Cultural,Nr. 81,Fitod,46.3575,25.851
141,21,HARGHITA,FELICENI,5,0,2,0,244,1,0,8,5,NaN,2,1,247,0,0,3,Școala Generală Forțeni,Nr. 168,Forțeni,46.3031,25.2347
145,21,HARGHITA,FRUMOASA,16,3,6,0,707,3,2,11,16,NaN,7,2,699,4,1,10,Primăria Comunei Frumoasa,Str. Mihăileni nr. 7,Frumoasa,46.454,25.8481
232,21,HARGHITA,SĂRMAŞ,121,1,39,6,6,13,6,15,98,NaN,45,11,5,17,16,25,Școala Primară Fundoaia,Nr. 944,Fundoaia,46.8903,25.4576
122,21,HARGHITA,CORUND,0,0,1,0,130,1,0,0,0,NaN,1,0,130,1,0,1,Școala Gimnazială Fântâna Brazilor,Nr. 146,Fântâna Brazilor,46.4859,25.2488
24,21,HARGHITA,MUNICIPIUL GHEORGHENI,49,16,34,11,527,4,3,20,50,NaN,31,15,531,9,8,19,Școala Gimnazială „Kós Károly”,Str. Kossuth Lajos (Str. Bucinului) nr. 124,Gheorgheni,46.717,25.5842
25,21,HARGHITA,MUNICIPIUL GHEORGHENI,54,13,29,7,531,2,3,9,53,NaN,30,6,542,3,5,12,Școala Gimnazială „Kós Károly”,Str. Kossuth Lajos (Str. Bucinului) nr. 124,Gheorgheni,46.717,25.5842
26,21,HARGHITA,MUNICIPIUL GHEORGHENI,40,14,30,9,482,5,3,17,39,NaN,27,17,487,7,4,16,Școala Gimnazială „Kós Károly”,Str. Kossuth Lajos (Str. Bucinului) nr. 124,Gheorgheni,46.717,25.5842
27,21,HARGHITA,MUNICIPIUL GHEORGHENI,52,8,27,4,615,5,3,7,49,NaN,31,3,621,6,6,13,Școala Gimnazială „Vaskertes”,Str. Kossuth Lajos (Str. Bucinului) nr. 2,Gheorgheni,46.7223,25.5981
28,21,HARGHITA,MUNICIPIUL GHEORGHENI,34,12,22,5,534,1,2,16,37,NaN,17,5,543,5,3,16,Școala Gimnazială „Vaskertes”,Str. Kossuth Lajos (Str. Bucinului) nr. 2,Gheorgheni,46.7223,25.5981
29,21,HARGHITA,MUNICIPIUL GHEORGHENI,12,8,13,4,729,2,0,9,17,NaN,11,4,730,4,0,8,Școala Gimnazială „Vaskertes”,Str. Kossuth Lajos (Str. Bucinului) nr. 2,Gheorgheni,46.7223,25.5981
30,21,HARGHITA,MUNICIPIUL GHEORGHENI,40,10,12,2,721,1,0,17,39,NaN,13,5,715,2,1,12,Liceul Teoretic „Salamon Ernő”,Bulevardul Lacu Roșu (Bulevardul 23 August) nr. 3-5,Gheorgheni,46.7238,25.6001
31,21,HARGHITA,MUNICIPIUL GHEORGHENI,28,5,6,0,666,5,2,21,27,NaN,8,6,670,6,3,15,Liceul Tehnologic „Fogarasy Mihály”,Str. Márton Áron (Str. 1 Mai) nr. 13-15,Gheorgheni,46.7225,25.6041
32,21,HARGHITA,MUNICIPIUL GHEORGHENI,12,5,8,2,745,2,3,15,11,NaN,6,2,770,2,1,11,Colegiul Tehnic „Batthyány Ignác”,Bulevardul Lacu Roșu (Bulevardul 23 August) nr. 149,Gheorgheni,46.7269,25.6198
156,21,HARGHITA,LĂZAREA,4,1,1,0,59,1,1,2,4,NaN,2,0,58,1,1,2,Școala Gimnazială „Bethlen Gábor” Ghiduț,Nr. 1459,Ghiduț,46.7827,25.536
184,21,HARGHITA,MĂRTINIŞ,2,0,1,1,84,1,0,1,3,NaN,1,2,80,0,0,0,Școala Primară Ghipeș,Nr. 124,Ghipeș,46.2646,25.4032
94,21,HARGHITA,AVRĂMEŞTI,9,2,1,0,143,3,0,12,9,NaN,0,1,141,3,2,12,Școala Gimnazială „Móra Ferenc” Goagiu,Nr. 90,Goagiu,46.3653,25.0277
219,21,HARGHITA,RACU,4,0,4,0,248,1,1,3,3,NaN,5,1,248,1,1,3,Grădinița de Copii,Nr. 36,Gârciu,46.4547,25.7784
147,21,HARGHITA,GĂLĂUŢAŞ,171,8,58,12,85,6,10,19,165,NaN,63,14,83,6,16,27,Școala Gimnazială „Dumitru Gafton” Gălăuțaș,Nr. 124,Gălăuțaș,46.9084,25.4051
148,21,HARGHITA,GĂLĂUŢAŞ,113,1,20,2,38,2,2,9,102,NaN,29,2,36,1,7,15,Școala Gimnazială „Dumitru Gafton” Gălăuțaș,Nr. 124,Gălăuțaș,46.9084,25.4051
149,21,HARGHITA,GĂLĂUŢAŞ,94,0,30,1,1,3,3,9,81,NaN,30,4,2,4,4,12,Școala Primară Gălăuțaș-Pîrâu,Nr. 324,Gălăuțaș-Pârâu,46.8903,25.3777
23,21,HARGHITA,MUNICIPIUL MIERCUREA CIUC,3,1,2,0,64,1,1,2,3,NaN,2,1,63,1,1,1,Școala Gimnazială „Xántus János” Harghita-Băi Miercurea-Ciuc,Nr. 39,Harghita-Băi,46.3853,25.6365
230,21,HARGHITA,SĂRMAŞ,146,6,80,6,77,9,16,28,131,NaN,83,12,77,12,20,35,Școala Gimnazială Hodoșa Gară,Nr. 1433,Hodoșa,46.8658,25.4445
140,21,HARGHITA,FELICENI,3,0,2,0,132,1,0,4,3,NaN,3,1,131,1,0,2,Școala Generală Hoghia,Nr. 42,Hoghia,46.2853,25.2496
209,21,HARGHITA,PLĂIEŞII DE JOS,6,1,2,0,82,1,1,7,7,NaN,4,0,79,2,1,7,Școala Primară Dr.Pataki József nr. 3 Iacobeni,Nr. 331,Iacobeni,46.2041,26.1059
279,21,HARGHITA,ULIEŞ,2,0,0,0,35,0,1,3,2,NaN,0,0,35,0,1,3,Căminul Cultural Ighiu,Nr. 61,Ighiu,46.2036,25.2853
103,21,HARGHITA,CÂRŢA,3,1,3,1,787,3,2,10,4,NaN,4,0,778,2,3,11,Composesorat,Nr. 535,Ineu,46.5417,25.759
91,21,HARGHITA,ATID,1,2,2,0,59,1,1,2,3,NaN,1,1,57,1,1,3,Sediu Composesorat Inlăceni,Nr. 48,Inlăceni,46.4289,25.1078
290,21,HARGHITA,ZETEA,3,0,2,1,116,2,0,1,2,NaN,2,2,116,2,0,4,Școala Primară „Székely János” Izvoare,Nr. 134,Izvoare,46.4628,25.4558
284,21,HARGHITA,VOŞLĂBENI,62,3,11,3,223,8,6,13,61,NaN,11,1,221,7,8,17,Școala Primară „Ion Creanga” Izvoru - Mureșului,Nr. 582,Izvoru Mureșului,46.6265,25.681
168,21,HARGHITA,LUNCA DE SUS,1,1,1,0,280,1,2,9,2,NaN,1,2,282,1,2,7,Școala Gimnazială Izvorul Trotușului,Nr. 246/C,Izvorul Trotușului,46.4878,25.9449
135,21,HARGHITA,DITRĂU,7,0,1,0,167,1,1,3,7,NaN,2,0,164,1,4,4,Școala Gimnazială Jolotca,Nr. 163,Jolotca,46.8643,25.5275
150,21,HARGHITA,JOSENI,12,1,1,1,603,1,0,6,12,NaN,1,2,600,1,1,8,Liceul Tehnologic Sover Elek,Nr. 627,Joseni,46.7012,25.503
151,21,HARGHITA,JOSENI,7,5,3,0,714,1,0,12,6,NaN,3,2,702,1,0,11,Liceul Tehnologic Sover Elek,Nr. 627,Joseni,46.7012,25.503
152,21,HARGHITA,JOSENI,8,5,2,1,711,0,0,9,12,NaN,3,2,711,0,3,8,Camin Cultural,Nr. 1275,Joseni,46.7007,25.505
33,21,HARGHITA,MUNICIPIUL GHEORGHENI,13,1,8,2,19,1,2,2,17,NaN,3,1,20,1,2,4,Corp de Clădire cu 20 de Apartamente,,Lacu Roșu,46.7931,25.7937
157,21,HARGHITA,LELICENI,3,10,4,1,208,2,1,4,2,NaN,9,2,213,3,0,5,Caminul Cultural,Nr. 54,Leliceni,46.3475,25.8454
258,21,HARGHITA,SUSENI,1,0,1,1,23,2,1,2,2,NaN,1,0,22,2,1,2,Școala Primară Liban,Nr. 11,Liban,46.5359,25.491
193,21,HARGHITA,MIHĂILENI,66,4,24,3,9,4,2,6,69,NaN,19,3,9,5,3,12,Școala Gimnazială,Nr. 29,Livezi,46.521,25.8518
160,21,HARGHITA,LUETA,2,3,2,2,545,1,0,15,3,NaN,3,3,545,1,2,16,Sediul Primăriei,Nr. 397,Lueta,46.2739,25.4881
161,21,HARGHITA,LUETA,6,4,1,3,582,1,0,23,6,NaN,2,5,584,1,5,21,Fosta Agentie Cec Lueta,Nr. 1033,Lueta,46.2741,25.488
163,21,HARGHITA,LUNCA DE JOS,17,0,1,0,248,2,3,9,14,NaN,1,2,243,2,5,13,Clădirea Primăriei,Nr. 647,Lunca de Jos,46.5788,25.9972
164,21,HARGHITA,LUNCA DE JOS,9,2,4,1,600,2,1,2,10,NaN,4,0,592,3,1,7,Școala Gimnazială „Majlath Gusztav Karoly”,Nr. 493,Lunca de Jos,46.5647,25.9738
169,21,HARGHITA,LUNCA DE SUS,12,4,2,0,599,1,2,9,12,NaN,2,0,610,2,2,9,Primăria Lunca de Sus,Nr. 537,Lunca de Sus,46.5321,25.9581
173,21,HARGHITA,LUPENI,10,7,1,5,761,0,0,7,11,NaN,4,9,753,0,1,8,Școala Gimnazială „Tamasi Aron” Lupeni,Nr. 579,Lupeni,46.3792,25.2211
195,21,HARGHITA,MUGENI,6,0,1,0,383,1,1,3,3,NaN,2,0,382,1,1,2,Căminul Cultural Lutița,Nr. 194,Lutița,46.2499,25.1909
154,21,HARGHITA,LĂZAREA,9,3,1,2,670,1,2,9,8,NaN,3,3,671,2,4,6,Școala Gimnazială „Bethlen Gábor” Lăzarea,Nr. 275,Lăzarea,46.7464,25.5416
155,21,HARGHITA,LĂZAREA,5,1,4,0,436,2,1,5,2,NaN,4,1,439,3,1,3,Școala Gimnazială „Bethlen Gábor” Lăzarea,Nr. 1049,Lăzarea,46.7492,25.522
125,21,HARGHITA,COZMENI,13,2,1,1,214,1,1,4,10,NaN,1,3,216,1,1,5,Comuna Cozmeni,Nr. 4,Lăzărești,46.1965,25.9361
266,21,HARGHITA,ŞIMONEŞTI,1,1,2,1,44,1,1,4,1,NaN,2,1,46,1,1,2,Școală Primară Medișoru Mare,Nr. 93,Medișoru Mare,46.3626,25.0735
189,21,HARGHITA,MEREŞTI,13,6,6,1,514,1,0,10,17,NaN,3,4,503,1,1,14,Primăria Merești,Nr. 144,Merești,46.2328,25.4587
1,21,HARGHITA,MUNICIPIUL MIERCUREA CIUC,69,14,65,7,598,17,7,15,73,NaN,59,11,598,16,11,21,Teatrul Municipal „Csiki Játékszín” Miercurea-Ciuc,Nr. 6,Miercurea Ciuc,46.3591,25.8034
2,21,HARGHITA,MUNICIPIUL MIERCUREA CIUC,122,12,49,7,579,18,8,22,124,NaN,45,9,582,15,17,29,Liceul de Arte „Nagy István” Miercurea-Ciuc,Nr. 18,Miercurea Ciuc,46.362,25.8033
3,21,HARGHITA,MUNICIPIUL MIERCUREA CIUC,85,13,48,4,603,13,10,18,79,NaN,46,11,610,12,15,26,Casa de Cultură a Sindicatelor Miercurea-Ciuc,Piața Libertății (D) nr. 16,Miercurea Ciuc,46.3611,25.8033
4,21,HARGHITA,MUNICIPIUL MIERCUREA CIUC,81,24,30,5,582,17,12,24,78,NaN,35,8,595,19,14,26,Școala Gimnazială „Nagy Imre” Miercurea-Ciuc,Nr. 1,Miercurea Ciuc,46.3644,25.804
5,21,HARGHITA,MUNICIPIUL MIERCUREA CIUC,78,17,37,7,621,7,7,13,76,NaN,39,9,620,9,9,21,Școala Gimnazială „Nagy Imre” Miercurea-Ciuc,,Miercurea Ciuc,46.3644,25.8038
6,21,HARGHITA,MUNICIPIUL MIERCUREA CIUC,64,29,35,3,600,14,10,26,62,NaN,42,5,611,12,15,30,Sala de Sport „Erőss Zsolt Aréna” Miercurea-Ciuc,Str. Stadion nr. 3,Miercurea Ciuc,46.3656,25.8032
7,21,HARGHITA,MUNICIPIUL MIERCUREA CIUC,42,13,31,2,553,11,2,9,41,NaN,30,2,557,13,3,14,Școala Gimnazială „Petőfi Sándor” Miercurea-Ciuc,Str. Petőfi Sándor nr. 40,Miercurea Ciuc,46.3574,25.804
8,21,HARGHITA,MUNICIPIUL MIERCUREA CIUC,71,8,33,4,440,7,9,18,65,NaN,28,9,440,8,16,25,Școala Gimnazială „Petőfi Sándor” Miercurea-Ciuc,Str. Petőfi Sándor nr. 40,Miercurea Ciuc,46.3574,25.804
9,21,HARGHITA,MUNICIPIUL MIERCUREA CIUC,80,18,29,2,627,10,4,11,80,NaN,25,2,631,13,13,23,Școala Gimnazială „Liviu Rebreanu” Miercurea-Ciuc,Str. Patinoarului nr. 2,Miercurea Ciuc,46.3584,25.7994
10,21,HARGHITA,MUNICIPIUL MIERCUREA CIUC,67,16,42,4,588,24,6,17,71,NaN,48,4,596,23,8,16,Grădinița „Napraforgó” Miercurea-Ciuc,Str. Harghita nr. 34,Miercurea Ciuc,46.3628,25.7938
11,21,HARGHITA,MUNICIPIUL MIERCUREA CIUC,51,5,21,3,485,4,5,11,48,NaN,21,3,485,4,9,17,S.C. Goscom S.A Miercurea-Ciuc,Str. Salcîm (Str. Salcâm) nr. 1,Miercurea Ciuc,46.3626,25.7882
12,21,HARGHITA,MUNICIPIUL MIERCUREA CIUC,63,23,29,10,645,9,10,20,63,NaN,31,13,648,8,15,30,Școala Gimnazială „József Attila” Miercurea-Ciuc,Str. Miron Cristea (Str. Dr. Patriarh Miron Cristea) nr. 1,Miercurea Ciuc,46.3551,25.8049
13,21,HARGHITA,MUNICIPIUL MIERCUREA CIUC,68,9,51,3,544,4,9,17,65,NaN,47,6,538,3,15,26,Școala Gimnazială „József Attila” Miercurea-Ciuc,Nr. 20,Miercurea Ciuc,46.3541,25.8112
14,21,HARGHITA,MUNICIPIUL MIERCUREA CIUC,95,16,34,6,526,8,15,30,99,NaN,37,11,529,6,15,28,Școala Gimnazială „József Attila” Miercurea-Ciuc,Nr. 20,Miercurea Ciuc,46.3541,25.8112
15,21,HARGHITA,MUNICIPIUL MIERCUREA CIUC,95,12,36,5,534,10,6,21,95,NaN,36,6,540,10,11,20,Sala de Sport a Școlii Gimnaziale „József Attila” Miercurea-Ciuc,Nr. 20,Miercurea Ciuc,46.3541,25.8106
16,21,HARGHITA,MUNICIPIUL MIERCUREA CIUC,110,17,57,3,562,6,12,25,110,NaN,56,8,569,7,15,28,Sala de Sport a Școlii Gimnazilae „József Attila” Miercurea-Ciuc,Nr. 20,Miercurea Ciuc,46.3541,25.8106
17,21,HARGHITA,MUNICIPIUL MIERCUREA CIUC,88,7,43,1,467,7,5,15,89,NaN,36,1,464,8,8,17,Grădinița „Aranyalma” Miercurea-Ciuc,Aleea Copiilor nr. 6,Miercurea Ciuc,46.356,25.8099
18,21,HARGHITA,MUNICIPIUL MIERCUREA CIUC,39,19,25,5,589,4,5,15,39,NaN,27,5,587,7,11,24,Liceul Tehnoligic „Székely Károly” Miercurea-Ciuc,Str. Iancu de Hunedoara (Str. Spicului) nr. 29/B,Miercurea Ciuc,46.3633,25.8107
19,21,HARGHITA,MUNICIPIUL MIERCUREA CIUC,48,14,28,3,557,10,6,11,52,NaN,25,4,558,12,10,18,Liceul Tehnoligic „Székely Károly” Miercurea-Ciuc,Str. Iancu de Hunedoara (Str. Spicului) nr. 29/B,Miercurea Ciuc,46.3633,25.8107
20,21,HARGHITA,MUNICIPIUL MIERCUREA CIUC,11,10,8,3,553,3,2,9,13,NaN,9,1,554,2,3,13,Școala Gimnazială „Xantus Janos” Miercurea-Ciuc,Str. Jigodin nr. 50,Miercurea Ciuc,46.3776,25.8016
21,21,HARGHITA,MUNICIPIUL MIERCUREA CIUC,17,15,30,21,791,4,3,7,15,NaN,31,20,801,4,2,9,Sediul Asociației „Csíksomlyó” Miercurea-Ciuc,Nr. 123,Miercurea Ciuc,46.378,25.8221
22,21,HARGHITA,MUNICIPIUL MIERCUREA CIUC,13,15,15,0,762,4,1,7,10,NaN,19,2,768,2,7,15,Casa de Cultură Toplița Miercurea-Ciuc,Nr. 93,Miercurea Ciuc,46.376,25.8006
190,21,HARGHITA,MIHĂILENI,13,1,3,1,368,1,1,7,13,NaN,2,2,362,0,5,14,Școala Gim. Arany Janos,Nr. 174,Mihăileni,46.4726,25.8256
264,21,HARGHITA,ŞIMONEŞTI,2,0,4,0,191,1,1,3,2,NaN,4,0,193,1,1,1,Căminul Cultural Mihăileni,Nr. 74,Mihăileni,46.3602,25.1769
159,21,HARGHITA,LELICENI,6,10,2,0,449,4,1,8,7,NaN,8,4,448,4,2,10,Sediu Administrativ,Nr. 116,Misentea,46.3297,25.8841
171,21,HARGHITA,LUPENI,2,1,1,2,347,0,0,5,2,NaN,2,1,346,1,1,6,Casa de Cultură Morăreni,Nr. 222,Morăreni,46.3568,25.2211
194,21,HARGHITA,MUGENI,14,5,4,1,356,5,1,6,12,NaN,6,1,354,6,5,8,Primăria Comunei Mugeni,Nr. 150,Mugeni,46.2566,25.2153
137,21,HARGHITA,DÎRJIU,3,1,1,1,143,1,0,10,4,NaN,0,1,147,1,1,6,Cămin Cultural,Nr. 141,Mujna,46.2065,25.1498
177,21,HARGHITA,MĂDĂRAŞ,12,0,3,0,534,3,1,5,9,NaN,5,2,533,3,3,9,Școala Gimnazială „Kiss Ferenc”,Nr. 64,Mădăraș,46.4965,25.7536
178,21,HARGHITA,MĂDĂRAŞ,3,1,7,5,439,1,1,4,3,NaN,8,4,437,1,1,3,Școala Gimnazială „Kiss Ferenc”,Nr. 64,Mădăraș,46.4965,25.7536
179,21,HARGHITA,MĂRTINIŞ,10,2,3,2,230,1,4,7,11,NaN,3,3,235,1,4,6,Căminul Cultural Mărtiniș,Nr. 82,Mărtiniș,46.2317,25.3871
196,21,HARGHITA,MUGENI,2,1,3,1,60,1,1,3,2,NaN,3,1,62,1,1,3,Căminul Cultural Mătișeni,Nr. 10,Mătișeni,46.2357,25.1689
146,21,HARGHITA,FRUMOASA,16,2,4,1,445,0,2,15,17,NaN,4,4,443,0,2,6,Școala Primară,Nr. 156,Nicolești,46.4399,25.8377
277,21,HARGHITA,ULIEŞ,2,3,2,1,64,1,0,1,2,NaN,4,2,65,1,1,1,Căminul Cultural Nicolești,Nr. 52,Nicolești,46.2415,25.258
192,21,HARGHITA,MIHĂILENI,4,1,1,0,247,0,1,6,7,NaN,0,2,242,0,1,3,Școala Primară,Nr. 117,Nădejdea,46.4938,25.836
203,21,HARGHITA,OCLAND,16,3,2,2,220,2,1,14,15,NaN,1,8,212,2,3,14,Caminul Cultural Ocland,Nr. 79,Ocland,46.1584,25.4255
215,21,HARGHITA,PRAID,9,7,2,1,407,2,0,8,8,NaN,5,4,401,3,2,11,Școala Gimnazială „Sukosd Ferenc” Ocna de Jos,Nr. 544,Ocna de Jos,46.5247,25.1283
216,21,HARGHITA,PRAID,10,2,0,1,395,1,0,14,8,NaN,0,5,398,1,3,9,Școala Gimnazială „Szekely Mozes” Ocna de Sus,Nr. 264,Ocna de Sus,46.5264,25.1485
34,21,HARGHITA,MUNICIPIUL ODORHEIU SECUIESC,19,17,6,2,469,1,1,17,26,NaN,14,3,468,3,4,18,Colegiul Tehnic „Bányai János”,Str. Budvár (Str. Budvar) nr. 8/A,Odorheiu Secuiesc,46.2964,25.2874
35,21,HARGHITA,MUNICIPIUL ODORHEIU SECUIESC,23,15,4,0,434,2,3,5,24,NaN,8,1,439,3,2,9,Colegiul Tehnic „Bányai János”,Str. Budvár (Str. Budvar) nr. 8/A,Odorheiu Secuiesc,46.2964,25.2874
36,21,HARGHITA,MUNICIPIUL ODORHEIU SECUIESC,43,15,8,9,442,5,8,20,41,NaN,13,10,445,8,9,22,Grădinița „Zsibongó”,Str. Morii nr. 33,Odorheiu Secuiesc,46.303,25.2884
37,21,HARGHITA,MUNICIPIUL ODORHEIU SECUIESC,11,14,9,5,570,1,2,3,11,NaN,11,9,567,1,4,7,Colegiul Reformat „Baczkamadarasi Kis Gergely”,Piața Márton Áron (Piața Libertății) nr. 1-2,Odorheiu Secuiesc,46.3032,25.2952
38,21,HARGHITA,MUNICIPIUL ODORHEIU SECUIESC,7,6,1,1,316,2,2,7,11,NaN,1,1,313,2,3,10,Colegiul Reformat „Baczkamadarasi Kis Gergely”,Piața Márton Áron (Piața Libertății) nr. 1-2,Odorheiu Secuiesc,46.3032,25.2952
39,21,HARGHITA,MUNICIPIUL ODORHEIU SECUIESC,13,13,5,6,557,4,3,12,15,NaN,6,9,555,5,4,11,Casă de Cultură,Șoseaua Tamási Áron (Șoseaua V. I. Lenin) nr. 11,Odorheiu Secuiesc,46.3059,25.2906
40,21,HARGHITA,MUNICIPIUL ODORHEIU SECUIESC,9,12,4,2,647,3,1,6,10,NaN,6,2,646,5,3,8,Liceul Tehnologic „Kós Károly”,Str. Nicolae Bălcescu nr. 35,Odorheiu Secuiesc,46.3101,25.2926
41,21,HARGHITA,MUNICIPIUL ODORHEIU SECUIESC,6,21,2,3,623,2,2,9,4,NaN,3,5,626,2,8,19,Liceul Tehnologic „Kós Károly”,Str. Nicolae Bălcescu nr. 35,Odorheiu Secuiesc,46.3101,25.2926
42,21,HARGHITA,MUNICIPIUL ODORHEIU SECUIESC,5,16,7,2,586,3,1,6,5,NaN,8,3,598,3,3,9,Imobilul din Strada Bethlen Gábor nr. 50,Str. Bethlen Gábor (Str. Republicii) nr. 50,Odorheiu Secuiesc,46.3061,25.2991
43,21,HARGHITA,MUNICIPIUL ODORHEIU SECUIESC,19,12,7,9,524,2,0,4,20,NaN,8,10,523,2,1,7,Școala Gimnazială „Orbán Balázs”,Bulevardul Independenței nr. 35,Odorheiu Secuiesc,46.3062,25.3048
44,21,HARGHITA,MUNICIPIUL ODORHEIU SECUIESC,10,7,9,2,445,2,0,5,11,NaN,14,7,435,2,1,6,Școala Gimnazială „Orbán Balázs”,Bulevardul Independenței nr. 35,Odorheiu Secuiesc,46.3062,25.3048
45,21,HARGHITA,MUNICIPIUL ODORHEIU SECUIESC,6,11,2,2,476,1,0,2,6,NaN,5,5,473,1,0,5,Școala Gimnazială „Orbán Balázs”,Bulevardul Independenței nr. 35,Odorheiu Secuiesc,46.3062,25.3048
46,21,HARGHITA,MUNICIPIUL ODORHEIU SECUIESC,12,11,3,1,545,3,3,8,10,NaN,6,3,547,2,7,12,Școala Gimnazială „Bethlen Gábor”,Intrarea Tineretului nr. 3,Odorheiu Secuiesc,46.3113,25.307
47,21,HARGHITA,MUNICIPIUL ODORHEIU SECUIESC,18,5,4,3,507,1,2,6,12,NaN,5,15,498,2,1,7,Școala Gimnazială „Bethlen Gábor”,Intrarea Tineretului nr. 3,Odorheiu Secuiesc,46.3113,25.307
48,21,HARGHITA,MUNICIPIUL ODORHEIU SECUIESC,11,5,2,5,595,5,3,5,11,NaN,3,7,591,3,4,10,Școala Gimnazială „Bethlen Gábor”,Intrarea Tineretului nr. 3,Odorheiu Secuiesc,46.3113,25.307
49,21,HARGHITA,MUNICIPIUL ODORHEIU SECUIESC,9,14,9,2,599,3,3,5,10,NaN,9,6,603,3,3,6,Școala Gimnazială „Bethlen Gábor”,Intrarea Tineretului nr. 3,Odorheiu Secuiesc,46.3113,25.307
50,21,HARGHITA,MUNICIPIUL ODORHEIU SECUIESC,12,3,5,1,495,0,2,2,11,NaN,7,2,485,0,1,4,Școala Gimnazială „Bethlen Gábor”,Intrarea Tineretului nr. 3,Odorheiu Secuiesc,46.3113,25.307
51,21,HARGHITA,MUNICIPIUL ODORHEIU SECUIESC,23,24,3,2,573,3,2,9,23,NaN,12,7,573,2,3,12,Școala Gimnazială „Móra Ferenc”,Str. Victoriei nr. 16,Odorheiu Secuiesc,46.3117,25.3103
52,21,HARGHITA,MUNICIPIUL ODORHEIU SECUIESC,21,12,2,2,590,2,2,6,18,NaN,5,4,595,2,5,8,Școala Gimnazială „Móra Ferenc”,Str. Victoriei nr. 16,Odorheiu Secuiesc,46.3117,25.3103
53,21,HARGHITA,MUNICIPIUL ODORHEIU SECUIESC,6,3,6,1,553,2,0,15,8,NaN,6,3,555,4,1,6,Școala Gimnazială „Móra Ferenc”,Str. Victoriei nr. 16,Odorheiu Secuiesc,46.3117,25.3103
54,21,HARGHITA,MUNICIPIUL ODORHEIU SECUIESC,14,8,7,4,567,5,1,3,14,NaN,11,10,562,5,1,3,Școala Gimnazială „Móra Ferenc”,Str. Victoriei nr. 16,Odorheiu Secuiesc,46.3117,25.3103
55,21,HARGHITA,MUNICIPIUL ODORHEIU SECUIESC,17,9,1,4,652,3,2,9,18,NaN,2,8,659,3,2,9,Clubul Casei de Cultură Beclean,Str. Beclean nr. 170,Odorheiu Secuiesc,46.3207,25.3175
187,21,HARGHITA,MĂRTINIŞ,3,3,1,1,108,1,0,1,2,NaN,1,1,102,1,0,4,Grădinița cu Program Normal Orășeni,Nr. 60,Orășeni,46.1629,25.3638
280,21,HARGHITA,ULIEŞ,9,0,1,0,90,1,1,7,9,NaN,1,2,86,3,1,5,Căminul Cultural Petecu,Nr. 194,Petecu,46.1724,25.2341
188,21,HARGHITA,MĂRTINIŞ,0,2,1,1,76,2,0,6,0,NaN,1,1,83,1,0,2,Școala Primară Petreni,Nr. 25,Petreni,46.1762,25.3748
231,21,HARGHITA,SĂRMAŞ,105,3,32,12,2,1,3,10,91,NaN,44,11,2,2,8,16,Școala Primară Platonești,Nr. 74C,Platonești,46.9063,25.4153
207,21,HARGHITA,PLĂIEŞII DE JOS,7,5,9,2,285,1,1,1,7,NaN,10,0,278,1,2,6,Casa de Cultură Plăieșii de Jos,Nr. 105,Plăieșii de Jos,46.2258,26.0983
208,21,HARGHITA,PLĂIEŞII DE JOS,26,2,4,0,257,3,4,14,21,NaN,5,2,252,2,6,16,Școala Gimnazială nr. 4 Plăieșii de Sus,Nr. 205,Plăieșii de Sus,46.2358,26.1034
142,21,HARGHITA,FELICENI,1,0,0,7,143,1,0,6,1,NaN,0,7,143,1,2,5,Școala Generală Polonița,Nr. 121,Polonița,46.3334,25.2502
211,21,HARGHITA,PORUMBENI,7,3,6,3,562,2,0,5,7,NaN,6,8,559,1,0,4,Camin Cultural,Nr. 244,Porumbenii Mari,46.2745,25.1326
212,21,HARGHITA,PORUMBENI,5,3,1,1,255,1,1,8,6,NaN,1,2,253,1,1,7,Sala de Manifestatii,Nr. 18,Porumbenii Mici,46.2726,25.1019
213,21,HARGHITA,PRAID,11,10,1,2,582,3,0,8,8,NaN,4,4,582,2,2,11,Primăria Comunei Praid- Sala de Sedinte al Cons.Local,Nr. 394,Praid,46.5516,25.1275
214,21,HARGHITA,PRAID,29,3,3,2,555,4,0,18,28,NaN,4,7,563,4,1,14,Caminul Cultural Praid,Nr. 423,Praid,46.5538,25.1286
166,21,HARGHITA,LUNCA DE JOS,3,0,0,0,82,1,0,0,2,NaN,1,0,81,1,0,1,Școala Primară Puntea Lupului Ii,Nr. 1679A,Puntea Lupului,46.6901,25.9294
172,21,HARGHITA,LUPENI,3,1,3,2,199,1,0,2,2,NaN,2,7,193,1,0,4,Casa de Cultură Păltiniș,Nr. 107,Păltiniș,46.39,25.1983
170,21,HARGHITA,LUNCA DE SUS,12,2,2,0,187,0,2,5,9,NaN,2,0,195,0,2,5,Școala Primară Păltiniș-Ciuc,Nr. 1040/B,Păltiniș-Ciuc,46.5432,25.9666
176,21,HARGHITA,LUPENI,7,3,2,1,90,2,1,7,7,NaN,2,1,98,3,0,5,Școala Primară Păuleni,Nr. 15,Păuleni,46.4271,25.1868
204,21,HARGHITA,PĂULENI-CIUC,13,8,3,0,213,2,1,3,12,NaN,4,3,207,1,0,10,Școala Gimnazială „Marton Ferenc”,Nr. 115,Păuleni-Ciuc,46.3967,25.8336
218,21,HARGHITA,RACU,10,1,5,0,546,2,2,7,9,NaN,6,0,548,2,1,4,Casa de Cultură Racu,Nr. 232,Racu,46.4526,25.7556
186,21,HARGHITA,MĂRTINIŞ,1,0,1,1,69,1,0,1,1,NaN,1,1,69,1,0,1,Școala Primară Rareș,Nr. 76,Rareș,46.2062,25.3859
271,21,HARGHITA,TULGHEŞ,23,0,3,0,16,1,4,7,22,NaN,2,1,19,2,2,6,Școala Primară Recea,Nr. 14,Recea,46.8997,25.7256
220,21,HARGHITA,REMETEA,5,2,2,1,646,1,1,7,7,NaN,2,4,635,0,2,3,Școala Generală „Balás Jenő”,Str. Csutakfalva nr. 80,Remetea,46.7977,25.4267
221,21,HARGHITA,REMETEA,20,3,7,1,734,4,1,6,19,NaN,8,3,736,5,2,5,Grădinita de Copii Alszeg,Str. Bethlen Gábor nr. 31,Remetea,46.8033,25.4526
222,21,HARGHITA,REMETEA,6,7,3,0,797,3,1,4,3,NaN,3,1,800,2,1,5,Școala Gimnazială Fráter György,Piața Cseres Tibor nr. 2,Remetea,46.7936,25.4546
223,21,HARGHITA,REMETEA,3,1,7,0,707,1,1,6,4,NaN,6,1,696,1,1,6,Gradinița de Copii Tulamaros,Str. Borviz nr. 8,Remetea,46.7922,25.4561
259,21,HARGHITA,ŞIMONEŞTI,7,3,5,0,270,2,3,8,7,NaN,6,2,275,2,3,5,Căminul Cultural Rugănești,Nr. 40,Rugănești,46.3038,25.0695
224,21,HARGHITA,SATU MARE,6,5,0,2,419,1,0,10,8,NaN,2,2,424,1,1,11,Caminul Cultural Satu Mare,Nr. 450,Satu Mare,46.3397,25.3799
225,21,HARGHITA,SATU MARE,12,4,3,0,308,2,0,20,16,NaN,5,7,304,3,0,8,Caminul Cultural Satu Mare,Nr. 450,Satu Mare,46.3397,25.3799
66,21,HARGHITA,MUNICIPIUL TOPLIŢA,3,1,6,0,14,1,1,5,4,NaN,4,1,16,2,1,4,Cabana Ocolului Silvic,Nr. 15,Secu,46.9873,25.4821
240,21,HARGHITA,SECUIENI,13,2,4,1,193,1,3,9,11,NaN,4,3,201,1,5,7,Camin Cultural,Nr. 46,Secuieni,46.2618,24.9727
243,21,HARGHITA,SICULENI,36,5,14,0,422,1,3,14,35,NaN,15,2,420,3,4,9,Primăria Comunei Siculeni,Nr. 106,Siculeni,46.4345,25.7657
244,21,HARGHITA,SICULENI,10,1,4,1,903,1,2,14,11,NaN,3,2,904,0,1,13,Școala Gimnazială Zold Peter Siculeni,Nr. 225,Siculeni,46.4355,25.7534
288,21,HARGHITA,ZETEA,4,1,1,0,238,1,2,9,4,NaN,1,2,237,1,2,7,Școala Gimnazială „Jókai Mór” Sub Cetate,Nr. 100,Sub Cetate,46.4456,25.3902
252,21,HARGHITA,SUBCETATE,280,5,109,9,12,8,19,29,236,NaN,118,18,14,12,32,48,Liceul Miron Cristea Subcetate,Str. Protopop Elie Câmpeanu nr. 11,Subcetate,46.8557,25.4313
253,21,HARGHITA,SUSENI,7,1,3,2,398,2,1,6,5,NaN,3,4,398,2,1,6,Primăria Comunei Suseni,Nr. 212,Suseni,46.6667,25.5551
254,21,HARGHITA,SUSENI,7,3,2,0,350,1,0,1,8,NaN,1,2,350,1,0,2,Primăria Comunei Suseni,Nr. 212,Suseni,46.6667,25.5551
255,21,HARGHITA,SUSENI,3,2,2,0,313,2,0,6,2,NaN,1,0,314,2,1,7,Școala Primară - Mureș Sat,Nr. 332,Suseni,46.653,25.5619
129,21,HARGHITA,DEALU,6,8,3,2,541,1,0,7,5,NaN,1,6,552,2,1,7,Camin Cultural,Nr. 41,Sâncrai,46.3664,25.3236
234,21,HARGHITA,SÂNCRĂIENI,8,4,3,1,612,1,2,13,9,NaN,5,3,606,1,3,10,Școala Gimnazială Sâncrăieni,Nr. 604,Sâncrăieni,46.3091,25.8446
235,21,HARGHITA,SÂNCRĂIENI,2,4,4,1,533,1,2,6,1,NaN,7,2,532,1,3,5,Școala Gimnazială Sâncrăieni,Nr. 604,Sâncrăieni,46.3091,25.8446
245,21,HARGHITA,SÎNDOMINIC,4,2,1,1,685,1,2,9,6,NaN,2,1,686,1,1,6,Primăria Sîndominic,,Sândominic,46.582,25.7954
246,21,HARGHITA,SÎNDOMINIC,4,0,2,0,698,1,1,7,6,NaN,3,1,686,1,3,9,Primăria Sîndominic,,Sândominic,46.582,25.7954
247,21,HARGHITA,SÎNDOMINIC,5,0,2,0,502,1,1,10,4,NaN,2,4,492,1,2,11,Școala Gimnazială Marton Aron Sîndominic,Nr. 1681,Sândominic,46.5801,25.7905
248,21,HARGHITA,SÎNDOMINIC,4,0,2,0,467,1,2,16,3,NaN,2,5,453,2,2,19,Școala Gimnazială Marton Aron Sîndominic,,Sândominic,46.5801,25.7905
236,21,HARGHITA,SÂNMARTIN,5,0,1,1,493,1,1,10,7,NaN,2,1,491,3,1,6,Primăria Sînmartin,Nr. 40,Sânmartin,46.262,25.9355
237,21,HARGHITA,SÂNMARTIN,3,0,2,0,341,1,1,7,6,NaN,1,0,342,1,1,6,Primăria Sînmartin,Nr. 40,Sânmartin,46.262,25.9355
183,21,HARGHITA,MĂRTINIŞ,7,0,1,0,153,2,0,6,8,NaN,2,2,152,2,0,1,Școala Gimnazială „László Gyula” Sînpaul,Nr. 126,Sânpaul,46.1938,25.38
249,21,HARGHITA,SÎNSIMION,8,3,3,0,394,1,1,10,8,NaN,2,1,393,1,1,4,Căminul Cultural,Nr. 110,Sânsimion,46.2561,25.8795
250,21,HARGHITA,SÎNSIMION,4,3,6,2,638,5,2,9,6,NaN,6,4,641,5,1,5,Căminul Cultural,Nr. 110,Sânsimion,46.2561,25.8795
238,21,HARGHITA,SÂNTIMBRU,4,0,4,2,550,1,1,8,7,NaN,3,5,546,2,2,7,Școala Gimnazială „Arany János” Sântimbru,Nr. 539,Sântimbru,46.2813,25.8655
239,21,HARGHITA,SÂNTIMBRU,4,1,7,0,404,2,1,5,2,NaN,6,2,409,1,1,4,Școala Primară Pálszeg Sântimbru,Nr. 251,Sântimbru,46.2808,25.8534
226,21,HARGHITA,SĂCEL,10,0,2,0,6,1,0,3,8,NaN,2,0,6,1,1,3,Școala Gimnazială Sacel,Nr. 73,Săcel,46.3127,24.9314
233,21,HARGHITA,SĂRMAŞ,213,13,74,10,49,7,14,26,199,NaN,94,15,50,10,19,27,Școala Gimnazială „Sfântu Andrei” Sărmaș,Nr. 598A,Sărmaș,46.8856,25.4434
143,21,HARGHITA,FELICENI,1,3,1,0,95,1,0,5,1,NaN,1,0,100,1,0,4,Școala Generală Teleac,Nr. 93,Teleac,46.2455,25.321
267,21,HARGHITA,TOMEŞTI,6,2,2,0,560,2,1,6,6,NaN,3,0,564,1,1,4,Clădirea Căminului Cultural Tomești,Nr. 682,Tomești,46.553,25.774
268,21,HARGHITA,TOMEŞTI,9,0,3,1,526,1,1,2,5,NaN,3,3,511,1,1,4,Clădirea Primăriei Comunei Tomești,Nr. 682,Tomești,46.5533,25.7742
56,21,HARGHITA,MUNICIPIUL TOPLIŢA,264,14,101,17,102,2,2,24,232,NaN,132,18,105,11,5,24,Școala Gimnazială „Miron Cristea” Toplița,Str. Avram Iancu nr. 4,Toplița,46.925,25.3568
57,21,HARGHITA,MUNICIPIUL TOPLIŢA,262,12,93,18,100,12,7,24,210,NaN,124,23,100,19,24,41,Școala Gimnazială „Miron Cristea” Toplița,Str. Avram Iancu nr. 4,Toplița,46.925,25.3568
58,21,HARGHITA,MUNICIPIUL TOPLIŢA,211,7,68,10,158,5,10,26,185,NaN,82,14,159,7,13,30,Liceul Teoretic „Kemeny Janos” Toplița,Str. Sportivilor nr. 5/G,Toplița,46.9215,25.3532
59,21,HARGHITA,MUNICIPIUL TOPLIŢA,134,6,41,5,51,5,5,11,117,NaN,56,6,50,5,9,16,Grădinița Voinicel nr. 1 Toplița,Str. Gării nr. 42-44,Toplița,46.9231,25.3461
61,21,HARGHITA,MUNICIPIUL TOPLIŢA,339,4,130,15,26,4,14,28,294,NaN,149,23,30,6,19,38,Școala Gimnazială „Andrei Șaguna” Vale,Str. 1 Decembrie 1918 (Str. George Coșbuc) nr. 160,Toplița,46.9434,25.3744
62,21,HARGHITA,MUNICIPIUL TOPLIŢA,144,6,63,9,100,11,8,14,130,NaN,72,10,106,13,6,19,Colegiul Național „Mihai Eminescu” Toplița,Str. Ștefan cel Mare nr. 6,Toplița,46.9246,25.3489
63,21,HARGHITA,MUNICIPIUL TOPLIŢA,124,11,67,5,62,7,10,17,105,NaN,78,11,62,7,11,25,Școala Gimnazială „Sf. Ilie” Toplița,Str. Ștefan cel Mare nr. 21,Toplița,46.9249,25.348
64,21,HARGHITA,MUNICIPIUL TOPLIŢA,168,12,70,5,72,8,2,16,142,NaN,90,12,75,10,12,24,Liceul „O.C.Tăslăuanu” Toplița,Str. Dealului nr. 9,Toplița,46.927,25.3501
65,21,HARGHITA,MUNICIPIUL TOPLIŢA,195,2,40,8,3,3,4,14,169,NaN,64,9,3,5,9,14,Școala Gimnazială „Andrei Șaguna” Călimănel,Str. Călimani nr. 5,Toplița,46.9379,25.3264
269,21,HARGHITA,TULGHEŞ,235,8,49,5,123,9,9,19,225,NaN,49,8,118,12,15,24,Școala Gimnazială Tulgheș,Nr. 338,Tulgheș,46.9574,25.76
270,21,HARGHITA,TULGHEŞ,103,0,13,0,14,4,2,6,95,NaN,14,2,13,5,3,8,Școala Primară Putna,Nr. 42/A,Tulgheș,46.934,25.7486
272,21,HARGHITA,TULGHEŞ,63,3,10,2,48,5,6,9,65,NaN,11,4,49,6,7,8,Școala Primară Valea Frumoasă,Nr. 851,Tulgheș,46.97,25.7275
262,21,HARGHITA,ŞIMONEŞTI,3,0,3,0,48,1,1,2,3,NaN,3,0,49,1,2,3,Căminul Cultural Turdeni,Nr. 86,Turdeni,46.3801,25.1024
273,21,HARGHITA,TUŞNAD,8,0,4,1,287,1,0,9,10,NaN,2,2,294,2,0,5,Clădirea Primriei,Nr. 176,Tușnad,46.2067,25.9092
274,21,HARGHITA,TUŞNAD,12,1,4,0,385,1,1,7,12,NaN,5,0,385,1,1,7,Căminul Cultural,Nr. 573,Tușnadu Nou,46.1921,25.8898
99,21,HARGHITA,BRĂDEŞTI,6,1,1,0,365,1,0,8,6,NaN,2,5,358,1,3,8,Școala Primară Tirnovita,Nr. 158,Târnovița,46.3721,25.3572
201,21,HARGHITA,MUGENI,2,0,1,1,91,2,0,2,2,NaN,1,2,92,2,2,2,Căminul Cultural Tăietura,Nr. 34,Tăietura,46.2977,25.1989
263,21,HARGHITA,ŞIMONEŞTI,4,0,1,1,81,1,0,4,4,NaN,1,3,84,1,0,1,Căminul Cultural Tărcești,Nr. 59,Tărcești,46.3759,25.1311
139,21,HARGHITA,FELICENI,6,1,3,1,275,2,2,11,5,NaN,3,2,279,4,3,9,Școala Generală Tăureni,Nr. 5,Tăureni,46.2685,25.26
130,21,HARGHITA,DEALU,7,5,1,5,217,4,1,6,7,NaN,1,9,218,4,1,6,Casă Comunală,Nr. 18,Ulcani,46.3547,25.2842
276,21,HARGHITA,ULIEŞ,6,0,1,1,120,1,0,4,5,NaN,1,0,122,1,0,3,Căminul Cultural Ulieș,Nr. 53,Ulieș,46.2114,25.2404
162,21,HARGHITA,LUNCA DE JOS,8,0,3,2,727,2,1,12,6,NaN,3,2,720,2,1,4,Căminul Cultural Valea Rece,Nr. 1297,Valea Rece,46.623,25.9568
165,21,HARGHITA,LUNCA DE JOS,8,0,1,1,489,2,1,8,10,NaN,1,2,486,1,3,7,Școala Primară Gura Vaii Rece,Nr. 892,Valea Rece,46.5926,25.9914
257,21,HARGHITA,SUSENI,7,1,6,0,331,2,0,7,6,NaN,6,3,337,1,0,2,Școala Gimnazială „Tarisznyás Márton” Valea Strîmbă,Nr. 291,Valea Strâmbă,46.6935,25.5953
123,21,HARGHITA,CORUND,0,0,1,1,117,3,0,3,0,NaN,1,2,117,3,0,2,Școala Gimnazială Valea Lui Pavel,Nr. 153,Valea lui Pavel,46.5106,25.2209
227,21,HARGHITA,SĂCEL,12,0,5,3,20,2,0,22,11,NaN,7,3,30,2,1,6,Cămin Cultural Vidacut,Nr. 114,Vidacut,46.3372,24.8934
82,21,HARGHITA,ORAŞ VLĂHIŢA,11,3,7,1,387,1,1,10,12,NaN,11,2,387,1,1,10,"Școala Gimnazială „Mártonffi János”, Vlăhița",Str. Harghitei nr. 63,Vlăhița,46.3582,25.5414
83,21,HARGHITA,ORAŞ VLĂHIŢA,2,10,3,3,544,1,1,6,3,NaN,4,4,545,1,0,10,"Școala Gimnazială „Mártonffi János”, Vlăhița",Str. Republicii nr. 24,Vlăhița,46.3467,25.5261
84,21,HARGHITA,ORAŞ VLĂHIŢA,4,8,2,1,278,0,2,7,4,NaN,3,4,279,1,3,7,"Liceul Tehnologic „Gábor Áron”, Vlăhița",Str. Mihai Eminescu nr. 2,Vlăhița,46.3324,25.5189
85,21,HARGHITA,ORAŞ VLĂHIŢA,9,4,2,0,371,2,0,4,11,NaN,2,2,367,2,4,9,"Liceul Tehnologic „Gábor Áron”, Vlăhița",Str. Mihai Eminescu nr. 2,Vlăhița,46.3324,25.5189
86,21,HARGHITA,ORAŞ VLĂHIŢA,5,4,3,0,361,2,0,4,6,NaN,6,1,353,4,1,6,"Casa de Cultură „Bartók Béla”, Vlăhița",Str. Gábor Áron (Str. Gábor Aron) (D) nr. 47,Vlăhița,46.3307,25.5141
283,21,HARGHITA,VOŞLĂBENI,156,1,52,15,72,6,11,23,156,NaN,50,17,69,5,19,25,Școala Gimnazială „Teodor Chindea” Voșlăbeni,Nr. 386,Voșlăbeni,46.6476,25.6195
275,21,HARGHITA,TUŞNAD,2,0,2,0,97,8,2,6,2,NaN,3,1,98,8,2,3,Căminul Cultural,Nr. 6,Vrabia,46.2231,25.9073
191,21,HARGHITA,MIHĂILENI,2,5,2,0,297,0,1,5,2,NaN,1,0,295,0,1,10,Școala Primară,Nr. 61,Văcărești,46.4626,25.7932
281,21,HARGHITA,VĂRŞAG,4,2,1,1,446,2,1,10,6,NaN,0,2,438,3,2,8,Primăria Comunei Vărșag,Nr. 351,Vărșag,46.5249,25.3351
282,21,HARGHITA,VĂRŞAG,1,0,0,0,132,1,0,4,1,NaN,0,0,135,1,1,4,Școală Primară Solyomko,Nr. 16,Vărșag,46.5115,25.3717
60,21,HARGHITA,MUNICIPIUL TOPLIŢA,234,10,63,21,74,3,8,31,188,NaN,85,24,82,7,15,41,Școala Gimnazială „Sf. Ilie” Zencani,Nr. 12,Zencani,46.9239,25.3398
285,21,HARGHITA,ZETEA,11,7,5,1,568,1,0,16,13,NaN,5,3,565,0,3,11,Grădinița cu Program Normal Alszeg Zetea,Nr. 1251/A,Zetea,46.3843,25.3616
286,21,HARGHITA,ZETEA,4,2,2,0,578,2,2,12,5,NaN,3,6,574,2,4,6,Primăria Zetea,Nr. 272,Zetea,46.3891,25.3659
287,21,HARGHITA,ZETEA,3,1,1,2,606,1,0,8,5,NaN,1,3,591,1,1,8,Școala Primară Tofălău Zetea,Nr. 378,Zetea,46.3944,25.374
289,21,HARGHITA,ZETEA,4,0,1,0,44,0,0,4,2,NaN,2,1,46,0,0,3,Cămin Cultural Șicasău,Nr. 39,Șicasău,46.5139,25.4639
90,21,HARGHITA,ATID,1,0,1,1,81,1,2,3,1,NaN,2,1,76,1,3,3,Căminul Cultural Siclod,Nr. 256,Șiclod,46.5161,25.0382
265,21,HARGHITA,ŞIMONEŞTI,4,2,10,2,325,1,2,7,6,NaN,9,2,332,1,2,5,Clădirea Primăriei Șimonești,Nr. 249,Șimonești,46.3371,25.1038
206,21,HARGHITA,PĂULENI-CIUC,2,3,1,0,225,1,1,3,2,NaN,2,0,222,2,1,4,Școala Primară Șoimeni,Nr. 10,Șoimeni,46.3943,25.8531
229,21,HARGHITA,SĂCEL,14,0,2,2,96,1,3,7,12,NaN,1,2,94,1,4,12,Cămin Cultural Șoimușu Mare,Nr. 51,Șoimușu Mare,46.3459,24.9271
228,21,HARGHITA,SĂCEL,9,0,2,1,124,2,1,7,11,NaN,2,2,128,2,1,5,Cămin Cultural Șoimușu Mic,Nr. 22,Șoimușu Mic,46.3355,24.9601