id,nr_circumscriptie,circumscriptie,localitate,psd_cdep,usr_cdep,pnl_cdep,pmp_cdep,udmr_cdep,alde_cdep,pru_cdep,altele_cdep,psd_senat,usr_senat,pnl_senat,pmp_senat,udmr_senat,alde_senat,pru_senat,altele_senat,name,address,city,lat,lng
223,26,MARAMUREȘ,ARDUSAT,249,16,45,21,0,11,8,18,256,17,39,22,0,11,12,18,Școala cu Clasele I-VIII,Nr. 335,Ardusat,47.6483,23.3675
205,26,MARAMUREȘ,ORAŞ ULMENI,9,1,7,28,340,5,2,7,6,0,7,58,318,5,3,6,Școala Gimnazială „Kos Karoly”,Nr. 143,Arduzel,47.4476,23.2651
224,26,MARAMUREȘ,ARDUSAT,30,3,18,8,1,2,7,12,27,4,17,9,1,2,9,14,Școala cu Clasele I-IV,Nr. 78,Arieșu de Câmp,47.6397,23.3973
387,26,MARAMUREȘ,SATULUNG,126,3,9,5,1,4,9,12,131,3,8,4,1,4,8,8,Căminul Cultural,Nr. 52,Arieșu de Pădure,47.5829,23.4714
226,26,MARAMUREȘ,ARINIŞ,229,6,40,40,38,12,7,25,228,5,26,50,37,13,16,32,Căminul Cultural,Nr. 234,Ariniș,47.4996,23.2296
431,26,MARAMUREȘ,VIMA MICĂ,12,0,3,4,0,1,0,1,15,0,1,4,0,1,0,1,Școala Primară,Nr. 25,Aspra,47.4486,23.6375
229,26,MARAMUREȘ,ASUAJU DE SUS,81,1,35,11,1,3,3,7,82,0,37,12,1,2,4,7,Căminul Cultural,Nr. 160,Asuaju de Jos,47.5405,23.2219
228,26,MARAMUREȘ,ASUAJU DE SUS,246,9,60,25,1,10,8,13,254,12,41,26,3,13,10,14,Primăria,Nr. 283,Asuaju de Sus,47.5666,23.1796
293,26,MARAMUREȘ,COROIENI,37,7,116,4,2,7,0,4,35,6,114,3,2,7,2,8,Școala cu Clasele I-IV,Nr. 117,Baba,47.3404,23.7439
1,26,MARAMUREȘ,MUNICIPIUL BAIA MARE,164,97,127,43,20,26,24,74,199,98,99,42,23,26,37,63,Școala Gimnazială nr. 7,Str. Valea Borcutului nr. 117,Baia Mare,47.6802,23.5108
2,26,MARAMUREȘ,MUNICIPIUL BAIA MARE,187,173,178,45,50,35,36,83,227,169,144,44,49,35,53,80,Școala Gimnazială „Dr. Victor Babeș”,Str. Victoriei nr. 132 A,Baia Mare,47.6586,23.5478
3,26,MARAMUREȘ,MUNICIPIUL BAIA MARE,183,114,99,33,55,43,26,71,208,105,80,36,60,43,42,65,Școala Gimnazială „Dr. Victor Babeș”,Str. Victoriei nr. 132 A,Baia Mare,47.6586,23.5478
4,26,MARAMUREȘ,MUNICIPIUL BAIA MARE,104,50,89,19,38,32,15,34,122,54,69,22,37,20,25,38,Colegiul Tehnic „Aurel Vlaicu”,Str. Victor Babeș (D) nr. 64,Baia Mare,47.6586,23.5451
5,26,MARAMUREȘ,MUNICIPIUL BAIA MARE,159,71,114,18,58,15,22,56,172,85,86,21,55,17,37,53,Colegiul Tehnic „Aurel Vlaicu”,Str. Victor Babeș (D) nr. 64,Baia Mare,47.6586,23.5451
6,26,MARAMUREȘ,MUNICIPIUL BAIA MARE,124,59,92,18,47,26,18,40,143,63,58,25,48,20,30,49,Centrul Universitar Nord - „Facultatea Tehnică”,Str. Victor Babeș (D) nr. 62/A,Baia Mare,47.6605,23.5446
7,26,MARAMUREȘ,MUNICIPIUL BAIA MARE,168,125,152,33,71,27,38,77,190,133,119,33,69,32,46,70,Școala Gimnazială „Nichita Stănescu”,Str. Iza nr. 2,Baia Mare,47.6592,23.5554
8,26,MARAMUREȘ,MUNICIPIUL BAIA MARE,175,86,115,31,60,24,36,81,195,91,76,36,64,33,46,80,Școala Gimnazială „Nichita Stănescu”,Str. Iza nr. 2,Baia Mare,47.6592,23.5554
9,26,MARAMUREȘ,MUNICIPIUL BAIA MARE,100,83,46,15,34,16,16,40,112,83,25,21,36,17,28,41,Școala Gimnazială „Avram Iancu”,Str. Victoriei nr. 84,Baia Mare,47.6598,23.5617
10,26,MARAMUREȘ,MUNICIPIUL BAIA MARE,118,83,71,31,46,17,20,59,143,86,48,28,51,18,33,50,Școala Gimnazială „Avram Iancu”,Str. Victoriei nr. 84,Baia Mare,47.6598,23.5617
11,26,MARAMUREȘ,MUNICIPIUL BAIA MARE,100,58,80,20,57,18,24,46,123,56,57,19,60,19,37,49,Școala Gimnazială „Avram Iancu”,Str. Victoriei nr. 84,Baia Mare,47.6598,23.5617
12,26,MARAMUREȘ,MUNICIPIUL BAIA MARE,145,100,91,26,60,36,20,62,176,103,57,32,64,38,31,50,Școala Gimnazială „Avram Iancu”,Str. Victoriei nr. 84,Baia Mare,47.6598,23.5617
13,26,MARAMUREȘ,MUNICIPIUL BAIA MARE,165,148,93,25,82,31,28,73,171,147,68,31,90,41,45,66,Centrul Universitar Nord - „Facultatea de Litere”,Str. Victoriei nr. 76,Baia Mare,47.6599,23.5653
14,26,MARAMUREȘ,MUNICIPIUL BAIA MARE,82,115,66,17,63,29,23,61,99,124,45,20,62,37,30,43,Centrul Universitar Nord - „Facultatea de Litere”,Str. Victoriei nr. 76,Baia Mare,47.6599,23.5653
15,26,MARAMUREȘ,MUNICIPIUL BAIA MARE,112,48,88,19,85,15,26,49,126,58,64,12,91,21,28,45,Școala Gimnazială „George Coșbuc”,Str. Dr. Gheorghe Bilascu (Str. Marx Karl) (D) nr. 19A,Baia Mare,47.6561,23.5651
16,26,MARAMUREȘ,MUNICIPIUL BAIA MARE,123,65,55,15,79,24,21,58,136,70,35,19,84,25,30,49,Școala Gimnazială „George Coșbuc”,Str. Dr. Gheorghe Bilascu (Str. Marx Karl) (D) nr. 19A,Baia Mare,47.6561,23.5651
17,26,MARAMUREȘ,MUNICIPIUL BAIA MARE,104,79,55,13,55,26,14,45,118,82,36,17,58,23,23,40,Școala Gimnazială „Nicolae Iorga”,Str. Dr. Gheorghe Bilascu (Str. Marx Karl) (D) nr. 1,Baia Mare,47.6562,23.56
18,26,MARAMUREȘ,MUNICIPIUL BAIA MARE,118,81,99,23,70,20,14,45,134,91,77,18,69,17,28,46,Școala Gimnazială „Nicolae Iorga”,Str. Gheorghe Bilașcu nr. 1,Baia Mare,47.6562,23.56
19,26,MARAMUREȘ,MUNICIPIUL BAIA MARE,182,121,101,38,38,34,38,95,229,122,73,35,36,30,57,83,Grădinița cu Program Normal nr. 20,Bulevardul București nr. 20,Baia Mare,47.6534,23.5596
20,26,MARAMUREȘ,MUNICIPIUL BAIA MARE,184,83,96,36,98,37,37,68,209,90,67,39,92,41,41,63,Liceul Teoretic „Emil Racoviță”,Bulevardul Republicii nr. 8,Baia Mare,47.653,23.5566
21,26,MARAMUREȘ,MUNICIPIUL BAIA MARE,182,86,154,25,41,24,25,49,208,82,121,26,45,24,36,51,Liceul Teoretic „Emil Racoviță”,Bulevardul Republicii nr. 8,Baia Mare,47.653,23.5566
22,26,MARAMUREȘ,MUNICIPIUL BAIA MARE,197,89,136,27,46,24,30,63,216,88,103,23,51,25,59,75,Școala Gimnazială „Alexandru Ioan Cuza”,Str. Cuza Vodă nr. 7,Baia Mare,47.6537,23.5526
23,26,MARAMUREȘ,MUNICIPIUL BAIA MARE,210,63,106,47,41,29,31,75,229,68,76,46,46,24,62,79,Școala Gimnazială „Alexandru Ioan Cuza”,Str. Cuza Vodă nr. 7,Baia Mare,47.6537,23.5526
24,26,MARAMUREȘ,MUNICIPIUL BAIA MARE,162,56,112,30,46,14,24,47,197,58,76,28,46,15,37,50,Grădinița cu Program Prelungit „Micul Prinț”,Str. Cuza Vodă nr. 8B,Baia Mare,47.653,23.5527
25,26,MARAMUREȘ,MUNICIPIUL BAIA MARE,139,70,136,35,58,33,43,76,174,74,98,48,58,25,44,67,Școala Gimnazială nr. 18,Aleea Filaturii nr. 2,Baia Mare,47.6523,23.5478
26,26,MARAMUREȘ,MUNICIPIUL BAIA MARE,123,37,101,21,30,21,33,56,156,33,70,17,35,24,43,55,Școala Gimnazială nr. 18,Aleea Filaturii nr. 2,Baia Mare,47.6523,23.5478
27,26,MARAMUREȘ,MUNICIPIUL BAIA MARE,107,21,78,15,10,15,14,29,118,20,57,16,10,19,20,31,"Registru Auto Român, Reprezentanța Maramureș",Str. Mărgeanului nr. 3A,Baia Mare,47.6455,23.5463
28,26,MARAMUREȘ,MUNICIPIUL BAIA MARE,138,70,128,26,26,32,24,56,166,66,106,30,28,31,31,52,Grădinița cu Program Prelungit nr. 28,Aleea Filaturii nr. 4,Baia Mare,47.6526,23.5461
29,26,MARAMUREȘ,MUNICIPIUL BAIA MARE,106,26,90,34,34,7,15,37,125,36,62,40,29,13,25,31,Grădinița cu Program Prelungit nr. 25,Str. Jupiter (D) nr. 4,Baia Mare,47.6492,23.553
30,26,MARAMUREȘ,MUNICIPIUL BAIA MARE,135,47,79,28,30,17,29,57,151,49,55,30,32,19,44,59,Grădinița cu Program Prelungit nr. 25,Str. Jupiter (D) nr. 4,Baia Mare,47.6492,23.553
31,26,MARAMUREȘ,MUNICIPIUL BAIA MARE,86,29,68,19,25,3,10,20,98,35,39,18,19,6,29,34,Școala Gimnazială „Ion Luca Caragiale”,Bulevardul Traian nr. 26A,Baia Mare,47.6495,23.5551
32,26,MARAMUREȘ,MUNICIPIUL BAIA MARE,124,3,94,25,51,24,43,131,148,68,66,27,52,27,53,69,Școala Gimnazială „Ion Luca Caragiale”,Bulevardul Traian nr. 26A,Baia Mare,47.6495,23.5551
33,26,MARAMUREȘ,MUNICIPIUL BAIA MARE,111,14,78,4,16,9,20,51,137,16,57,8,17,12,23,37,Școala Gimnazială „Ion Luca Caragiale”,Bulevardul Traian nr. 26A,Baia Mare,47.6495,23.5551
34,26,MARAMUREȘ,MUNICIPIUL BAIA MARE,166,66,124,30,32,23,27,59,188,68,79,34,34,26,52,67,Grădinița cu Program Prelungit nr. 34,Aleea Amurgului nr. 2,Baia Mare,47.6469,23.5568
35,26,MARAMUREȘ,MUNICIPIUL BAIA MARE,146,60,108,37,34,19,31,52,169,63,84,38,37,18,35,46,Grădinița cu Program Prelungit „Floare de Colț”,Str. Bucovinei nr. 7,Baia Mare,47.6466,23.5593
36,26,MARAMUREȘ,MUNICIPIUL BAIA MARE,135,49,105,26,6,12,22,45,141,54,76,30,6,15,40,58,Școala Gimnazială „Alexandru Ivasiuc”,Str. Bucovinei nr. 9,Baia Mare,47.6468,23.5599
37,26,MARAMUREȘ,MUNICIPIUL BAIA MARE,169,78,119,24,16,20,25,52,193,70,99,29,19,21,35,47,Școala Gimnazială „Alexandru Ivasiuc”,Str. Bucovinei nr. 9,Baia Mare,47.6468,23.5599
38,26,MARAMUREȘ,MUNICIPIUL BAIA MARE,175,73,112,31,17,24,21,60,192,72,83,39,17,20,42,67,Școala Gimnazială „Dimitrie Cantemir”,Str. Bogdan Vodă nr. 4,Baia Mare,47.6482,23.5595
39,26,MARAMUREȘ,MUNICIPIUL BAIA MARE,144,48,119,29,20,17,36,60,159,52,88,29,19,17,54,68,Școala Gimnazială „Dimitrie Cantemir”,Str. Bogdan Vodă nr. 4,Baia Mare,47.6482,23.5595
40,26,MARAMUREȘ,MUNICIPIUL BAIA MARE,159,71,106,13,26,16,25,48,173,63,82,20,26,26,42,52,Școala Gimnazială „Dimitrie Cantemir”,Str. Bogdan Vodă nr. 4,Baia Mare,47.6482,23.5595
41,26,MARAMUREȘ,MUNICIPIUL BAIA MARE,161,133,103,22,59,30,26,68,186,132,85,29,59,33,34,50,Ansamblul Folcloric Național „Transilvania”,Bulevardul Traian (D) nr. 8,Baia Mare,47.6504,23.5669
42,26,MARAMUREȘ,MUNICIPIUL BAIA MARE,156,133,112,29,36,37,31,62,183,130,82,34,37,34,49,65,Liceul cu Program Sportiv,Bulevardul Republicii nr. 33,Baia Mare,47.6465,23.5654
43,26,MARAMUREȘ,MUNICIPIUL BAIA MARE,118,41,95,24,38,30,16,44,136,46,72,23,39,31,26,46,Liceul cu Program Sportiv,Bulevardul Republicii nr. 33,Baia Mare,47.6465,23.5654
44,26,MARAMUREȘ,MUNICIPIUL BAIA MARE,69,56,73,16,17,12,16,36,83,51,60,17,19,10,29,38,Liceul cu Program Sportiv,Bulevardul Republicii nr. 33,Baia Mare,47.6465,23.5654
45,26,MARAMUREȘ,MUNICIPIUL BAIA MARE,179,85,122,34,20,25,24,56,194,91,81,34,23,29,44,63,Centrul Social „Assoc”,Bulevardul Unirii nr. 28,Baia Mare,47.6465,23.5696
46,26,MARAMUREȘ,MUNICIPIUL BAIA MARE,156,105,124,38,38,43,26,72,190,110,88,36,40,29,55,82,Administrația Bazelor Sportive,Bulevardul Unirii nr. 14A,Baia Mare,47.6492,23.5701
47,26,MARAMUREȘ,MUNICIPIUL BAIA MARE,126,97,103,38,47,17,27,67,150,108,77,39,50,15,38,54,Sala Sporturilor „Lascăr Pană”,Bulevardul Unirii nr. 14A,Baia Mare,47.6492,23.5701
48,26,MARAMUREȘ,MUNICIPIUL BAIA MARE,166,111,108,37,50,28,24,69,197,116,72,35,56,30,39,66,Sala Sporturilor „Lascăr Pană”,Bulevardul Unirii nr. 14A,Baia Mare,47.6492,23.5701
49,26,MARAMUREȘ,MUNICIPIUL BAIA MARE,135,133,83,46,106,26,20,54,164,133,54,45,117,26,24,41,Biblioteca Județeană „Petre Dulfu”,Bulevardul Independenței nr. 4B,Baia Mare,47.6591,23.569
50,26,MARAMUREȘ,MUNICIPIUL BAIA MARE,92,107,99,28,65,27,16,71,110,120,65,30,69,21,30,57,Liceul de Arte,Str. Petőfi Sándor nr. 2-4,Baia Mare,47.6645,23.5756
51,26,MARAMUREȘ,MUNICIPIUL BAIA MARE,85,104,92,14,68,20,18,53,98,103,79,16,66,24,27,48,Liceul de Arte,Str. Petőfi Sándor nr. 2-4,Baia Mare,47.6645,23.5756
52,26,MARAMUREȘ,MUNICIPIUL BAIA MARE,101,92,84,24,100,28,19,65,118,99,60,24,102,24,31,69,Liceul Teoretic Sanitar,Str. Minerilor nr. 3,Baia Mare,47.6623,23.58
53,26,MARAMUREȘ,MUNICIPIUL BAIA MARE,107,110,114,33,83,24,22,50,130,108,79,37,89,22,41,53,Grădinița cu Program Normal nr. 12,Str. Industriei nr. 1,Baia Mare,47.6632,23.5884
54,26,MARAMUREȘ,MUNICIPIUL BAIA MARE,121,29,100,21,46,8,17,37,132,32,76,27,47,12,23,35,Școala Gimnazială „Nicolae Bălcescu”,Str. Arenei nr. 1,Baia Mare,47.6772,23.6231
55,26,MARAMUREȘ,MUNICIPIUL BAIA MARE,147,26,98,17,29,7,12,35,156,30,78,19,29,9,23,31,Școala Gimnazială „Nicolae Bălcescu”,Str. Arenei nr. 1,Baia Mare,47.6772,23.6231
56,26,MARAMUREȘ,MUNICIPIUL BAIA MARE,92,18,77,12,5,9,20,34,105,24,56,10,4,14,29,34,Școala Gimnazială „Mihail Sadoveanu”,Str. Lunci (Str. Luncii) nr. 22,Baia Mare,47.7043,23.6277
57,26,MARAMUREȘ,MUNICIPIUL BAIA MARE,109,13,102,20,6,11,15,27,129,15,74,21,4,15,25,30,Școala Gimnazială „Mihail Sadoveanu”,Str. Lunci (Str. Luncii) nr. 22,Baia Mare,47.7043,23.6277
58,26,MARAMUREȘ,MUNICIPIUL BAIA MARE,142,17,158,16,2,17,11,34,200,14,104,14,3,13,30,34,Școala Gimnazială nr. 13,Str. Firiza nr. 72,Baia Mare,47.7517,23.6048
59,26,MARAMUREȘ,MUNICIPIUL BAIA MARE,99,63,116,12,112,15,8,30,120,67,88,14,122,15,16,21,Școala Gimnazială „Octavian Goga”,Str. Vasile Lucaciu (Str. Baia Sprie) nr. 56,Baia Mare,47.6611,23.5886
60,26,MARAMUREȘ,MUNICIPIUL BAIA MARE,71,71,86,25,153,18,27,48,94,76,59,26,154,14,36,48,Școala Gimnazială „Octavian Goga”,Str. Vasile Lucaciu (Str. Baia Sprie) nr. 56,Baia Mare,47.6611,23.5886
61,26,MARAMUREȘ,MUNICIPIUL BAIA MARE,161,122,126,39,119,40,28,90,206,137,84,36,122,40,43,68,Colegiul Național „Gheorghe Șincai”,Str. Gheorghe Șincai (Str. 17 Octombrie) nr. 25,Baia Mare,47.658,23.5778
62,26,MARAMUREȘ,MUNICIPIUL BAIA MARE,141,95,84,34,95,24,21,58,151,96,64,36,95,30,36,58,Colegiul Național „Vasile Lucaciu”,Str. Culturii (Str. Depozitelor) nr. 2,Baia Mare,47.6579,23.5703
63,26,MARAMUREȘ,MUNICIPIUL BAIA MARE,186,152,97,26,74,40,28,76,214,164,74,33,76,37,36,53,Colegiul Tehnic „George Barițiu”,Str. Culturii (Str. Depozitelor) nr. 8,Baia Mare,47.6555,23.571
64,26,MARAMUREȘ,MUNICIPIUL BAIA MARE,119,74,79,18,49,19,29,57,137,79,52,19,52,23,36,52,Școala Gimnazială „Lucian Blaga”,Str. Progresului nr. 38,Baia Mare,47.6534,23.5742
65,26,MARAMUREȘ,MUNICIPIUL BAIA MARE,116,77,79,22,50,36,20,41,145,81,42,31,52,29,25,38,Școala Gimnazială „Lucian Blaga”,Str. Progresului nr. 38,Baia Mare,47.6534,23.5742
66,26,MARAMUREȘ,MUNICIPIUL BAIA MARE,170,111,103,35,111,40,29,59,192,110,87,46,111,35,36,51,Școala Gimnazială „Lucian Blaga”,Str. Vasile Alecsandri nr. 56,Baia Mare,47.6504,23.5789
67,26,MARAMUREȘ,MUNICIPIUL BAIA MARE,121,71,84,31,32,13,23,49,146,75,59,30,29,14,43,50,Școala Gimnazială „Lucian Blaga”,Str. Vasile Alecsandri nr. 56,Baia Mare,47.6504,23.5789
68,26,MARAMUREȘ,MUNICIPIUL BAIA MARE,164,193,128,28,88,55,24,72,206,192,87,39,87,46,44,67,Colegiul Tehnic „Anghel Saligny”,Str. Progresului nr. 43,Baia Mare,47.6519,23.5724
69,26,MARAMUREȘ,MUNICIPIUL BAIA MARE,97,22,84,15,12,7,10,29,103,19,67,21,16,8,20,34,Școala Drumuri și Poduri Maramureș Sa,Str. Vasile Alecsandri nr. 99,Baia Mare,47.6437,23.5727
70,26,MARAMUREȘ,MUNICIPIUL BAIA MARE,63,28,89,14,8,8,18,39,74,26,68,11,8,13,31,48,Centrul „Phoenix”,Str. Grănicerilor nr. 118,Baia Mare,47.6395,23.5725
71,26,MARAMUREȘ,MUNICIPIUL BAIA MARE,97,48,128,16,24,15,22,44,129,60,69,19,25,13,38,54,Școala Gimnazială „Vasile Alecsandri”,Str. Pășunii nr. 2A,Baia Mare,47.644,23.5765
72,26,MARAMUREȘ,MUNICIPIUL BAIA MARE,100,60,116,31,11,8,22,45,111,57,81,22,12,18,42,68,Școala Gimnazială „Vasile Alecsandri”,Str. Pășunii nr. 2A,Baia Mare,47.644,23.5765
73,26,MARAMUREȘ,MUNICIPIUL BAIA MARE,82,35,126,27,10,6,21,41,105,34,82,33,12,8,37,51,Școala Gimnazială „Vasile Alecsandri”,Str. Pășunii nr. 2A,Baia Mare,47.644,23.5765
74,26,MARAMUREȘ,MUNICIPIUL BAIA MARE,84,55,147,36,19,18,19,36,114,61,91,31,20,17,38,58,Școala Gimnazială „Vasile Alecsandri”,Str. Pășunii nr. 2A,Baia Mare,47.644,23.5765
75,26,MARAMUREȘ,MUNICIPIUL BAIA MARE,95,30,76,12,19,13,25,46,106,32,56,14,19,18,38,49,Școala Gimnazială „Vasile Alecsandri”,Str. Pășunii nr. 2A,Baia Mare,47.644,23.5765
76,26,MARAMUREȘ,MUNICIPIUL BAIA MARE,143,103,145,38,31,17,27,68,173,105,106,40,30,20,44,70,Grădinița cu Program Prelungit „Otilia Cazimir”,Str. Banatului nr. 3,Baia Mare,47.6436,23.5771
77,26,MARAMUREȘ,MUNICIPIUL BAIA MARE,83,14,90,12,12,13,14,36,93,14,74,15,15,11,24,35,Grădinița cu Program Prelungit „Otilia Cazimir”,Str. Banatului nr. 3,Baia Mare,47.6436,23.5771
78,26,MARAMUREȘ,MUNICIPIUL BAIA MARE,71,33,98,28,23,11,15,23,72,32,79,28,26,12,28,34,Centrul „Sfântul Francisc de Assisi”,Str. Macului (Str. Zmeurei) nr. 10,Baia Mare,47.6418,23.5803
79,26,MARAMUREȘ,MUNICIPIUL BAIA MARE,105,77,145,28,25,17,23,56,125,83,89,29,25,18,60,82,Grădinița cu Program Prelungit nr. 27,Str. Vasile Alecsandri nr. 58,Baia Mare,47.6498,23.5785
80,26,MARAMUREȘ,MUNICIPIUL BAIA MARE,103,39,118,23,13,14,20,33,109,44,83,29,16,16,42,48,Școala Gimnazială „Simion Bărnuțiu”,Str. Mihai Eminescu (D) nr. 80A,Baia Mare,47.6482,23.5888
81,26,MARAMUREȘ,MUNICIPIUL BAIA MARE,162,97,163,30,31,27,32,66,195,90,116,40,31,20,65,81,Școala Gimnazială „Simion Bărnuțiu”,Str. Mihai Eminescu (D) nr. 80A,Baia Mare,47.6482,23.5888
82,26,MARAMUREȘ,MUNICIPIUL BAIA MARE,98,82,143,37,31,11,25,47,121,85,97,42,34,15,49,61,Centrul „Salvați Familia”,Bulevardul Republicii nr. 70A,Baia Mare,47.6467,23.5815
83,26,MARAMUREȘ,MUNICIPIUL BAIA MARE,92,12,64,8,27,8,9,44,103,13,60,14,25,12,12,32,Centrul Comunitar Romanii,Str. Electrolizei (Str. Decebal) nr. 8A,Baia Mare,47.657,23.597
84,26,MARAMUREȘ,MUNICIPIUL BAIA MARE,98,18,93,12,18,10,15,36,100,21,73,12,26,8,32,44,Colegiul Tehnic „Costin D. Nenițescu”,Str. Luminișului nr. 1,Baia Mare,47.655,23.5907
85,26,MARAMUREȘ,MUNICIPIUL BAIA MARE,68,46,77,29,88,18,13,36,87,38,64,29,89,18,22,36,Colegiul Tehnic „Costin D. Nenițescu”,Str. Luminișului nr. 1,Baia Mare,47.655,23.5907
117,26,MARAMUREȘ,ORAŞ BAIA SPRIE,74,26,36,19,117,17,11,26,75,29,33,22,116,18,13,22,Colegiul Tehnic de Transporturi Auto,Str. Săsar nr. 2,Baia Sprie,47.6608,23.6989
118,26,MARAMUREȘ,ORAŞ BAIA SPRIE,77,38,66,16,124,10,11,23,83,42,58,15,125,10,17,22,Colegiul Tehnic de Transporturi Auto,Str. Săsar nr. 2,Baia Sprie,47.6608,23.6989
119,26,MARAMUREȘ,ORAŞ BAIA SPRIE,68,18,56,18,39,9,10,16,74,14,45,17,39,8,22,26,Colegiul Tehnic de Transporturi Auto,Aleea Minerilor nr. 1,Baia Sprie,47.6608,23.6989
120,26,MARAMUREȘ,ORAŞ BAIA SPRIE,97,36,81,28,50,16,12,24,108,34,65,27,52,13,26,33,Colegiul Tehnic de Transporturi Auto,Aleea Minerilor nr. 1,Baia Sprie,47.6608,23.6989
121,26,MARAMUREȘ,ORAŞ BAIA SPRIE,142,21,54,12,29,17,17,25,152,16,46,15,29,13,22,27,Școala Gimnazială,Cartierul Microraion Vest nr. 21 A,Baia Sprie,47.6631,23.6874
122,26,MARAMUREȘ,ORAŞ BAIA SPRIE,138,46,84,23,65,13,17,37,142,45,78,24,64,15,26,37,Școala Gimnazială,Cartierul Microraion Vest nr. 21 A,Baia Sprie,47.6631,23.6874
125,26,MARAMUREȘ,ORAŞ BAIA SPRIE,49,22,52,24,5,10,18,37,63,24,46,24,6,6,21,30,Sala de Sport,Str. Ignisului nr. 1,Baia Sprie,47.6608,23.6793
126,26,MARAMUREȘ,ORAŞ BAIA SPRIE,117,24,61,18,42,8,19,33,125,33,45,23,39,12,24,27,Sala de Sport,Str. Ignisului nr. 1,Baia Sprie,47.6608,23.6793
316,26,MARAMUREȘ,GIULEŞTI,44,8,27,4,1,583,29,42,46,4,32,2,0,583,38,43,Căminul Cultural,Nr. 273,Berbești,47.8477,23.9326
363,26,MARAMUREȘ,REMETEA CHIOARULUI,22,3,16,23,69,4,4,9,23,5,15,23,67,2,5,8,Căminul Cultural,Nr. 125,Berchez,47.5185,23.504
364,26,MARAMUREȘ,REMETEA CHIOARULUI,23,0,20,25,1,2,2,7,24,1,16,26,1,2,8,9,Căminul Cultural,Nr. 53,Berchezoaia,47.4977,23.5386
280,26,MARAMUREȘ,COPALNIC-MĂNĂŞTUR,92,4,43,11,2,8,4,10,99,2,43,11,3,5,5,10,Căminul Cultural,Nr. 171,Berința,47.5408,23.6755
243,26,MARAMUREȘ,BICAZ,128,2,52,6,2,3,5,8,137,2,40,6,2,4,5,9,Căminul Cultural,Nr. 93,Bicaz,47.461,23.0291
246,26,MARAMUREȘ,BISTRA,66,4,123,4,1,9,3,144,113,4,212,3,2,15,5,10,Primăria Bistra,Nr. 314,Bistra,47.8641,24.1912
253,26,MARAMUREȘ,BOGDAN VODĂ,78,2,14,12,1,60,1,6,81,5,14,14,1,54,2,3,Școala Generală,Nr. 272,Bocicoel,47.6984,24.3207
251,26,MARAMUREȘ,BOCICOIU MARE,44,7,15,16,15,2,6,27,53,9,17,20,17,3,8,10,Grădinița de Copii,Nr. 57,Bocicoiu Mare,47.9632,24.0103
254,26,MARAMUREȘ,BOGDAN VODĂ,183,25,77,41,1,295,13,30,191,26,72,38,2,307,15,20,Clubul din Incinta Primăriei,Nr. 363,Bogdan Vodă,47.6898,24.2696
189,26,MARAMUREȘ,ORAŞ TÎRGU LĂPUŞ,22,8,19,1,1,1,4,9,23,8,16,1,1,2,7,11,Școala Generală,Nr. 159,Boiereni,47.3907,23.9274
255,26,MARAMUREȘ,BOIU MARE,145,2,25,14,2,3,11,17,154,3,20,14,2,2,13,13,Primăria,Nr. 204,Boiu Mare,47.3963,23.5829
412,26,MARAMUREȘ,ŞISEŞTI,17,4,14,3,1,3,2,4,20,4,13,3,1,1,3,4,Școala cu Clasele I-IV,Nr. 44,Bontăieni,47.6126,23.7148
190,26,MARAMUREȘ,ORAŞ TÎRGU LĂPUŞ,40,2,57,10,1,9,6,13,39,3,53,13,1,9,6,10,Școala Generală,Nr. 117,Borcut,47.4813,23.8393
129,26,MARAMUREȘ,ORAŞ BORŞA,151,4,34,68,0,8,14,23,157,3,27,72,0,7,23,26,Școala nr. 1,Str. Dragoș Vodă nr. 90,Borșa,47.6565,24.6231
130,26,MARAMUREȘ,ORAŞ BORŞA,157,5,22,95,1,5,15,31,147,6,35,79,1,9,31,37,Școala nr. 1,Str. Dragoș Vodă nr. 90,Borșa,47.6565,24.6231
131,26,MARAMUREȘ,ORAŞ BORŞA,146,2,30,70,1,6,18,25,154,3,32,57,1,3,30,30,Școala nr. 8,Str. Libertății nr. 76,Borșa,47.6572,24.6526
132,26,MARAMUREȘ,ORAŞ BORŞA,145,14,47,72,2,15,29,40,147,15,45,67,2,14,39,49,Școala nr. 8,Str. Libertății nr. 76,Borșa,47.6572,24.6526
133,26,MARAMUREȘ,ORAŞ BORŞA,171,12,36,58,4,9,42,58,171,15,43,51,3,11,48,53,Școala nr. 9,Str. Decebal nr. 8,Borșa,47.655,24.6615
134,26,MARAMUREȘ,ORAŞ BORŞA,94,6,30,64,3,7,29,39,92,9,32,50,5,7,39,43,Școala nr. 9,Str. Decebal nr. 8,Borșa,47.655,24.6615
135,26,MARAMUREȘ,ORAŞ BORŞA,142,18,26,70,1,9,16,31,146,25,21,55,3,10,25,34,Școala nr. 9 Corp B,Str. Tineretului nr. 8,Borșa,47.655,24.6615
136,26,MARAMUREȘ,ORAŞ BORŞA,111,10,28,76,3,10,44,51,108,13,35,56,3,11,50,53,Școala nr. 9 Corp B,Str. Tineretului nr. 8,Borșa,47.655,24.6615
137,26,MARAMUREȘ,ORAŞ BORŞA,120,9,37,62,4,5,41,45,128,10,33,54,7,5,45,47,Școala nr. 9 Corp B,Str. Tineretului nr. 8,Borșa,47.655,24.6615
138,26,MARAMUREȘ,ORAŞ BORŞA,128,9,17,74,0,2,11,20,125,7,22,71,0,2,18,23,Școala Gîrlea,Str. Gîrlei nr. 31,Borșa,47.6376,24.6721
139,26,MARAMUREȘ,ORAŞ BORŞA,107,1,20,34,1,4,5,14,106,3,17,40,1,5,8,11,Școala Repedea,Str. Repezii nr. 98,Borșa,47.636,24.706
140,26,MARAMUREȘ,ORAŞ BORŞA,113,2,36,42,1,4,7,14,110,2,42,30,1,4,23,24,Școala Repedea,Str. Repezii nr. 98,Borșa,47.636,24.706
141,26,MARAMUREȘ,ORAŞ BORŞA,127,6,41,25,1,13,7,10,126,6,35,20,3,14,16,18,Școala Poiana,Str. Alexandru Ioan Cuza nr. 73,Borșa,47.6436,24.7189
142,26,MARAMUREȘ,ORAŞ BORŞA,117,5,52,16,4,6,4,7,105,8,52,15,5,8,15,18,Școala Poiana,Str. Alexandru Ioan Cuza nr. 73,Borșa,47.6436,24.7189
143,26,MARAMUREȘ,ORAŞ BORŞA,195,10,54,31,4,4,14,18,195,10,57,22,4,6,26,29,Școala Birț,Str. Alexandru Ioan Cuza nr. 249,Borșa,47.633,24.7419
144,26,MARAMUREȘ,ORAŞ BORŞA,101,3,41,32,1,4,10,18,95,3,43,29,2,4,17,21,Școala Fîntîna,Str. Preluca Tătarilor nr. 1,Borșa,47.6183,24.7776
145,26,MARAMUREȘ,ORAŞ BORŞA,134,5,29,27,1,5,11,20,128,3,33,28,1,8,22,24,Școala Rotundu,Str. Unirii nr. 11,Borșa,47.6725,24.6867
146,26,MARAMUREȘ,ORAŞ BORŞA,155,8,40,42,1,7,21,29,143,7,48,36,2,13,29,34,Școala Rotundu,Str. Unirii nr. 11,Borșa,47.6725,24.6867
148,26,MARAMUREȘ,ORAŞ BORŞA,194,3,21,52,19,12,29,40,202,4,19,40,20,9,37,44,Școala nr. 7,Nr. 20,Borșa,47.6886,24.7245
259,26,MARAMUREȘ,BOTIZA,560,11,76,46,2,7,30,42,569,15,69,41,2,6,33,41,Sediul Primăriei Botiza,Nr. 416,Botiza,47.6666,24.1495
260,26,MARAMUREȘ,BOTIZA,103,0,16,12,4,3,5,9,102,0,16,12,4,3,7,9,Școala Primară Valea Sasului,Nr. 161,Botiza,47.669,24.1494
175,26,MARAMUREȘ,ORAŞ TĂUŢII-MĂGHERĂUŞ,106,0,44,11,1,8,2,15,117,5,33,10,1,8,6,12,Școala Generală,Str. 129 nr. 11,Bozânta Mare,47.6394,23.4404
359,26,MARAMUREȘ,RECEA,105,2,33,2,2,3,1,5,99,5,33,3,2,5,1,3,Școala cu Clasele I-IV,Nr. 19,Bozânta Mică,47.6358,23.4216
343,26,MARAMUREȘ,OCNA ŞUGATAG,41,6,65,12,1,4,8,15,43,7,56,15,1,6,13,18,Căminul Cultural,Nr. 20,Breb,47.7465,23.9032
269,26,MARAMUREȘ,CERNEŞTI,34,0,22,13,1,2,1,4,38,0,17,12,1,2,3,5,Școala Primară Brebeni,Nr. 28,Brebeni,47.5021,23.7766
167,26,MARAMUREȘ,ORAŞ ŞOMCUTA MARE,135,11,22,24,1,5,8,18,137,12,21,24,1,5,9,15,Școala Generală,Nr. 61,Buciumi,47.4698,23.4871
262,26,MARAMUREȘ,BUDEŞTI,202,11,96,88,1,5,9,22,207,12,103,90,1,6,7,13,Sediul Primăriei,Nr. 816,Budești,47.7314,23.9452
263,26,MARAMUREȘ,BUDEŞTI,121,2,90,11,1,6,3,11,117,1,94,8,1,10,2,7,Sediul Grădiniței,Nr. 543,Budești,47.7317,23.9449
168,26,MARAMUREȘ,ORAŞ ŞOMCUTA MARE,71,0,23,9,1,7,2,3,76,0,22,10,1,5,1,2,Școala Generală,Nr. 13,Buteasa,47.4501,23.5447
311,26,MARAMUREȘ,FĂRCAŞA,67,7,29,19,1,4,3,12,70,6,29,20,1,2,5,9,Clădire Administrativă (fosta Școală),Str. Școlii nr. 9,Buzești,47.6084,23.352
182,26,MARAMUREȘ,ORAŞ TĂUŢII-MĂGHERĂUŞ,93,25,47,10,2,7,4,14,100,25,35,12,2,10,10,17,Căminul Cultural,Str. 114 nr. 76,Bușag,47.6589,23.4262
239,26,MARAMUREȘ,BÂRSANA,230,19,109,18,3,6,27,45,241,17,115,15,6,5,25,34,Școala Gimnazială „Mircea Vulcanescu”,Nr. 702,Bârsana,47.8171,24.0535
240,26,MARAMUREȘ,BÂRSANA,241,9,46,13,1,7,12,27,252,10,45,11,4,10,10,15,Școala Gimnazială „Mircea Vulcănescu”,Nr. 702,Bârsana,47.8171,24.0535
241,26,MARAMUREȘ,BÂRSANA,124,0,14,3,1,4,1,4,126,0,17,2,1,1,0,2,Școala „Valea Muntelui”,Nr. 1164,Bârsana,47.826,24.0931
147,26,MARAMUREȘ,ORAŞ BORŞA,127,9,36,44,25,10,21,28,131,9,38,35,24,9,34,36,Școala nr. 7,Nr. 20,Băile Borșa,47.6886,24.7245
233,26,MARAMUREȘ,BĂIUŢ,145,8,39,10,81,22,8,17,141,8,33,8,86,25,12,14,Școala de Arte și Meserii,Nr. 56,Băiuț,47.6142,23.9962
174,26,MARAMUREȘ,ORAŞ TĂUŢII-MĂGHERĂUŞ,110,21,46,7,132,9,7,28,140,21,30,6,125,6,10,23,Școala Generală,Str. 89 nr. 11,Băița,47.7058,23.4915
180,26,MARAMUREȘ,ORAŞ TĂUŢII-MĂGHERĂUŞ,60,6,31,2,2,4,5,10,73,5,21,2,3,3,7,9,Cantonul Silvic,Str. 73 nr. 244,Băița,47.7154,23.5024
181,26,MARAMUREȘ,ORAŞ TĂUŢII-MĂGHERĂUŞ,99,14,36,13,13,6,9,21,123,8,21,11,12,5,11,23,Grădinița Roști,Str. 80 nr. 4,Băița,47.6944,23.4881
230,26,MARAMUREȘ,BĂIŢA DE SUB CODRU,401,10,93,32,1,24,18,33,407,10,82,47,1,24,17,31,Școala Gimnazială,Nr. 18,Băița de sub Codru,47.5241,23.1531
235,26,MARAMUREȘ,BĂSEŞTI,60,1,13,59,0,10,5,11,53,1,13,70,0,9,5,8,Primăria,Nr. 133,Băsești,47.4826,23.1452
149,26,MARAMUREȘ,ORAŞ CAVNIC,270,6,83,27,17,33,17,27,272,6,77,29,16,31,22,29,Colegiul Economic „Pintea Viteazul”,Str. 1 Mai nr. 15,Cavnic,47.6487,23.8205
150,26,MARAMUREȘ,ORAŞ CAVNIC,331,22,74,12,13,25,23,37,347,21,59,11,16,22,34,41,Școala Generală nr. 2,Str. Independenței nr. 2,Cavnic,47.6505,23.8247
151,26,MARAMUREȘ,ORAŞ CAVNIC,66,6,19,4,43,4,2,8,69,4,19,3,42,4,3,8,Școala Generală nr. 1,Str. Eliberării nr. 55,Cavnic,47.6641,23.8598
267,26,MARAMUREȘ,CERNEŞTI,115,7,62,30,1,8,10,13,120,6,59,21,3,8,17,20,Centrul Cultural Cernești,Nr. 154,Cernești,47.5091,23.7411
415,26,MARAMUREȘ,ŞISEŞTI,45,11,70,9,1,6,11,18,48,11,64,9,2,11,13,17,Școala Generală,Nr. 165,Cetățele,47.5981,23.7379
305,26,MARAMUREȘ,DUMBRĂVIŢA,130,5,56,28,1,3,10,24,144,9,37,24,2,6,18,25,Școala Generală,Nr. 155,Chechiș,47.5843,23.6015
203,26,MARAMUREȘ,ORAŞ ULMENI,57,12,29,562,2,8,13,23,60,10,27,567,1,9,12,22,Școala Gimnazială,Nr. 196,Chelința,47.45,23.3163
123,26,MARAMUREȘ,ORAŞ BAIA SPRIE,66,8,42,15,1,13,14,29,78,9,34,17,1,11,17,22,Școala Gimnazială,Nr. 36,Chiuzbaia,47.7002,23.6793
273,26,MARAMUREȘ,CICÎRLĂU,226,28,161,64,3,24,15,31,244,35,142,56,5,21,25,35,Cămin Cultural,Nr. 742,Cicârlău,47.6918,23.4007
272,26,MARAMUREȘ,CERNEŞTI,111,7,147,4,0,8,11,15,107,7,150,3,0,10,10,12,Grădinița Ciocotiș,Nr. 377/A,Ciocotiș,47.5564,23.7942
172,26,MARAMUREȘ,ORAŞ ŞOMCUTA MARE,141,2,28,9,2,10,7,12,151,2,18,9,2,8,10,14,Căminul Cultural,Nr. 99,Ciolt,47.484,23.5091
244,26,MARAMUREȘ,BICAZ,53,1,7,3,0,9,2,4,56,0,5,4,0,8,2,3,Școala cu Clasele I-IV,Nr. 78,Ciuta,47.4461,22.9898
277,26,MARAMUREȘ,COAŞ,94,7,195,26,4,5,14,24,95,10,181,31,4,5,14,22,Școala Gimnazială „Ion Popescu de Coaș”,Nr. 259,Coaș,47.5393,23.5848
169,26,MARAMUREȘ,ORAŞ ŞOMCUTA MARE,108,0,5,6,1,1,1,3,110,1,4,7,0,1,1,1,Școala Generală,Nr. 23,Codru Butesii,47.4678,23.599
279,26,MARAMUREȘ,COLTĂU,43,8,19,244,480,9,6,24,57,9,19,257,470,8,9,13,Căminul Cultural Coltău,Nr. 68,Coltău,47.5979,23.5226
225,26,MARAMUREȘ,ARDUSAT,66,0,20,10,1,8,2,7,68,2,16,11,1,8,2,7,Școala cu Clasele I-IV,Nr. 39,Colțirea,47.609,23.4046
289,26,MARAMUREȘ,COPALNIC-MĂNĂŞTUR,43,9,30,8,0,6,6,13,44,10,33,12,0,6,2,5,Căminul Cultural,Nr. 35,Copalnic,47.52,23.6512
281,26,MARAMUREȘ,COPALNIC-MĂNĂŞTUR,4,1,5,2,0,3,1,2,5,2,4,1,0,2,1,3,Căminul Cultural,Nr. 49,Copalnic-Deal,47.5122,23.6478
291,26,MARAMUREȘ,COPALNIC-MĂNĂŞTUR,62,21,109,12,1,7,11,25,65,18,104,13,0,16,15,21,Căminul Cultural,Nr. 225,Copalnic-Mănăștur,47.5095,23.6783
264,26,MARAMUREȘ,CĂLINEŞTI,27,0,36,3,3,2,1,3,21,1,39,3,3,1,6,7,Școala Generală,Nr. 21,Cornești,47.8166,23.9659
245,26,MARAMUREȘ,BICAZ,78,0,24,6,1,5,6,10,79,0,20,6,1,5,6,9,Căminul Cultural,Nr. 62,Corni,47.4781,23.0181
292,26,MARAMUREȘ,COROIENI,42,4,64,22,0,7,5,7,41,4,59,23,1,9,3,6,Primărie,Nr. 176,Coroieni,47.3725,23.7664
394,26,MARAMUREȘ,SĂCĂLĂŞENI,147,13,38,11,1,4,9,18,153,12,32,10,2,2,16,21,Căminul Cultural,Nr. 261,Coruia,47.5629,23.5939
298,26,MARAMUREȘ,CUPŞENI,35,0,44,7,1,4,3,4,33,0,45,8,1,2,5,5,Școala cu Clasele I-VIII,Nr. 31,Costeni,47.5368,23.9133
378,26,MARAMUREȘ,RONA DE SUS,50,0,12,5,47,1,1,22,54,2,14,1,53,3,5,12,Clubul Tineretului,Nr. 65,Coștiui,47.8794,24.0274
247,26,MARAMUREȘ,BISTRA,111,6,147,5,1,3,2,59,131,10,187,11,1,1,6,8,Școala Gimnazială,Nr. 57,Crasna Vișeului,47.8284,24.2296
252,26,MARAMUREȘ,BOCICOIU MARE,175,15,32,17,2,8,5,52,206,17,27,19,2,8,16,21,Grădinița de Copii,Nr. 17,Crăciunești,47.9558,23.9883
191,26,MARAMUREȘ,ORAŞ TÎRGU LĂPUŞ,17,2,35,9,1,1,3,6,18,2,34,10,1,1,4,6,Școala Generală,Nr. 15,Cufoaia,47.4791,23.8029
395,26,MARAMUREȘ,SĂCĂLĂŞENI,55,8,28,20,2,7,6,20,65,6,28,19,1,8,12,15,Căminul Cultural,Nr. 131 A,Culcea,47.5636,23.5523
297,26,MARAMUREȘ,CUPŞENI,152,5,28,5,1,3,6,14,157,5,31,4,1,4,4,6,Școala cu Clasele I-VIII,Nr. 255,Cupșeni,47.5414,23.9321
420,26,MARAMUREȘ,VALEA CHIOARULUI,113,2,23,4,2,5,5,9,115,1,21,3,2,6,6,9,Școala Generală,Nr. 40,Curtuiușu Mare,47.428,23.4439
287,26,MARAMUREȘ,COPALNIC-MĂNĂŞTUR,21,5,21,4,1,8,2,3,22,5,24,4,1,5,1,2,Școala,Nr. 35,Curtuiușu Mic,47.545,23.6287
276,26,MARAMUREȘ,CÎMPULUNG LA TISA,93,3,19,10,298,7,7,22,84,2,26,7,300,7,13,30,Primăria,Nr. 689,Câmpulung la Tisa,47.9866,23.7683
265,26,MARAMUREȘ,CĂLINEŞTI,87,10,89,128,3,11,3,25,80,11,90,132,3,12,12,27,Căminul Cultural,Nr. 179,Călinești,47.7848,23.9692
304,26,MARAMUREȘ,DUMBRĂVIŢA,65,8,57,14,4,8,6,17,69,9,54,12,1,12,9,15,Școala Generală,Nr. 27,Cărbunari,47.5749,23.6424
286,26,MARAMUREȘ,COPALNIC-MĂNĂŞTUR,51,0,38,6,0,3,4,9,56,0,28,7,1,2,6,12,Școala,Nr. 36,Cărpiniș,47.574,23.7004
427,26,MARAMUREȘ,VIMA MICĂ,17,1,3,24,1,0,0,5,18,2,2,25,1,0,0,3,Căminul Cultural,Nr. 34,Dealu Corbului,47.4495,23.6837
295,26,MARAMUREȘ,COROIENI,75,0,24,2,0,5,0,2,78,0,22,3,0,6,0,2,Școala cu Clasele I-IV,Nr. 71,Dealu Mare,47.3601,23.8161
303,26,MARAMUREȘ,DESEŞTI,212,4,77,28,0,12,6,20,226,5,68,28,2,10,14,18,Căminul Cultural,Nr. 328,Desești,47.772,23.8578
193,26,MARAMUREȘ,ORAŞ TÎRGU LĂPUŞ,20,2,40,10,1,6,2,5,16,2,42,9,1,7,1,4,Școala Generală,Nr. 56,Dobricu Lăpușului,47.4981,23.9056
152,26,MARAMUREȘ,ORAŞ DRAGOMIREŞTI,220,11,69,261,0,28,21,39,242,11,70,237,0,33,20,32,Sala de Sport,Nr. 1A,Dragomirești,47.6695,24.2936
153,26,MARAMUREȘ,ORAŞ DRAGOMIREŞTI,116,8,27,132,0,12,5,16,140,6,33,109,0,13,5,12,Căminul Cultural,Nr. 149,Dragomirești,47.6686,24.2943
294,26,MARAMUREȘ,COROIENI,43,3,35,2,0,5,1,2,43,4,32,2,1,6,2,3,Școala cu Clasele I-IV,Nr. 68,Drăghia,47.3519,23.7692
194,26,MARAMUREȘ,ORAŞ TÎRGU LĂPUŞ,24,0,12,7,2,2,1,3,22,0,14,6,2,3,3,5,Școala Generală,Nr. 53,Dumbrava,47.4928,23.8706
309,26,MARAMUREȘ,DUMBRĂVIŢA,62,6,217,13,2,10,11,16,75,9,184,15,2,11,25,30,Școala Nouă,Nr. 204,Dumbrăvița,47.599,23.6507
425,26,MARAMUREȘ,VALEA CHIOARULUI,14,12,7,1,1,1,2,5,20,6,7,1,1,1,2,6,Căminul Cultural,Nr. 8,Durușa,47.4119,23.4677
192,26,MARAMUREȘ,ORAŞ TÎRGU LĂPUŞ,13,1,15,3,117,3,2,7,13,0,14,3,121,4,2,5,Școala Generală,Nr. 302,Dămăcușeni,47.4561,23.9068
416,26,MARAMUREȘ,ŞISEŞTI,48,13,54,5,1,8,13,17,55,13,48,3,1,10,15,18,Școala Generală,Nr. 69,Dănești,47.619,23.7305
332,26,MARAMUREȘ,MIREŞU MARE,137,0,14,8,1,1,4,9,141,0,13,6,1,1,5,7,Centrul Social de Asigurare a Serviciilor Sociale,Nr. 77,Dăneștii Chioarului,47.5547,23.3443
317,26,MARAMUREȘ,GIULEŞTI,70,4,3,7,2,107,2,11,69,5,5,6,1,110,2,6,Școala Generală,Nr. 62,Ferești,47.8308,23.9496
421,26,MARAMUREȘ,VALEA CHIOARULUI,154,3,7,10,2,1,2,8,155,3,8,11,2,1,4,5,Școala Generală,Nr. 13,Fericea,47.4067,23.3919
388,26,MARAMUREȘ,SATULUNG,170,3,35,18,1,3,5,11,173,5,27,21,1,3,8,11,Școala Primară,Nr. 46,Fersig,47.5398,23.3819
170,26,MARAMUREȘ,ORAŞ ŞOMCUTA MARE,145,7,38,16,1,2,4,7,143,5,43,13,1,3,5,9,Școala Generală,Nr. 49,Finteușu Mare,47.54,23.4637
390,26,MARAMUREȘ,SATULUNG,240,13,48,11,3,4,6,20,241,11,51,12,2,5,5,15,Școala Gimnazială,Nr. 205,Finteușu Mic,47.5688,23.4482
257,26,MARAMUREȘ,BOIU MARE,38,0,6,1,0,1,1,2,36,0,6,1,0,1,2,4,Școala Generală,Nr. 46,Frâncenii Boiului,47.3999,23.6174
271,26,MARAMUREȘ,CERNEŞTI,80,4,46,10,1,15,7,8,81,1,44,10,1,18,9,11,Școala Primară Fînațe,Nr. 19A,Fânațe,47.534,23.7567
195,26,MARAMUREȘ,ORAŞ TÎRGU LĂPUŞ,33,1,11,2,1,2,2,4,36,1,8,2,1,4,3,3,Școala Generală,Nr. 132,Fântânele,47.4107,23.8252
310,26,MARAMUREȘ,FĂRCAŞA,249,30,75,60,5,7,12,17,249,26,65,74,6,6,14,19,Căminul Cultural,Str. Independenței nr. 62,Fărcașa,47.5833,23.3253
282,26,MARAMUREȘ,COPALNIC-MĂNĂŞTUR,52,5,48,5,0,9,7,11,70,3,33,5,0,8,8,13,Căminul Cultural,Nr. 159,Făurești,47.567,23.7533
315,26,MARAMUREȘ,GIULEŞTI,58,7,91,11,1,246,33,60,57,5,114,12,1,227,38,49,Căminul Cultural,Nr. 113,Giulești,47.8218,23.9295
403,26,MARAMUREȘ,STRÎMTURA,135,1,20,5,0,4,4,8,140,0,22,4,0,4,3,4,Școala Generală,Nr. 93,Glod,47.7243,24.0752
196,26,MARAMUREȘ,ORAŞ TÎRGU LĂPUŞ,4,3,11,1,1,1,3,4,4,3,8,3,1,2,3,4,Școala Generală,Nr. 6,Groape,47.444,23.7253
318,26,MARAMUREȘ,GROŞI,132,58,102,34,5,10,16,40,150,55,83,33,5,6,32,45,Sediul Primăriei Groși,Str. Mihai Viteazu nr. 50,Groși,47.6176,23.61
321,26,MARAMUREȘ,GROŞII ŢIBLEŞULUI,136,2,239,11,2,4,2,9,133,2,238,15,2,8,2,8,Grădinița cu Program Normal Groșii Țibleșului,Nr. 559,Groșii Țibleșului,47.4864,24.0627
322,26,MARAMUREȘ,GROŞII ŢIBLEŞULUI,102,3,217,4,4,6,9,15,101,2,218,3,5,8,9,13,Școala cu Clasele I-IV Greble,Nr. 416,Groșii Țibleșului,47.4957,24.066
314,26,MARAMUREȘ,GÂRDANI,147,18,144,45,2,8,19,27,152,15,145,47,3,8,21,26,Căminul Cultural,Nr. 452,Gârdani,47.5507,23.3066
275,26,MARAMUREȘ,CICÎRLĂU,41,1,24,4,3,3,2,4,41,1,24,5,3,5,2,3,Școala Gimnazială,Nr. 47,Handalu Ilbei,47.7446,23.3696
391,26,MARAMUREȘ,SATULUNG,161,14,33,8,0,6,9,21,175,15,25,10,0,3,10,12,Școala Gimnazială,Nr. 169,Hideaga,47.5908,23.4199
344,26,MARAMUREȘ,OCNA ŞUGATAG,24,0,39,2,1,12,3,8,21,0,41,5,1,12,5,7,Căminul Cultural,Nr. 22,Hoteni,47.7715,23.8978
171,26,MARAMUREȘ,ORAŞ ŞOMCUTA MARE,89,1,20,29,1,1,1,2,90,1,20,28,1,1,1,2,Căminul Cultural,Nr. 13,Hovrila,47.4581,23.5109
301,26,MARAMUREȘ,DESEŞTI,49,10,60,30,1,25,6,11,50,9,60,26,0,27,6,11,Căminul Cultural,Nr. 71,Hărnicești,47.7842,23.8867
330,26,MARAMUREȘ,MIREŞU MARE,97,8,56,41,1,6,7,17,112,8,44,42,1,5,10,17,Școala Generală,Nr. 43,Iadăra,47.4786,23.397
323,26,MARAMUREȘ,IEUD,198,5,70,63,0,8,6,13,198,4,67,68,1,7,9,12,Școala Gimnazială,Nr. 170,Ieud,47.6774,24.2324
324,26,MARAMUREȘ,IEUD,217,5,94,66,3,10,9,22,229,7,91,77,1,9,11,16,Școala Gimnazială,Nr. 170,Ieud,47.6774,24.2324
325,26,MARAMUREȘ,IEUD,45,0,13,6,0,1,2,5,47,0,13,6,0,1,2,3,Școala Plopșor,,Ieud,47.6487,24.209
274,26,MARAMUREȘ,CICÎRLĂU,163,10,45,9,1,3,3,15,168,9,40,8,2,2,6,13,Cămin Cultural,Nr. 140,Ilba,47.7128,23.3545
197,26,MARAMUREȘ,ORAŞ TÎRGU LĂPUŞ,17,1,26,7,1,1,3,4,17,1,24,8,1,1,4,5,Școala Generală,Nr. 106,Inău,47.5174,23.823
432,26,MARAMUREȘ,VIMA MICĂ,9,0,9,7,0,2,0,1,10,0,9,8,0,1,0,1,Școala Primară,Nr. 33,Jugăstreni,47.3948,23.6626
408,26,MARAMUREȘ,SUCIU DE SUS,114,3,19,2,0,3,3,6,117,3,17,3,0,1,3,6,Școala Primară,Nr. 41,Larga,47.4524,24.1061
328,26,MARAMUREȘ,LEORDINA,199,10,145,19,3,34,20,33,208,7,157,18,3,30,23,27,Primăria,Nr. 874,Leordina,47.7861,24.2518
329,26,MARAMUREȘ,LEORDINA,54,2,38,12,0,13,8,14,51,2,44,11,1,11,13,16,Școala,Nr. 716,Leordina,47.7746,24.288
299,26,MARAMUREȘ,CUPŞENI,132,5,129,12,2,8,7,14,143,8,113,10,2,9,10,17,Școala cu Clasele V-VIII,Nr. 215,Libotin,47.5049,23.9667
331,26,MARAMUREȘ,MIREŞU MARE,95,4,19,16,0,3,10,16,104,3,13,13,0,2,17,21,Centrul Multifuncțional,Nr. 175,Lucăcești,47.5402,23.3314
249,26,MARAMUREȘ,BOCICOIU MARE,43,4,21,9,0,6,1,58,78,2,26,10,2,4,8,20,Școala cu Clasele I-VIII,Nr. 106,Lunca la Tisa,47.9516,24.0508
326,26,MARAMUREȘ,LĂPUŞ,189,15,63,20,3,13,12,23,194,16,57,20,4,15,14,21,Primăria,Nr. 1027,Lăpuș,47.4931,24.0061
327,26,MARAMUREȘ,LĂPUŞ,183,25,76,36,2,14,15,26,193,25,73,40,3,9,15,20,Căminul Cultural,Nr. 833,Lăpuș,47.4946,24.0071
357,26,MARAMUREȘ,RECEA,207,30,112,28,42,7,15,28,219,33,94,30,37,10,23,31,Școala Gimnazială,Str. Unirii nr. 48,Lăpușel,47.6182,23.4763
283,26,MARAMUREȘ,COPALNIC-MĂNĂŞTUR,58,4,38,6,0,9,9,18,58,2,40,4,0,13,17,18,Căminul Cultural,Nr. 20,Lăschia,47.5425,23.7304
302,26,MARAMUREȘ,DESEŞTI,62,3,222,116,0,22,5,21,70,3,223,93,0,25,12,26,Școala,Nr. 306,Mara,47.7554,23.8306
183,26,MARAMUREȘ,ORAŞ TĂUŢII-MĂGHERĂUŞ,71,12,24,2,2,7,3,8,71,13,21,1,2,10,4,9,Căminul Cultural,Str. 133 nr. 97,Merișor,47.6609,23.4088
422,26,MARAMUREȘ,VALEA CHIOARULUI,65,12,17,16,3,2,3,12,69,11,13,17,2,3,3,12,Școala Generală,Nr. 70,Mesteacăn,47.3782,23.518
333,26,MARAMUREȘ,MIREŞU MARE,232,18,66,31,2,16,18,35,248,14,47,42,2,12,23,34,Primăria,Nr. 486,Mireșu Mare,47.5031,23.3342
360,26,MARAMUREȘ,RECEA,245,30,122,23,5,15,17,31,269,37,98,23,6,17,21,29,Școala cu Clasele I-IV,Str. Școlii nr. 7,Mocira,47.6221,23.5234
389,26,MARAMUREȘ,SATULUNG,132,6,35,12,1,9,6,11,141,8,26,11,1,6,8,12,Școala Primară,Nr. 77,Mogoșești,47.582,23.3976
336,26,MARAMUREȘ,MOISEI,302,8,221,28,0,14,13,17,299,12,208,24,1,11,35,37,Primăria,Nr. 1300,Moisei,47.6554,24.5409
337,26,MARAMUREȘ,MOISEI,157,8,122,15,0,4,18,24,152,10,100,20,0,3,45,50,Școala nr. 4,Nr. 1645,Moisei,47.654,24.4973
338,26,MARAMUREȘ,MOISEI,214,9,260,22,0,2,23,41,211,11,251,23,0,5,42,53,Școala nr. 3,Nr. 301,Moisei,47.6491,24.5198
339,26,MARAMUREȘ,MOISEI,211,11,144,58,0,0,18,32,200,13,140,49,1,2,38,43,Gospodărie Individuală,Nr. 1078,Moisei,47.6557,24.5583
340,26,MARAMUREȘ,MOISEI,255,14,240,25,2,9,32,72,261,15,211,22,3,6,64,98,Școala nr. 2,Nr. 871,Moisei,47.6557,24.5855
206,26,MARAMUREȘ,ORAŞ ULMENI,70,3,10,78,219,8,19,32,58,4,7,109,206,9,16,26,Căminul Cultural,Nr. 131/A,Mânău,47.4818,23.2601
270,26,MARAMUREȘ,CERNEŞTI,34,6,14,3,0,6,4,16,34,6,15,7,0,4,3,12,Școala Primară Măgureni,Nr. 71,Măgureni,47.4869,23.7412
413,26,MARAMUREȘ,ŞISEŞTI,15,1,33,3,1,1,6,7,20,1,29,3,1,0,6,7,Școala cu Clasele I-IV,Nr. 111,Negreia,47.6345,23.742
176,26,MARAMUREȘ,ORAŞ TĂUŢII-MĂGHERĂUŞ,129,3,29,13,11,5,4,20,130,3,25,11,15,8,4,16,Școala Generală,Str. 103 nr. 1,Nistru,47.72,23.4542
185,26,MARAMUREȘ,ORAŞ TĂUŢII-MĂGHERĂUŞ,99,1,19,7,2,2,2,14,101,1,18,7,3,4,4,13,Grădinița 9 Mai,Str. 105 nr. 24,Nistru,47.7335,23.4436
242,26,MARAMUREȘ,BÂRSANA,158,0,20,5,2,6,2,9,171,1,12,5,2,5,1,3,Școala „Nănești”,,Nănești,47.8377,24.0093
341,26,MARAMUREȘ,OARŢA DE JOS,89,2,35,11,2,21,3,9,95,2,35,7,1,23,2,7,Primăria,Nr. 216,Oarța de Jos,47.4565,23.1332
342,26,MARAMUREȘ,OARŢA DE JOS,69,5,40,17,6,14,8,18,69,5,38,17,5,13,12,22,Școala Generală,Nr. 263,Oarța de Sus,47.4663,23.0741
346,26,MARAMUREȘ,OCNA ŞUGATAG,104,27,102,37,82,13,22,41,111,27,94,36,77,12,39,50,Sala de Festivități,Nr. 41,Ocna Șugatag,47.782,23.9376
319,26,MARAMUREȘ,GROŞI,30,5,16,10,1,5,2,9,37,5,10,6,1,6,7,11,Școala Generală,Str. Culturii nr. 55,Ocoliș,47.6007,23.579
236,26,MARAMUREȘ,BĂSEŞTI,54,0,15,17,1,26,8,11,54,0,10,20,1,28,9,11,Școala cu Clasele I-IV,Nr. 15,Odești,47.5156,23.095
347,26,MARAMUREȘ,ONCEŞTI,340,10,102,6,2,4,12,31,348,9,108,8,1,7,7,18,Căminul Cultural,Nr. 19,Oncești,47.8483,23.9811
428,26,MARAMUREȘ,VIMA MICĂ,31,0,9,6,0,1,4,7,33,0,6,7,0,1,5,7,Căminul Cultural,Nr. 25,Peteritea,47.4235,23.7431
348,26,MARAMUREȘ,PETROVA,168,2,42,25,0,13,10,22,176,0,43,23,0,14,15,18,Școala Generală „Mocearschi”,Nr. 194,Petrova,47.8373,24.2008
349,26,MARAMUREȘ,PETROVA,137,6,80,25,1,19,12,33,145,5,77,25,2,19,28,35,Școala Generală „Susani”,Nr. 734,Petrova,47.825,24.2258
368,26,MARAMUREȘ,REMEŢI,10,1,26,1,23,1,3,9,9,1,28,4,24,1,4,5,Cămin Cultural,Nr. 106,Piatra,47.9959,23.5373
414,26,MARAMUREȘ,ŞISEŞTI,49,6,42,3,1,2,3,7,49,6,41,3,2,2,3,6,Școala cu Clasele I-IV,Nr. 81,Plopiș,47.5886,23.7743
234,26,MARAMUREȘ,BĂIUŢ,44,1,21,3,2,6,3,8,46,1,21,3,2,8,1,6,Grădinița,Nr. 77,Poiana Botizii,47.5936,24.0236
356,26,MARAMUREȘ,POIENILE IZEI,138,13,129,15,1,14,29,56,134,14,136,15,0,14,28,50,Primăria,Nr. 349,Poienile Izei,47.7008,24.1128
350,26,MARAMUREȘ,POIENILE DE SUB MUNTE,249,2,20,7,5,4,7,40,238,2,28,11,4,5,11,13,Liceul Tehnologic Poienile de Sub Munte,Nr. 1406/C,Poienile de sub Munte,47.8232,24.436
351,26,MARAMUREȘ,POIENILE DE SUB MUNTE,212,4,49,5,5,13,14,49,233,6,60,8,6,13,12,23,Liceul Tehnologic Poienile de Sub Munte,Nr. 1406/C,Poienile de sub Munte,47.8232,24.436
352,26,MARAMUREȘ,POIENILE DE SUB MUNTE,367,7,29,7,1,4,8,43,394,5,29,9,4,4,11,17,Internatul Școlar Poienile de Sub Munte,Nr. 9,Poienile de sub Munte,47.8226,24.4342
353,26,MARAMUREȘ,POIENILE DE SUB MUNTE,246,5,32,19,3,5,8,51,261,3,43,20,4,5,10,18,Liceul Tehnologic Poienile de Sub Munte Școala Nejnei Crai,Nr. 197/A,Poienile de sub Munte,47.8225,24.4309
354,26,MARAMUREȘ,POIENILE DE SUB MUNTE,269,6,32,3,3,4,13,51,294,7,36,7,4,2,23,23,Școala Gimnazială nr. 4 Horb Poienile de Sub Munte,Nr. 888,Poienile de sub Munte,47.8242,24.4487
355,26,MARAMUREȘ,POIENILE DE SUB MUNTE,282,0,11,5,5,0,3,17,287,0,13,8,3,0,7,8,Școala Gimnazială nr. 4 Structura Luhei Poienile de Sub Munte,Nr. 1265,Poienile de sub Munte,47.846,24.4944
365,26,MARAMUREȘ,REMETEA CHIOARULUI,47,4,9,38,1,2,0,4,50,3,10,36,1,2,2,2,Căminul Cultural,Nr. 83/A,Posta,47.5518,23.4919
284,26,MARAMUREȘ,COPALNIC-MĂNĂŞTUR,12,0,36,6,0,1,3,4,16,1,30,6,0,1,4,5,Căminul Cultural,Nr. 78,Preluca Nouă,47.4668,23.6502
288,26,MARAMUREȘ,COPALNIC-MĂNĂŞTUR,16,3,29,7,1,1,1,5,17,3,23,6,1,1,4,10,Școala,Nr. 73,Preluca Veche,47.4695,23.7064
392,26,MARAMUREȘ,SATULUNG,115,6,38,20,1,1,4,11,118,5,31,25,1,3,6,9,Școala Gimnazială,Nr. 192,Pribilești,47.5669,23.3771
256,26,MARAMUREȘ,BOIU MARE,63,1,45,13,2,8,1,11,77,3,27,14,3,10,2,9,Școala Generală,Nr. 132,Prislop,47.4114,23.552
361,26,MARAMUREȘ,RECEA,184,32,71,25,1,17,20,33,184,37,58,22,1,18,36,41,Școală Gimnazială,Str. Europa nr. 75,Recea,47.6335,23.5042
367,26,MARAMUREȘ,REMETEA CHIOARULUI,13,4,8,43,1,3,4,6,16,3,7,43,1,2,6,7,Școala cu Clasele I-IV,Nr. 16,Remecioara,47.5133,23.5558
366,26,MARAMUREȘ,REMETEA CHIOARULUI,89,12,39,195,3,14,5,18,94,12,27,200,3,14,7,20,Căminul Cultural,Nr. 128,Remetea Chioarului,47.5282,23.5509
370,26,MARAMUREȘ,REMEŢI,144,1,52,19,4,19,5,80,174,8,64,27,3,13,15,29,Școala cu Clasele I-VIII,Nr. 43,Remeți,47.989,23.6434
371,26,MARAMUREȘ,REMEŢI,102,2,34,12,3,11,6,47,124,3,49,11,3,9,11,17,Grădinița,Nr. 221,Remeți,47.9916,23.6338
334,26,MARAMUREȘ,MIREŞU MARE,105,3,28,11,1,9,2,5,124,2,13,14,1,8,3,5,Școala cu Clasele I-IV,Nr. 41,Remeți pe Someș,47.4811,23.3379
372,26,MARAMUREȘ,REPEDEA,379,14,46,29,2,6,4,37,404,14,48,33,0,5,3,27,Căminul Cultural,Nr. 320,Repedea,47.8323,24.3995
373,26,MARAMUREȘ,REPEDEA,116,3,13,9,0,1,0,24,125,5,18,9,2,1,3,12,Școala Generală cu Clasele I-IV Lujana,Nr. 118,Repedea,47.8283,24.4017
374,26,MARAMUREȘ,REPEDEA,276,2,47,9,0,3,0,15,276,3,55,10,0,2,7,12,Școala Generală cu Clasel I-IV Lespedea de Jos,Nr. 886,Repedea,47.8321,24.3565
200,26,MARAMUREȘ,ORAŞ TÎRGU LĂPUŞ,119,8,79,17,1,3,5,13,118,11,83,18,2,3,5,8,Căminul Cultural,Nr. 426,Rogoz,47.464,23.9288
201,26,MARAMUREȘ,ORAŞ TÎRGU LĂPUŞ,58,10,50,11,1,12,4,14,62,11,42,12,1,9,9,15,Grădiniță,Nr. 254,Rohia,47.406,23.8584
258,26,MARAMUREȘ,BOIU MARE,34,0,5,1,1,1,1,2,32,0,6,1,1,1,3,4,Școala Generală,Nr. 34,Romănești,47.4026,23.6427
375,26,MARAMUREȘ,RONA DE JOS,362,10,70,36,2,31,17,48,373,11,65,36,2,33,23,35,Școala Gimnazială „Laurențiu Ulici”,Nr. 1,Rona de Jos,47.9237,24.016
376,26,MARAMUREȘ,RONA DE SUS,74,6,27,13,3,5,2,137,140,12,48,18,3,10,15,33,Căminul Cultural,Nr. 1284,Rona de Sus,47.898,24.0381
377,26,MARAMUREȘ,RONA DE SUS,65,2,30,6,1,1,0,100,102,3,44,8,2,6,10,37,Căminul Cultural,Nr. 1284,Rona de Sus,47.898,24.0381
379,26,MARAMUREȘ,ROZAVLEA,411,18,41,22,0,7,17,28,408,17,49,22,0,4,19,25,Primăria,Nr. 348,Rozavlea,47.7369,24.2233
380,26,MARAMUREȘ,ROZAVLEA,112,1,22,8,0,3,11,14,117,1,17,6,0,1,11,15,Grădinița Șesu Mânăstirii,Nr. 1080,Rozavlea,47.7377,24.2217
306,26,MARAMUREȘ,DUMBRĂVIŢA,46,15,77,9,1,15,5,11,55,19,62,13,2,14,4,8,Școala Generală,Nr. 182,Rus,47.6124,23.6673
381,26,MARAMUREȘ,RUSCOVA,84,9,119,8,1,5,6,58,102,12,148,11,2,2,9,14,Clubul Tineretului,Nr. 905,Ruscova,47.7931,24.2833
382,26,MARAMUREȘ,RUSCOVA,127,6,120,9,2,7,6,104,144,9,176,11,3,15,13,18,Grădinița nr. 1,Nr. 123,Ruscova,47.792,24.2839
383,26,MARAMUREȘ,RUSCOVA,88,0,84,9,1,0,6,48,91,5,109,5,1,4,7,10,Școala Generală nr. 2,Nr. 535,Ruscova,47.8125,24.3174
290,26,MARAMUREȘ,COPALNIC-MĂNĂŞTUR,26,0,47,8,0,6,2,7,25,0,49,4,0,6,3,8,Căminul Cultural,Nr. 11,Rușor,47.5042,23.7089
198,26,MARAMUREȘ,ORAŞ TÎRGU LĂPUŞ,68,2,23,4,1,1,6,9,65,1,19,4,1,3,12,13,Căminul Cultural,Nr. 49,Răzoare,47.4441,23.7769
199,26,MARAMUREȘ,ORAŞ TÎRGU LĂPUŞ,54,3,26,3,1,8,5,8,53,2,24,3,1,8,10,13,Școala Generală,Nr. 198,Răzoare,47.4406,23.7888
384,26,MARAMUREȘ,SARASĂU,153,13,45,32,1,5,13,46,148,13,48,26,2,5,18,50,Căminul Cultural,Nr. 203,Sarasău,47.9556,23.8258
385,26,MARAMUREȘ,SARASĂU,143,12,25,12,1,11,8,37,150,11,28,11,1,9,11,30,Căminul Cultural,,Sarasău,47.9556,23.8258
345,26,MARAMUREȘ,OCNA ŞUGATAG,102,3,98,33,2,8,7,25,99,5,104,31,2,10,16,18,Școala Generală,Nr. 322,Sat-Șugatag,47.7997,23.906
320,26,MARAMUREȘ,GROŞI,65,37,67,18,0,6,11,36,66,37,53,22,3,7,22,41,Școala Generală,Str. Școlii nr. 46,Satu Nou de Jos,47.6155,23.5676
124,26,MARAMUREȘ,ORAŞ BAIA SPRIE,64,24,62,10,2,10,15,19,67,29,44,7,2,9,26,29,Școala Gimnazială „Ioan Slavici”,Nr. 146,Satu Nou de Sus,47.6379,23.633
386,26,MARAMUREȘ,SATULUNG,286,16,93,15,14,21,10,24,296,16,76,19,19,18,19,26,Școala Gimnazială,Nr. 129,Satulung,47.5704,23.4249
157,26,MARAMUREȘ,ORAŞ SEINI,318,18,120,23,30,15,3,15,318,22,113,21,31,15,11,20,Casa de Cultură,Str. Mihail Eminescu (Str. Gutinului) nr. 4,Seini,47.7492,23.2864
158,26,MARAMUREȘ,ORAŞ SEINI,334,23,145,29,38,18,9,27,347,24,138,30,35,23,14,23,Școala Generală nr. 1,Str. Nicolae Bălcescu nr. 2,Seini,47.7482,23.2809
159,26,MARAMUREȘ,ORAŞ SEINI,220,27,139,20,186,17,6,21,232,25,135,15,182,20,15,18,"Liceul Tehnologic Agricol „Alexiu Berinde”, Școala Generală Seini",Str. Mihail Eminescu (Str. Gutinului) nr. 35,Seini,47.751,23.289
160,26,MARAMUREȘ,ORAŞ SEINI,207,22,89,15,60,6,11,20,213,18,85,16,57,7,12,20,Școala Maghiară,Piața Unirii nr. 1,Seini,47.7482,23.284
86,26,MARAMUREȘ,MUNICIPIUL SIGHETU MARMAŢIEI,133,2,90,10,1,2,6,17,134,2,90,13,1,3,9,15,Școala Generală nr. 8,Str. Iapa nr. 83,Sighetu Marmației,47.9289,23.8258
87,26,MARAMUREȘ,MUNICIPIUL SIGHETU MARMAŢIEI,136,4,85,24,1,10,11,23,136,8,84,20,1,10,16,21,Școala Generală nr. 1,Str. Valea Hotarului nr. 11,Sighetu Marmației,47.9356,23.8507
88,26,MARAMUREȘ,MUNICIPIUL SIGHETU MARMAŢIEI,97,9,52,23,25,21,11,30,104,10,57,17,25,15,20,28,Școala Generală nr. 11,Str. Cîmpul Negru nr. 11,Sighetu Marmației,47.9235,23.8676
89,26,MARAMUREȘ,MUNICIPIUL SIGHETU MARMAŢIEI,160,27,56,36,58,16,19,49,163,28,71,25,56,17,28,41,Grădinița nr. 12,Bulevardul Independenței nr. 10,Sighetu Marmației,47.9251,23.8772
90,26,MARAMUREȘ,MUNICIPIUL SIGHETU MARMAŢIEI,134,18,48,31,38,18,17,32,142,15,54,15,46,17,21,27,Universitatea „Babeș-Bolyai”,Str. Avram Iancu nr. 6,Sighetu Marmației,47.9276,23.8803
91,26,MARAMUREȘ,MUNICIPIUL SIGHETU MARMAŢIEI,83,9,28,21,27,7,6,13,83,8,30,15,28,8,10,16,Universitatea „Babeș-Bolyai”,Str. Avram Iancu nr. 6,Sighetu Marmației,47.9276,23.8803
92,26,MARAMUREȘ,MUNICIPIUL SIGHETU MARMAŢIEI,85,7,52,26,19,4,10,25,86,9,57,16,22,10,15,17,Liceul „Regele Ferdinand”,Str. 22 Decembrie (Str. V. I. Lenin) nr. 5,Sighetu Marmației,47.9289,23.8832
93,26,MARAMUREȘ,MUNICIPIUL SIGHETU MARMAŢIEI,159,25,58,22,22,18,8,34,167,21,64,15,27,23,12,23,Liceul „Regele Ferdinand”,Str. 22 Decembrie (Str. V. I. Lenin) nr. 5,Sighetu Marmației,47.9289,23.8832
94,26,MARAMUREȘ,MUNICIPIUL SIGHETU MARMAŢIEI,100,22,54,21,33,17,10,37,101,21,65,19,37,10,17,28,Casa de Cultură,Str. Iuliu Maniu (Str. Republicii) nr. 31,Sighetu Marmației,47.9316,23.8831
95,26,MARAMUREȘ,MUNICIPIUL SIGHETU MARMAŢIEI,89,22,67,19,25,13,20,38,91,22,63,16,27,9,27,39,Casa de Cultură,Str. Iuliu Maniu (Str. Republicii) nr. 31,Sighetu Marmației,47.9316,23.8831
96,26,MARAMUREȘ,MUNICIPIUL SIGHETU MARMAŢIEI,149,31,72,41,85,10,11,41,158,31,85,30,92,11,16,26,Colegiul Național „Dragoș Vodă”,Str. Mihai Viteazu nr. 13,Sighetu Marmației,47.9308,23.8869
97,26,MARAMUREȘ,MUNICIPIUL SIGHETU MARMAŢIEI,109,21,58,33,107,19,9,35,120,23,71,20,105,14,16,26,Liceul „Taras Sevcenco”,Str. Libertății nr. 22,Sighetu Marmației,47.9287,23.8882
98,26,MARAMUREȘ,MUNICIPIUL SIGHETU MARMAŢIEI,168,19,73,45,59,17,16,64,190,21,91,24,59,16,25,49,Liceul „Taras Sevcenco”,Str. Libertății nr. 22,Sighetu Marmației,47.9287,23.8882
99,26,MARAMUREȘ,MUNICIPIUL SIGHETU MARMAŢIEI,129,23,81,33,103,20,18,42,141,19,83,25,106,18,24,36,Școala Generală nr. 2,Str. Gheorghe Șincai nr. 1,Sighetu Marmației,47.9266,23.889
100,26,MARAMUREȘ,MUNICIPIUL SIGHETU MARMAŢIEI,168,27,105,24,102,19,21,50,169,27,108,17,107,22,31,42,Grădinița nr. 9,Str. Gheorghe Șincai nr. 2,Sighetu Marmației,47.9264,23.8895
101,26,MARAMUREȘ,MUNICIPIUL SIGHETU MARMAŢIEI,168,25,73,52,44,19,12,38,164,27,93,30,48,19,26,36,Școala Generală nr. 9,Str. Tudor Vladimirescu nr. 6-8,Sighetu Marmației,47.9293,23.895
102,26,MARAMUREȘ,MUNICIPIUL SIGHETU MARMAŢIEI,100,19,39,27,41,9,13,34,102,16,45,19,39,13,24,32,Școala Generală nr. 9,Str. Tudor Vladimirescu nr. 6-8,Sighetu Marmației,47.9293,23.895
103,26,MARAMUREȘ,MUNICIPIUL SIGHETU MARMAŢIEI,78,17,44,7,23,6,11,31,84,17,50,9,23,6,15,19,Liceul Tehnologic Forestier,Str. Dragoș Vodă nr. 43,Sighetu Marmației,47.9338,23.8964
104,26,MARAMUREȘ,MUNICIPIUL SIGHETU MARMAŢIEI,148,20,45,21,47,10,10,25,155,16,58,8,49,7,19,24,Liceul Tehnologic Forestier,Str. Dragoș Vodă nr. 43,Sighetu Marmației,47.9338,23.8964
105,26,MARAMUREȘ,MUNICIPIUL SIGHETU MARMAŢIEI,177,23,68,44,36,17,34,57,184,17,83,35,33,15,43,55,Școala Generală nr. 6,Str. Dragoș Vodă nr. 244,Sighetu Marmației,47.9426,23.9225
106,26,MARAMUREȘ,MUNICIPIUL SIGHETU MARMAŢIEI,148,22,84,54,42,17,13,28,158,23,102,30,42,11,22,32,Școala Generală nr. 10,Str. Unirii nr. 27,Sighetu Marmației,47.9301,23.9022
107,26,MARAMUREȘ,MUNICIPIUL SIGHETU MARMAŢIEI,87,8,47,17,32,11,6,18,90,8,45,16,35,10,13,17,Școala Generală nr. 10,Str. Unirii nr. 27,Sighetu Marmației,47.9301,23.9022
108,26,MARAMUREȘ,MUNICIPIUL SIGHETU MARMAŢIEI,81,7,48,22,19,17,10,18,78,7,58,12,18,16,17,21,Școala Generală nr. 10,Str. Unirii nr. 27,Sighetu Marmației,47.9301,23.9022
109,26,MARAMUREȘ,MUNICIPIUL SIGHETU MARMAŢIEI,118,16,56,34,33,22,19,30,125,15,63,18,36,17,27,35,Grădinița nr. 1,"Str. Bogdan Vodă , Bloc A5",Sighetu Marmației,47.9273,23.9035
110,26,MARAMUREȘ,MUNICIPIUL SIGHETU MARMAŢIEI,76,15,47,28,17,12,9,17,86,12,48,19,19,7,14,18,Grădinița nr. 1,"Str. Bogdan Vodă , Bloc A5",Sighetu Marmației,47.9273,23.9035
111,26,MARAMUREȘ,MUNICIPIUL SIGHETU MARMAŢIEI,148,16,67,29,23,12,8,34,166,17,76,13,22,9,20,26,Școala Generală nr. 4,Str. Bogdan Vodă nr. 118,Sighetu Marmației,47.9269,23.9014
112,26,MARAMUREȘ,MUNICIPIUL SIGHETU MARMAŢIEI,95,22,37,29,25,6,7,21,105,20,42,17,27,9,11,19,Școala Generală nr. 4,Str. Bogdan Vodă nr. 118,Sighetu Marmației,47.9269,23.9014
113,26,MARAMUREȘ,MUNICIPIUL SIGHETU MARMAŢIEI,189,21,107,63,21,39,24,64,199,19,123,44,24,36,39,54,Școala Generală nr. 4,Str. Bogdan Vodă nr. 118,Sighetu Marmației,47.9269,23.9014
114,26,MARAMUREȘ,MUNICIPIUL SIGHETU MARMAŢIEI,150,16,71,21,3,8,18,39,152,16,72,18,4,6,26,35,Școala Generală nr. 5,Str. Bogdan Vodă nr. 246,Sighetu Marmației,47.9174,23.92
115,26,MARAMUREȘ,MUNICIPIUL SIGHETU MARMAŢIEI,128,19,70,33,5,7,12,30,135,19,75,25,5,7,23,29,Școala Generală nr. 5,Str. Bogdan Vodă nr. 246,Sighetu Marmației,47.9174,23.92
116,26,MARAMUREȘ,MUNICIPIUL SIGHETU MARMAŢIEI,52,7,79,13,1,6,6,12,60,7,81,10,1,3,12,14,Școala Generală nr. 7,Str. Sugău nr. 49,Sighetu Marmației,47.8834,23.9076
404,26,MARAMUREȘ,STRÎMTURA,64,3,26,9,1,2,7,9,64,4,26,8,1,2,4,5,Școala Generală,Nr. 174,Slătioara,47.7524,24.0902
207,26,MARAMUREȘ,ORAŞ ULMENI,66,3,16,60,4,8,15,24,64,2,14,73,4,11,11,13,Căminul Cultural,Nr. 288,Someș-Uileac,47.4576,23.2242
202,26,MARAMUREȘ,ORAŞ TÎRGU LĂPUŞ,25,0,39,11,0,2,1,2,27,1,37,11,0,1,2,3,Școala Generală,Nr. 92,Stoiceni,47.5114,23.8791
238,26,MARAMUREȘ,BĂSEŞTI,22,0,8,18,0,14,4,5,21,0,7,19,0,13,6,6,Școala cu Clasele I-IV,Nr. 99,Stremț,47.4911,23.0744
232,26,MARAMUREȘ,BĂIUŢ,63,3,14,7,22,16,8,13,68,3,14,8,22,14,7,10,Căminul Cultural,Nr. 131,Strâmbu-Băiuț,47.597,23.9787
401,26,MARAMUREȘ,STRÎMTURA,232,14,93,37,3,11,53,81,242,15,99,31,1,12,51,68,Școala Generală,Nr. 795,Strâmtura,47.7735,24.1356
402,26,MARAMUREȘ,STRÎMTURA,44,0,32,2,0,6,10,12,49,1,31,2,0,5,7,8,Școala Generală,Nr. 481,Strâmtura,47.789,24.1608
405,26,MARAMUREȘ,SUCIU DE SUS,214,15,87,4,1,4,4,15,216,12,86,6,1,4,4,11,Căminul Cultural,Nr. 320,Suciu de Jos,47.4453,23.9793
406,26,MARAMUREȘ,SUCIU DE SUS,449,13,117,10,1,8,11,18,458,11,114,9,1,6,13,20,Primăria,Nr. 791,Suciu de Sus,47.4315,24.0394
407,26,MARAMUREȘ,SUCIU DE SUS,277,6,22,5,1,2,2,10,276,4,21,7,1,3,2,6,Școala Generală Candela,Nr. 105,Suciu de Sus,47.4202,24.0361
261,26,MARAMUREȘ,BUDEŞTI,79,2,78,18,0,7,0,7,78,5,74,22,0,6,1,6,Școala cu Clasele I-VIII,Nr. 25,Sârbi,47.7672,23.9477
312,26,MARAMUREȘ,FĂRCAŞA,80,3,24,20,2,4,10,18,83,5,20,25,2,4,10,12,Școala Profesională,Str. Culturii nr. 5,Sârbi,47.5939,23.343
161,26,MARAMUREȘ,ORAŞ SEINI,155,5,35,3,3,13,3,13,156,7,34,2,3,12,5,10,Școala,Nr. 224/B,Săbișa,47.7276,23.3262
396,26,MARAMUREȘ,SĂCEL,257,7,121,33,1,10,19,56,257,5,128,39,2,9,22,45,Primăria,Nr. 1375,Săcel,47.636,24.4353
397,26,MARAMUREȘ,SĂCEL,237,7,62,31,0,7,13,47,238,5,63,37,2,6,17,48,Școala Valea Carelor,Nr. 835,Săcel,47.6316,24.4434
393,26,MARAMUREȘ,SĂCĂLĂŞENI,95,18,33,11,1,43,9,17,100,19,23,8,2,50,12,16,Sala de Sport,Nr. 99 A,Săcălășeni,47.5831,23.5634
237,26,MARAMUREȘ,BĂSEŞTI,36,2,7,9,1,1,1,3,37,1,7,11,1,2,1,3,Școala cu Clasele I-IV,Nr. 34,Săliște,47.4955,23.1121
154,26,MARAMUREȘ,ORAŞ SĂLIŞTEA DE SUS,210,11,73,25,1,10,25,99,232,14,81,27,1,10,29,70,Casa de Cultură,Str. Liviu Doru Bindea nr. 59,Săliștea de Sus,47.6599,24.3514
155,26,MARAMUREȘ,ORAŞ SĂLIŞTEA DE SUS,256,17,59,41,3,8,20,47,269,14,68,33,3,7,23,42,Școala Gimnazială „Mihai Eminescu”,Str. Liviu Doru Bindea nr. 107,Săliștea de Sus,47.6599,24.3579
156,26,MARAMUREȘ,ORAŞ SĂLIŞTEA DE SUS,178,11,37,13,1,6,15,31,181,8,38,9,1,5,19,31,Școala Gimnazială „Mihai Eminescu”,Str. Liviu Doru Bindea nr. 217,Săliștea de Sus,47.6566,24.3733
429,26,MARAMUREȘ,VIMA MICĂ,42,1,5,27,1,4,1,4,42,2,6,25,1,5,1,4,Căminul Cultural,Nr. 29,Sălnița,47.4112,23.67
398,26,MARAMUREȘ,SĂLSIG,382,11,75,41,3,10,9,19,376,12,66,55,4,9,13,20,Căminul Cultural,Nr. 400,Sălsig,47.5189,23.3008
399,26,MARAMUREȘ,SĂPÎNŢA,157,32,194,12,3,16,18,25,163,29,191,6,3,17,23,28,Școala Gimnazială,,Săpânța,47.9731,23.6967
400,26,MARAMUREȘ,SĂPÎNŢA,132,23,211,14,2,9,19,32,137,24,202,11,2,12,24,32,Școala Gimnazială,Nr. 513,Săpânța,47.9731,23.6967
358,26,MARAMUREȘ,RECEA,144,28,177,37,4,16,17,37,152,31,156,38,5,10,36,50,Școala Gimnazială,Str. 1 Decembrie nr. 186,Săsar,47.6443,23.4975
362,26,MARAMUREȘ,RECEA,94,17,75,21,2,11,3,10,100,22,57,18,2,13,12,17,Clădirea Administrativă Biserica „Duminica Mironosițelor”,Str. 1 Decembrie nr. 51,Săsar,47.6461,23.512
369,26,MARAMUREȘ,REMEŢI,3,3,9,2,8,1,0,10,6,3,10,2,9,1,2,5,Canton de Exploatare Aba Someș-Tisa,Nr. 60,Teceu Mic,48.0026,23.5787
250,26,MARAMUREȘ,BOCICOIU MARE,98,6,36,23,12,7,10,31,97,6,50,25,11,7,17,21,Școala cu Clasele I-VIII,Nr. 350,Tisa,47.9489,23.9556
208,26,MARAMUREȘ,ORAŞ ULMENI,34,7,14,28,1,8,8,15,28,7,6,44,1,9,7,12,Căminul Cultural,Nr. 44,Tohat,47.4945,23.3052
268,26,MARAMUREȘ,CERNEŞTI,174,4,40,5,0,9,7,16,179,4,38,7,0,10,10,14,Căminul Cultural Trestia,Nr. 162,Trestia,47.5651,23.7928
335,26,MARAMUREȘ,MIREŞU MARE,134,4,26,18,1,2,4,18,140,4,19,19,1,3,4,18,Școala cu Clasele I-IV,Nr. 87,Tulghieș,47.5009,23.3697
186,26,MARAMUREȘ,ORAŞ TÎRGU LĂPUŞ,219,51,128,22,36,25,21,42,236,49,116,27,35,28,20,31,Casa Orășenească de Cultură,Piața Eroilor nr. 10,Târgu Lăpuș,47.453,23.866
187,26,MARAMUREȘ,ORAŞ TÎRGU LĂPUŞ,249,35,172,24,41,19,23,44,262,34,153,24,41,23,39,49,Școala Generală Pentru Copii cu Deficiențe,Piața Eroilor nr. 31,Târgu Lăpuș,47.4539,23.8629
188,26,MARAMUREȘ,ORAŞ TÎRGU LĂPUŞ,160,32,103,11,46,17,17,38,162,31,89,17,50,19,20,38,Primăria Orașului Tîrgu Lăpuș,Str. Țibleșului nr. 2,Târgu Lăpuș,47.4505,23.8682
313,26,MARAMUREȘ,FĂRCAŞA,96,14,33,15,1,4,23,30,96,17,26,29,1,3,13,22,Grădinița,Str. Victoriei nr. 2,Tămaia,47.5943,23.3628
227,26,MARAMUREȘ,ARINIŞ,75,2,37,7,1,1,5,10,76,0,31,8,1,2,8,15,Cămin Cultural Tămășești,Nr. 168,Tămășești,47.5035,23.1886
127,26,MARAMUREȘ,ORAŞ BAIA SPRIE,209,24,47,20,25,7,26,49,222,23,39,24,27,3,36,49,Școala Gimnazială „Ioan Slavici”,Nr. 1,Tăuții de Sus,47.6574,23.6417
128,26,MARAMUREȘ,ORAŞ BAIA SPRIE,101,45,59,14,8,10,17,41,111,38,51,17,9,11,23,40,Școala Gimnazială „Ioan Slavici”,Nr. 1,Tăuții de Sus,47.6574,23.6417
177,26,MARAMUREȘ,ORAŞ TĂUŢII-MĂGHERĂUŞ,140,65,119,23,22,16,7,49,151,73,94,26,25,16,19,48,Sala Multifuncțională Măgherăuș,Str. 1 nr. 97,Tăuții-Măgherăuș,47.666,23.4787
178,26,MARAMUREȘ,ORAŞ TĂUŢII-MĂGHERĂUŞ,118,68,77,24,43,16,19,54,141,69,71,17,43,11,24,45,Liceul Tehnologic „Traian Vuia”,Str. 1 nr. 229,Tăuții-Măgherăuș,47.6646,23.4656
179,26,MARAMUREȘ,ORAŞ TĂUŢII-MĂGHERĂUŞ,107,29,50,15,25,17,4,27,109,29,40,17,25,19,14,30,Grădinița Hoșteze,Str. 24 nr. 69,Tăuții-Măgherăuș,47.6719,23.4548
204,26,MARAMUREȘ,ORAŞ ULMENI,152,25,89,154,38,30,23,59,129,20,58,240,37,12,31,53,Centrul de Cultură și Artă,Str. Dr. Florian C. Ulmeanu (D) nr. 13,Ulmeni,47.4663,23.3021
184,26,MARAMUREȘ,ORAŞ TĂUŢII-MĂGHERĂUŞ,47,1,13,3,1,6,1,5,52,1,12,3,2,6,1,2,Căminul Cultural,Str. 141 nr. 35,Ulmoasa,47.7324,23.5305
308,26,MARAMUREȘ,DUMBRĂVIŢA,85,14,37,0,3,10,6,11,86,12,37,0,3,9,8,10,Școala Generală,Nr. 42,Unguraș,47.6287,23.6772
300,26,MARAMUREȘ,CUPŞENI,277,1,14,12,1,5,6,11,276,1,14,16,1,5,4,8,Școala cu Clasele V-VIII,Nr. 108,Ungureni,47.5461,23.9509
231,26,MARAMUREȘ,BĂIŢA DE SUB CODRU,66,3,23,0,2,4,3,14,68,4,20,4,1,3,4,15,Școala cu Clasele I-IV,Nr. 64,Urmeniș,47.5227,23.1963
285,26,MARAMUREȘ,COPALNIC-MĂNĂŞTUR,60,0,32,5,0,6,4,6,60,0,25,5,0,6,11,12,Căminul Cultural,Nr. 54,Vad,47.5207,23.7101
418,26,MARAMUREȘ,VADU IZEI,314,12,131,34,2,20,25,57,329,11,122,25,1,22,50,65,Sala de Festivități,Nr. 161,Vadu Izei,47.8881,23.9301
424,26,MARAMUREȘ,VALEA CHIOARULUI,143,14,46,23,1,11,10,19,150,13,47,22,1,10,11,14,Căminul Cultural,Nr. 55,Valea Chioarului,47.4283,23.4851
419,26,MARAMUREȘ,VADU IZEI,131,0,12,14,2,2,4,8,128,2,9,13,2,2,7,9,Sala de Festivități,Nr. 51,Valea Stejarului,47.8742,23.9915
248,26,MARAMUREȘ,BISTRA,79,1,61,4,2,3,3,76,109,5,81,7,3,4,10,24,Școala Gimnazială,Nr. 99,Valea Vișeului,47.9139,24.1529
210,26,MARAMUREȘ,ORAŞ ULMENI,43,5,5,35,1,7,5,8,42,6,4,36,1,7,5,7,Școala Primară,Nr. 102,Vicea,47.4504,23.2428
162,26,MARAMUREȘ,ORAŞ SEINI,103,2,52,2,44,2,1,9,106,3,45,1,47,3,1,7,Sala Multifuncțională Viile Apei,Nr. 75,Viile Apei,47.7808,23.2889
430,26,MARAMUREȘ,VIMA MICĂ,43,1,21,10,0,3,1,6,46,1,19,7,1,4,3,6,Căminul Cultural,Nr. 18,Vima Mare,47.3805,23.7062
426,26,MARAMUREȘ,VIMA MICĂ,90,2,12,3,0,4,2,6,88,5,12,2,0,3,5,8,Căminul Cultural,Nr. 12,Vima Mică,47.4058,23.7166
433,26,MARAMUREȘ,VIŞEU DE JOS,194,21,138,10,1,6,18,31,209,21,131,7,0,7,19,23,Primărie,Nr. 1028,Vișeu de Jos,47.7266,24.3675
434,26,MARAMUREȘ,VIŞEU DE JOS,235,17,114,15,0,12,19,35,243,18,114,17,3,8,28,33,Căminul Cultural,Nr. 389,Vișeu de Jos,47.7271,24.3647
435,26,MARAMUREȘ,VIŞEU DE JOS,142,8,54,5,1,7,10,26,149,9,50,5,2,6,14,22,Școala Gimnazială nr. 2,Nr. 309,Vișeu de Jos,47.7273,24.3612
211,26,MARAMUREȘ,ORAŞ VIŞEU DE SUS,158,12,34,13,1,8,11,26,153,12,42,13,1,6,18,25,Școala Generală nr. 2,Str. Dragoș Vodă nr. 68,Vișeu de Sus,47.7153,24.4051
212,26,MARAMUREȘ,ORAŞ VIŞEU DE SUS,127,2,36,23,2,9,6,15,121,3,40,22,3,6,13,17,Școala Generală nr. 2,Str. Dragoș Vodă nr. 68,Vișeu de Sus,47.7153,24.4051
213,26,MARAMUREȘ,ORAŞ VIŞEU DE SUS,124,23,50,14,13,8,13,36,125,23,48,15,14,8,27,32,Liceul Teoretic Bogdan Vodă,Str. Mihai Eminescu (Str. Mihail Eminescu) nr. 1,Vișeu de Sus,47.708,24.4263
214,26,MARAMUREȘ,ORAŞ VIŞEU DE SUS,118,16,64,6,21,14,10,28,117,18,66,8,25,10,15,22,Liceul Teoretic Bogdan Vodă,Str. Mihai Eminescu (Str. Mihail Eminescu) nr. 1,Vișeu de Sus,47.708,24.4263
215,26,MARAMUREȘ,ORAŞ VIŞEU DE SUS,179,19,83,21,27,10,19,50,185,21,84,21,27,11,31,39,Liceul Tehnologic,Str. Tudor Vladimirescu nr. 2,Vișeu de Sus,47.7114,24.4294
216,26,MARAMUREȘ,ORAŞ VIŞEU DE SUS,137,13,59,18,18,4,22,47,146,13,66,14,18,5,25,34,Liceul Tehnologic,Str. Tudor Vladimirescu nr. 2,Vișeu de Sus,47.7114,24.4294
217,26,MARAMUREȘ,ORAŞ VIŞEU DE SUS,123,6,37,12,2,4,9,15,124,6,39,8,2,4,14,16,Liceul Tehnologic nr. 4,Str. 1 Mai nr. 136,Vișeu de Sus,47.7233,24.4554
218,26,MARAMUREȘ,ORAŞ VIŞEU DE SUS,141,5,25,10,2,2,8,18,144,3,26,10,4,2,13,15,Liceul Tehnologic nr. 4,Str. 1 Mai nr. 136,Vișeu de Sus,47.7233,24.4554
219,26,MARAMUREȘ,ORAŞ VIŞEU DE SUS,282,20,83,38,5,16,26,36,280,13,86,34,5,14,45,50,Cantina de Ajutor Social,Str. Carpați nr. 38,Vișeu de Sus,47.7099,24.4334
220,26,MARAMUREȘ,ORAŞ VIŞEU DE SUS,194,8,63,26,0,7,22,33,197,7,68,24,0,4,30,33,Școala Gimnazială nr. 7,Aleea Eroilor (Aleea Pionierilor) nr. 10,Vișeu de Sus,47.7064,24.4364
221,26,MARAMUREȘ,ORAŞ VIŞEU DE SUS,171,29,87,40,17,16,21,48,176,33,79,39,19,15,34,53,Școala Gimnazială nr. 7,Aleea Eroilor (Aleea Pionierilor) nr. 10,Vișeu de Sus,47.7064,24.4364
222,26,MARAMUREȘ,ORAŞ VIŞEU DE SUS,84,7,39,8,1,1,15,21,79,6,36,10,2,2,25,26,Școala Gimnazială nr. 3,Str. Rîndunelelor nr. 80,Vișeu de Sus,47.6787,24.4527
266,26,MARAMUREȘ,CĂLINEŞTI,96,2,87,92,2,10,13,21,102,3,96,83,2,9,14,15,Căminul Cultural,Nr. 457,Văleni,47.7846,24.0153
296,26,MARAMUREȘ,COROIENI,43,6,256,7,1,7,5,8,46,4,262,8,1,8,5,5,Școala Generală,Nr. 63,Vălenii Lăpușului,47.4056,23.7839
173,26,MARAMUREȘ,ORAŞ ŞOMCUTA MARE,200,4,32,13,1,2,7,9,205,6,26,11,1,3,7,8,Căminul Cultural,Nr. 197/A,Vălenii Șomcutei,47.4736,23.4505
423,26,MARAMUREȘ,VALEA CHIOARULUI,59,12,25,7,1,6,2,4,63,13,22,9,1,6,3,5,Școala Generală,Nr. 96,Vărai,47.386,23.4497
278,26,MARAMUREȘ,COAŞ,12,0,17,2,1,0,1,3,9,1,17,3,1,0,1,5,Școala Generală cu Clasele I-IV,Nr. 26,Întrerâuri,47.486,23.6143
409,26,MARAMUREȘ,ŞIEU,189,3,66,18,1,15,23,32,193,3,61,19,1,13,30,37,Căminul Cultural,Nr. 109,Șieu,47.7247,24.2223
410,26,MARAMUREȘ,ŞIEU,192,0,40,9,1,10,17,26,190,1,37,11,1,10,26,31,Școala de La Podul Râtului,Nr. 439,Șieu,47.7105,24.184
307,26,MARAMUREȘ,DUMBRĂVIŢA,64,4,45,18,0,3,4,7,64,3,44,18,1,4,5,6,Școala Generală,Nr. 91,Șindrești,47.6058,23.6952
411,26,MARAMUREȘ,ŞISEŞTI,122,22,152,14,2,19,11,28,123,20,144,16,3,17,23,35,Primăria Comunei Șișești,Nr. 430,Șisești,47.6348,23.7066
163,26,MARAMUREȘ,ORAŞ ŞOMCUTA MARE,126,13,53,8,7,11,5,18,132,14,47,9,9,9,6,15,Casa de Cultură,Str. Republicii (D) nr. 2,Șomcuta Mare,47.498,23.4704
164,26,MARAMUREȘ,ORAŞ ŞOMCUTA MARE,125,21,23,18,8,13,10,19,134,16,23,17,7,11,15,20,Școala Generală cu Clasele I-IV,Str. Republicii (D) nr. 5,Șomcuta Mare,47.4972,23.4713
165,26,MARAMUREȘ,ORAŞ ŞOMCUTA MARE,207,26,38,16,7,26,10,20,215,24,28,19,6,20,22,28,Grădinița cu Program Prelungit,Str. Nicolae Bălcescu (D) nr. 33,Șomcuta Mare,47.5019,23.469
166,26,MARAMUREȘ,ORAŞ ŞOMCUTA MARE,114,0,3,2,0,1,3,10,123,0,3,3,0,1,2,3,Școala Generală nr. 2,Str. Mireșului (D) nr. 81,Șomcuta Mare,47.5023,23.443
417,26,MARAMUREȘ,ŞISEŞTI,122,15,70,41,0,6,4,11,122,12,68,42,1,9,10,11,Școala Generală,Nr. 219,Șurdești,47.6015,23.7682
209,26,MARAMUREȘ,ORAŞ ULMENI,74,3,12,162,15,3,4,9,76,4,10,168,15,4,2,7,Școala Primară,Nr. 58,Țicău,47.4448,23.3046