id,nr_circumscriptie,circumscriptie,localitate,psd_cdep,usr_cdep,pnl_cdep,pmp_cdep,udmr_cdep,alde_cdep,pru_cdep,altele_cdep,psd_senat,usr_senat,pnl_senat,pmp_senat,udmr_senat,alde_senat,pru_senat,altele_senat,name,address,city,lat,lng
215,27,MEHEDINȚI,MALOVĂŢ,263,2,66,13,1,34,3,10,265,5,76,11,1,32,3,8,Școala Generală I-IV 23 August,23 AUGUST,23 August,44.716,22.7621
165,27,MEHEDINȚI,DUMBRAVA,83,1,69,12,1,106,0,4,82,2,73,9,1,105,0,7,Școala Generală Albulești,,Albulești,44.5153,23.2029
279,27,MEHEDINȚI,VLĂDAIA,127,1,26,7,0,146,3,13,124,2,25,6,1,156,2,11,Școala Generală I-IV Almăjel,,Almăjel,44.3828,23.0292
134,27,MEHEDINȚI,BUTOIEŞTI,47,1,58,3,3,122,4,7,41,1,64,3,2,124,5,8,Școala Generală I-IV Arginești,,Arginești,44.5735,23.4137
153,27,MEHEDINȚI,CUJMIR,144,2,51,26,1,15,1,7,144,3,49,25,2,14,2,7,Școala Generală Aurora,,Aurora,44.1926,22.9375
199,27,MEHEDINȚI,ILOVIŢA,96,1,17,12,0,6,3,15,97,0,22,14,0,6,7,13,Căminul Cultural Bahna,,Bahna,44.7751,22.498
163,27,MEHEDINȚI,DUBOVA,26,0,46,1,0,3,0,12,28,0,53,2,0,4,0,1,Fosta Școală Baia Nouă,,Baia Nouă,44.5567,22.1222
75,27,MEHEDINȚI,ORAŞ BAIA DE ARAMĂ,317,14,60,17,2,38,14,35,313,13,63,19,1,37,16,31,Școala Generală Baia de Aramă,,Baia de Aramă,44.9992,22.805
76,27,MEHEDINȚI,ORAŞ BAIA DE ARAMĂ,355,13,36,12,2,32,8,19,357,18,35,13,2,26,9,23,Grupul Școlar Constantin Brâncoveanu,,Baia de Aramă,44.9979,22.8149
100,27,MEHEDINȚI,BALA,184,6,43,2,3,22,9,20,166,5,46,3,3,46,4,14,Căminul Cultural Bala,,Bala,44.8825,22.8359
102,27,MEHEDINȚI,BALA,130,3,38,0,1,44,16,26,115,3,33,7,1,69,11,17,Școala Generală I-IV Bala de Sus,,Bala de Sus,44.8971,22.8108
204,27,MEHEDINȚI,IZVORU BÎRZII,110,0,74,7,0,7,4,15,115,2,73,9,0,9,4,7,Școala Generală I-IV Balotești,,Balotești,44.7338,22.6391
106,27,MEHEDINȚI,BALTA,119,0,40,37,1,4,3,8,113,0,41,40,1,2,6,10,Căminul Cultural Balta,,Balta,44.8859,22.6363
177,27,MEHEDINȚI,GOGOŞU,285,3,30,10,0,8,5,12,291,5,29,10,1,7,5,10,Școala Generală Balta Verde,,Balta Verde,44.3441,22.5943
156,27,MEHEDINȚI,DEVESEL,101,2,142,9,1,9,7,10,99,2,147,6,1,9,7,9,Școala Generală Batoți,,Batoți,44.5144,22.6754
157,27,MEHEDINȚI,DEVESEL,104,4,144,4,2,3,0,7,104,4,144,4,2,6,0,3,Școala Generală Bistrețu,,Bistrețu,44.444,22.6112
192,27,MEHEDINȚI,HINOVA,386,0,36,10,2,35,11,32,388,5,47,10,3,31,12,21,Școala Generală I-VIII Bistrița,,Bistrița,44.5852,22.7909
216,27,MEHEDINȚI,MALOVĂŢ,264,4,32,3,0,15,3,11,267,0,35,3,0,15,1,16,Căminul Cultural Bobaița,,Bobaița,44.7599,22.7203
119,27,MEHEDINȚI,BRANIŞTEA,630,1,27,6,0,27,8,15,632,1,26,5,0,34,7,11,Școala Gimnazială Braniștea,,Braniștea,44.2404,22.9704
101,27,MEHEDINȚI,BALA,17,0,2,3,1,5,7,10,16,1,3,3,1,6,5,9,Școala Generală I-IV Brateșul,,Brateșul,44.9105,22.8261
121,27,MEHEDINȚI,BREZNIŢA-MOTRU,390,5,68,7,1,11,7,13,385,3,77,6,0,10,8,12,Școala Generală I-VIII Breznița Motru,,Breznița-Motru,44.5672,23.2146
123,27,MEHEDINȚI,BREZNIŢA-OCOL,308,13,54,7,1,10,5,15,301,17,56,5,0,10,9,19,Școala Generală I-VIII Breznița Ocol,,Breznița-Ocol,44.6666,22.6182
126,27,MEHEDINȚI,BROŞTENI,376,11,85,10,1,31,8,25,370,12,84,9,1,32,7,35,Cămin Cultural Broșteni,,Broșteni,44.7576,22.9898
92,27,MEHEDINȚI,ORAŞ VÎNJU MARE,111,1,34,3,1,16,3,8,114,2,33,4,1,17,3,6,Gradinița Bucura,,Bucura,44.4004,22.8662
136,27,MEHEDINȚI,BUTOIEŞTI,61,1,30,12,1,38,0,6,63,2,28,14,1,38,0,4,Școala Generală I-IV Buicești,,Buicești,44.5654,23.3683
128,27,MEHEDINȚI,BURILA MARE,186,0,118,8,0,16,1,14,190,0,117,10,0,18,1,13,Școala Generală Burila Mare,,Burila Mare,44.4524,22.5753
178,27,MEHEDINȚI,GOGOŞU,287,0,26,4,0,9,2,7,282,0,27,8,0,9,2,7,Școala Generală Burila Mică,,Burila Mică,44.4207,22.5862
202,27,MEHEDINȚI,ISVERNA,71,1,11,7,1,4,1,3,73,1,13,9,1,4,0,1,Cămin Cultural Busești,,Busești,44.949,22.7116
133,27,MEHEDINȚI,BUTOIEŞTI,124,0,70,5,0,74,6,18,121,6,69,3,0,79,8,14,Primăria Butoiești,,Butoiești,44.5842,23.3635
113,27,MEHEDINȚI,BÎCLEŞ,346,0,17,4,1,35,0,7,331,1,19,5,2,35,3,13,Școala Generală I-VIII Bîcleș,,Bâcleș,44.4777,23.113
182,27,MEHEDINȚI,GRECI,128,1,36,8,0,15,6,11,125,1,42,6,1,15,6,8,Școala Generală Bîltanele,,Bâltanele,44.5781,23.1453
118,27,MEHEDINȚI,BÎLVĂNEŞTI,406,6,22,4,0,18,6,15,399,4,25,3,0,20,9,15,Primăria Bîlvănești,,Bâlvănești,44.7977,22.6782
236,27,MEHEDINȚI,PONOARELE,95,5,20,2,1,1,3,5,93,3,22,1,0,5,4,5,Căminul Cultural Bîrîiacu,,Bârâiacu,45.0069,22.7372
196,27,MEHEDINȚI,HUSNICIOARA,49,0,37,0,0,1,0,4,46,0,38,0,1,2,1,5,Școala Generală Bădițești,,Bădițești,44.6381,22.866
110,27,MEHEDINȚI,BĂLĂCIŢA,258,1,51,16,0,9,1,30,257,4,48,12,0,14,1,28,Școala Gimnazială Bălăcița,,Bălăcița,44.3845,23.1264
249,27,MEHEDINȚI,PUNGHINA,30,2,13,26,3,9,2,10,35,2,10,29,2,10,2,5,Căminul Cultural Cearîng,,Cearângu,44.2831,22.9784
148,27,MEHEDINȚI,CORCOVA,134,6,42,4,0,6,0,10,136,7,43,4,0,7,0,5,Școala Generală Cernaia,,Cernaia,44.6584,23.1315
259,27,MEHEDINȚI,ŞIMIAN,599,7,31,5,0,3,5,20,559,6,47,9,0,5,8,35,Școala Generală I-VIII Cerneți,,Cerneți,44.6437,22.71
260,27,MEHEDINȚI,ŞIMIAN,639,7,23,7,4,7,8,16,595,10,51,12,3,10,9,19,Școala Generală I-VIII Cerneți,,Cerneți,44.6437,22.71
244,27,MEHEDINȚI,PRUNIŞOR,116,2,13,4,0,42,1,9,115,1,17,3,0,42,1,7,Căminul Cultural Cervenița,,Cervenița,44.6378,22.9674
84,27,MEHEDINȚI,ORAŞ STREHAIA,297,3,26,10,4,5,10,16,304,2,29,10,4,6,11,15,Școala Generală Ciochiuța,Nr. Numărul 127,Ciochiuța,44.6023,23.1158
210,27,MEHEDINȚI,JIANA,290,2,21,7,1,14,11,15,300,2,22,5,1,7,10,15,Căminul Cultural Cioroboreni,,Cioroboreni,44.387,22.7561
141,27,MEHEDINȚI,CIREŞU,204,9,79,2,1,6,4,9,199,9,82,2,1,9,4,10,Căminul Cultural Cireșu,,Cireșu,44.8233,22.5379
267,27,MEHEDINȚI,ŞIŞEŞTI,94,2,120,14,1,4,7,13,107,3,108,13,1,5,6,9,Școala Generală I-IV Cocorova,,Cocorova,44.7472,22.8041
86,27,MEHEDINȚI,ORAŞ STREHAIA,299,2,81,11,3,4,13,22,294,5,84,9,3,7,15,22,Școala Generală Comanda,Nr. Numărul 45,Comanda,44.6505,23.1668
96,27,MEHEDINȚI,BALA,103,3,41,2,1,5,2,6,99,5,42,1,1,7,4,8,Școala Generală I-IV Comănești,,Comănești,44.9348,22.8631
142,27,MEHEDINȚI,CORCOVA,263,12,275,10,1,12,4,34,266,4,267,11,0,17,6,32,Căminul Cultural Corcova,,Corcova,44.6971,23.0448
144,27,MEHEDINȚI,CORCOVA,114,1,40,26,2,11,0,7,113,2,41,24,2,6,1,15,Școala Generală Cordun,,Cordun,44.6856,23.0518
149,27,MEHEDINȚI,CORLĂŢEL,291,5,86,12,0,18,6,20,291,3,83,11,1,18,7,21,Școala Profesională Corlățel,,Corlățel,44.3937,22.9313
116,27,MEHEDINȚI,BÎCLEŞ,266,0,16,0,1,19,0,7,266,1,10,4,0,21,0,7,Școala Generală I-IV Corzu,,Corzu,44.454,23.1631
108,27,MEHEDINȚI,BALTA,69,1,7,11,1,25,6,9,68,1,6,12,1,25,8,12,Căminul Cultural Costești,,Costești,44.925,22.5822
283,27,MEHEDINȚI,VOLOIAC,127,2,22,3,0,8,9,14,126,2,26,2,0,8,9,12,Școala Generală I-IV Cotoroaia,,Cotoroaia,44.6477,23.0341
241,27,MEHEDINȚI,PRISTOL,151,1,31,0,0,29,15,21,150,2,34,1,0,29,17,22,Școala Generală Cozia,,Cozia,44.215,22.7113
97,27,MEHEDINȚI,BALA,87,7,22,1,1,11,1,9,78,6,18,1,2,25,2,8,Școala Generală I-VIII Crainici,,Crainici,44.903,22.8727
274,27,MEHEDINȚI,TÎMNA,37,2,11,0,1,9,1,6,35,2,13,0,1,10,1,4,Școala Cremenea,,Cremenea,44.6054,23.0181
129,27,MEHEDINȚI,BURILA MARE,172,6,29,16,0,9,5,12,172,8,35,13,1,8,4,7,Școala Generală Crivina,,Crivina,44.5068,22.5699
151,27,MEHEDINȚI,CUJMIR,262,5,210,7,2,19,11,16,265,6,208,5,1,19,13,18,Căminul Cultural,,Cujmir,44.2071,22.9268
152,27,MEHEDINȚI,CUJMIR,207,1,172,5,1,15,4,10,216,0,167,2,1,18,4,8,Căminul Cultural,,Cujmir,44.2071,22.9268
154,27,MEHEDINȚI,CUJMIR,76,5,103,5,0,5,0,6,83,3,103,4,1,4,1,4,Grădinița Cujmiru Mic,,Cujmiru Mic,44.1923,22.9214
185,27,MEHEDINȚI,GROZEŞTI,190,0,41,5,3,11,12,23,199,0,43,5,2,14,13,21,Școala Generală I-IV Cîrceni,,Cârceni,44.6636,23.2593
139,27,MEHEDINȚI,CĂZĂNEŞTI,192,4,149,7,0,50,4,8,189,6,152,5,1,46,3,13,Școala Generală I-IV Căzănești,,Căzănești,44.7239,22.8952
262,27,MEHEDINȚI,ŞIMIAN,222,4,11,1,1,3,4,13,210,5,15,2,1,8,6,13,Școala Generală I-IV Dedovița Nouă,,Dedovița Nouă,44.626,22.73
155,27,MEHEDINȚI,DEVESEL,237,6,411,2,2,21,9,29,240,6,406,4,1,23,8,28,Căminul Cultural Devesel,,Devesel,44.4696,22.6672
112,27,MEHEDINȚI,BĂLĂCIŢA,152,0,12,3,0,3,5,10,150,0,10,3,0,3,6,12,Școala Primară Dobra,,Dobra,44.3921,23.0842
250,27,MEHEDINȚI,PUNGHINA,142,4,11,17,2,7,2,14,144,3,15,15,3,5,2,11,Căminul Cultural Drincea,,Drincea,44.3034,22.9969
1,27,MEHEDINȚI,MUNICIPIUL DROBETA-TURNU SEVERIN,253,43,139,26,3,92,21,52,277,36,151,21,4,80,22,44,Consiliul Local Drobeta-Turnu Severin - Palatul Culturii „Teodor Costescu”,Bulevardul Carol I (Bulevardul Republicii) nr. 4,Drobeta-Turnu Severin,44.6241,22.653
2,27,MEHEDINȚI,MUNICIPIUL DROBETA-TURNU SEVERIN,247,40,116,33,1,57,21,40,252,32,125,35,1,58,17,34,Colegiul Național „Traian”,Bulevardul Carol I (Bulevardul Republicii) nr. 6,Drobeta-Turnu Severin,44.6244,22.6595
3,27,MEHEDINȚI,MUNICIPIUL DROBETA-TURNU SEVERIN,241,49,142,41,2,62,28,62,229,59,140,35,3,82,29,52,Școala Gimnazială „Dumitru I.Totir” (Școala Generală nr. 10),Str. Mihail Eminescu nr. 12,Drobeta-Turnu Severin,44.6297,22.6613
4,27,MEHEDINȚI,MUNICIPIUL DROBETA-TURNU SEVERIN,207,41,103,24,2,35,29,49,207,33,114,22,2,39,22,44,Școala Gimnazială „Dumitru I.Totir” (Școala Generală nr. 10),Str. Mihail Eminescu nr. 12,Drobeta-Turnu Severin,44.6297,22.6613
5,27,MEHEDINȚI,MUNICIPIUL DROBETA-TURNU SEVERIN,187,30,90,11,1,33,17,35,183,32,91,17,1,33,15,31,Asociația de Proprietari nr. 90,Str. Brâncoveanu nr. 172,Drobeta-Turnu Severin,44.6318,22.6584
6,27,MEHEDINȚI,MUNICIPIUL DROBETA-TURNU SEVERIN,243,42,125,21,0,49,27,45,241,37,133,21,0,49,21,39,Liceul Tehnologic Special „Drobeta” (Școala Energetică),Str. Independenței nr. 28,Drobeta-Turnu Severin,44.63,22.6664
7,27,MEHEDINȚI,MUNICIPIUL DROBETA-TURNU SEVERIN,197,18,85,20,1,36,20,31,187,16,92,19,1,44,14,28,Liceul Tehnologic Special „Drobeta” (Școala Energetică),Str. Independenței nr. 28,Drobeta-Turnu Severin,44.63,22.6664
8,27,MEHEDINȚI,MUNICIPIUL DROBETA-TURNU SEVERIN,233,15,80,12,3,37,20,44,227,16,89,11,2,42,15,36,S.C. Transport Public Urban „Drobeta” S.A. (Autogară),Str. Topolniții nr. 3,Drobeta-Turnu Severin,44.6313,22.673
9,27,MEHEDINȚI,MUNICIPIUL DROBETA-TURNU SEVERIN,263,33,81,24,1,43,33,51,255,34,91,19,1,48,26,48,Școala Gimnazială „Constantin Negreanu” (Școala Generală nr. 9),Str. Traian nr. 281,Drobeta-Turnu Severin,44.627,22.6705
10,27,MEHEDINȚI,MUNICIPIUL DROBETA-TURNU SEVERIN,314,24,83,6,0,35,18,40,295,16,98,7,0,43,19,42,Școala Gimnazială „Constantin Negreanu” (Școala Generală nr. 9),Str. Traian nr. 281,Drobeta-Turnu Severin,44.627,22.6705
11,27,MEHEDINȚI,MUNICIPIUL DROBETA-TURNU SEVERIN,225,14,72,15,1,44,19,40,227,13,74,16,2,43,19,37,Școala Gimnazială „Constantin Negreanu” (Școala Generală nr. 9),Str. Traian nr. 281,Drobeta-Turnu Severin,44.627,22.6705
12,27,MEHEDINȚI,MUNICIPIUL DROBETA-TURNU SEVERIN,233,26,68,22,1,44,23,35,237,25,69,28,0,39,21,32,Oficiul Județean Pentru Finanțarea Investițiilor Rurale,Str. Crișan nr. 87,Drobeta-Turnu Severin,44.6457,22.6464
13,27,MEHEDINȚI,MUNICIPIUL DROBETA-TURNU SEVERIN,201,33,89,27,0,39,13,40,198,33,104,20,0,44,12,37,Oficiul Județean Pentru Finanțarea Investițiilor Rurale Mehedinți,Str. Crișan nr. 87,Drobeta-Turnu Severin,44.6457,22.6464
14,27,MEHEDINȚI,MUNICIPIUL DROBETA-TURNU SEVERIN,231,17,66,17,1,46,25,43,240,14,67,17,1,52,19,34,Colegiul Național „Gheorghe Țițeica”,Str. Crișan nr. 50,Drobeta-Turnu Severin,44.6369,22.6507
15,27,MEHEDINȚI,MUNICIPIUL DROBETA-TURNU SEVERIN,230,48,95,23,1,34,20,39,225,45,99,26,1,35,16,38,Colegiul Național „Gheorghe Țițeica”,Str. Crișan nr. 50,Drobeta-Turnu Severin,44.6369,22.6507
16,27,MEHEDINȚI,MUNICIPIUL DROBETA-TURNU SEVERIN,240,22,68,23,1,48,16,34,236,25,79,22,1,47,13,28,Colegiul Național Economic „Theodor Costescu”,Str. Orly (Str. Mareșal Antonescu) nr. 37,Drobeta-Turnu Severin,44.6374,22.6524
17,27,MEHEDINȚI,MUNICIPIUL DROBETA-TURNU SEVERIN,185,16,53,12,1,37,11,25,183,9,54,13,2,44,10,23,Grădinița cu Program Prelungit nr. 22,Aleea Trandafirilor nr. 1,Drobeta-Turnu Severin,44.64,22.6534
18,27,MEHEDINȚI,MUNICIPIUL DROBETA-TURNU SEVERIN,237,20,63,22,2,25,14,30,220,22,77,17,1,30,17,30,Școala Gimnazială nr. 14,Bulevardul Revoluției 1989 (Bulevardul Cerna) nr. 6,Drobeta-Turnu Severin,44.638,22.655
19,27,MEHEDINȚI,MUNICIPIUL DROBETA-TURNU SEVERIN,242,16,67,17,0,21,10,28,230,13,69,9,0,27,12,33,Școala Gimnazială nr. 14,Bulevardul Revoluției 1989 (Bulevardul Cerna) nr. 6,Drobeta-Turnu Severin,44.638,22.655
20,27,MEHEDINȚI,MUNICIPIUL DROBETA-TURNU SEVERIN,248,30,94,19,1,34,21,35,243,34,95,19,2,38,20,32,Asociatia Liga „Solidaritatea” a Pensionarilor,Bulevardul Revoluției 1989 (Bulevardul Cerna) nr. 27,Drobeta-Turnu Severin,44.6379,22.6596
21,27,MEHEDINȚI,MUNICIPIUL DROBETA-TURNU SEVERIN,328,17,93,19,0,36,24,45,324,15,108,14,0,48,18,34,Școala Gimnazială nr. 11,Nr. 1,Drobeta-Turnu Severin,44.6401,22.6569
22,27,MEHEDINȚI,MUNICIPIUL DROBETA-TURNU SEVERIN,287,18,70,7,2,57,20,41,278,23,73,6,1,64,23,40,Școala Gimnazială nr. 11,Nr. 1,Drobeta-Turnu Severin,44.6401,22.6569
23,27,MEHEDINȚI,MUNICIPIUL DROBETA-TURNU SEVERIN,259,45,102,25,3,40,24,40,267,41,117,17,4,38,21,41,Ministerul Sănătății - Serviciul Județean de Ambulanță - Spațiu Administrativ,"Bulevardul Mihai Viteazu (Splaiul Mihai Viteazu, Str. George Bacovia, Str. Marius Tipărescu) nr. 6 A",Drobeta-Turnu Severin,44.6427,22.6544
24,27,MEHEDINȚI,MUNICIPIUL DROBETA-TURNU SEVERIN,381,26,104,20,3,54,22,45,380,20,124,18,3,51,20,39,Direcția de Sănătate Publică Mehedinți - Spitalul Județean de Urgență - Spațiu Administrativ,"Bulevardul Mihai Viteazu (Splaiul Mihai Viteazu, Str. George Bacovia, Str. Marius Tipărescu) nr. 6 D",Drobeta-Turnu Severin,44.6432,22.6533
25,27,MEHEDINȚI,MUNICIPIUL DROBETA-TURNU SEVERIN,279,19,90,23,2,32,14,28,279,20,95,18,1,29,14,28,Direcția de Sănătate Publică Mehedinți - Spitalul Județean de Urgență - Spațiu Administrativ,"Bulevardul Mihai Viteazu (Splaiul Mihai Viteazu, Str. George Bacovia, Str. Marius Tipărescu) nr. 6 D",Drobeta-Turnu Severin,44.6432,22.6533
26,27,MEHEDINȚI,MUNICIPIUL DROBETA-TURNU SEVERIN,311,20,93,21,2,47,28,49,319,16,101,21,2,49,22,45,Grădinița cu Program Prelungit nr. 20,Str. Walter Mărăcineanu nr. 2,Drobeta-Turnu Severin,44.639,22.6594
27,27,MEHEDINȚI,MUNICIPIUL DROBETA-TURNU SEVERIN,159,18,72,21,0,31,12,23,159,14,86,19,0,28,10,20,Colegiul Tehnic „Domnul Tudor”,Bulevardul I. C. Brătianu (Calea Tîrgu Jiului) nr. 7,Drobeta-Turnu Severin,44.6379,22.6618
28,27,MEHEDINȚI,MUNICIPIUL DROBETA-TURNU SEVERIN,290,30,93,13,3,27,16,32,257,23,106,15,1,34,18,35,Colegiul Tehnic „Domnul Tudor”,Bulevardul I. C. Brătianu (Calea Tîrgu Jiului) nr. 7,Drobeta-Turnu Severin,44.6379,22.6618
29,27,MEHEDINȚI,MUNICIPIUL DROBETA-TURNU SEVERIN,219,32,88,25,2,38,25,40,211,31,102,17,2,44,16,37,Colegiul Tehnic „Domnul Tudor”,Bulevardul I. C. Brătianu (Calea Tîrgu Jiului) nr. 7,Drobeta-Turnu Severin,44.6379,22.6618
30,27,MEHEDINȚI,MUNICIPIUL DROBETA-TURNU SEVERIN,213,18,74,25,1,35,15,34,215,16,83,19,2,41,7,23,Colegiul Tehnic „Domnul Tudor”,Bulevardul I. C. Brătianu (Calea Tîrgu Jiului) nr. 7,Drobeta-Turnu Severin,44.6379,22.6618
31,27,MEHEDINȚI,MUNICIPIUL DROBETA-TURNU SEVERIN,291,34,72,17,0,65,27,40,290,27,89,16,0,60,19,30,Primăria Municipiului Drobeta-Turnu Severin (Stadionul Municipal),Str. Independenței nr. 40,Drobeta-Turnu Severin,44.6388,22.6664
32,27,MEHEDINȚI,MUNICIPIUL DROBETA-TURNU SEVERIN,238,20,63,13,1,35,16,29,246,19,67,11,1,31,12,23,Colegiul Tehnic „Lorin Sălăgean” (Liceul Industrial nr. 4),Calea Tîrgu Jiului nr. 9 D,Drobeta-Turnu Severin,44.6407,22.6657
33,27,MEHEDINȚI,MUNICIPIUL DROBETA-TURNU SEVERIN,246,22,104,40,2,33,33,48,245,21,111,40,3,26,31,47,Grădinița cu Program Prelungit nr. 3,Bulevardul I. C. Brătianu (Calea Tîrgu Jiului) nr. 4,Drobeta-Turnu Severin,44.6336,22.6575
34,27,MEHEDINȚI,MUNICIPIUL DROBETA-TURNU SEVERIN,251,27,86,19,1,55,16,41,247,23,103,14,1,56,12,33,Școala Gimnazială nr. 6,Str. Kiseleff nr. 55,Drobeta-Turnu Severin,44.635,22.6635
35,27,MEHEDINȚI,MUNICIPIUL DROBETA-TURNU SEVERIN,238,54,105,22,0,60,20,33,227,48,112,29,2,56,21,40,Școala Gimnazială nr. 6,Str. Kiseleff nr. 55,Drobeta-Turnu Severin,44.635,22.6635
36,27,MEHEDINȚI,MUNICIPIUL DROBETA-TURNU SEVERIN,212,33,74,24,0,41,24,38,215,32,83,25,0,41,16,27,Școala Gimnazială nr. 6,Str. Kiseleff nr. 55,Drobeta-Turnu Severin,44.635,22.6635
37,27,MEHEDINȚI,MUNICIPIUL DROBETA-TURNU SEVERIN,200,15,85,21,1,38,22,39,202,18,81,25,2,36,21,34,Școala Gimnazială nr. 6,Str. Kiseleff nr. 55,Drobeta-Turnu Severin,44.635,22.6635
38,27,MEHEDINȚI,MUNICIPIUL DROBETA-TURNU SEVERIN,206,18,72,29,2,31,19,29,195,16,85,28,2,29,18,28,Direcția Regională de Drumuri și Poduri Craiova,Str. Topolniții nr. 24,Drobeta-Turnu Severin,44.6353,22.6728
39,27,MEHEDINȚI,MUNICIPIUL DROBETA-TURNU SEVERIN,180,19,59,24,1,48,29,37,177,19,62,23,2,52,24,33,Școala Gimnazială „Petre Sergescu”,Aleea Cloșani nr. 6,Drobeta-Turnu Severin,44.6345,22.6754
40,27,MEHEDINȚI,MUNICIPIUL DROBETA-TURNU SEVERIN,195,20,63,20,2,19,21,31,193,19,70,19,1,19,21,33,Primăria Municipiului Drobeta-Turnu Severin - Spatiu Administrativ,Str. Petre Sergescu (Aleea Celulozei) nr. 3,Drobeta-Turnu Severin,44.6335,22.6738
41,27,MEHEDINȚI,MUNICIPIUL DROBETA-TURNU SEVERIN,228,18,62,15,2,32,19,29,225,16,75,13,1,34,14,21,Grădinița cu Program Prelungit nr. 21,Str. Petre Sergescu (Aleea Celulozei) nr. 3,Drobeta-Turnu Severin,44.6339,22.6739
42,27,MEHEDINȚI,MUNICIPIUL DROBETA-TURNU SEVERIN,209,7,59,6,1,25,17,32,208,8,54,11,2,26,18,27,Școala Gimnazială „Petre Sergescu” (Școala Generală nr. 4),Aleea Cloșani nr. 6,Drobeta-Turnu Severin,44.6345,22.6754
43,27,MEHEDINȚI,MUNICIPIUL DROBETA-TURNU SEVERIN,229,10,54,15,0,22,17,31,219,13,54,16,0,26,13,31,Școala Gimnazială „Petre Sergescu” (Școala Generală nr. 4),Aleea Cloșani nr. 6,Drobeta-Turnu Severin,44.6345,22.6754
44,27,MEHEDINȚI,MUNICIPIUL DROBETA-TURNU SEVERIN,244,14,61,12,2,40,12,25,226,13,63,12,3,54,9,22,Școala Gimnazială „Petre Sergescu” (Școala Generală nr. 4),Aleea Cloșani nr. 6,Drobeta-Turnu Severin,44.6345,22.6754
45,27,MEHEDINȚI,MUNICIPIUL DROBETA-TURNU SEVERIN,366,52,177,19,4,59,28,41,360,48,187,23,1,58,28,45,Primăria Municipiului Drobeta-Turnu Severin (Sala Polivalentă),Bulevardul Aluniș nr. 1A,Drobeta-Turnu Severin,44.6306,22.6392
46,27,MEHEDINȚI,MUNICIPIUL DROBETA-TURNU SEVERIN,236,29,102,26,1,69,29,50,232,30,113,25,1,66,22,45,Primăria Municipiului Drobeta-Turnu Severin (Sala Polivalentă),Bulevardul Aluniș nr. 1A,Drobeta-Turnu Severin,44.6306,22.6392
47,27,MEHEDINȚI,MUNICIPIUL DROBETA-TURNU SEVERIN,391,57,128,24,2,95,29,65,387,53,144,25,2,95,25,56,Școala Gimnazială „Dimitrie Grecescu” (Școala Generală nr. 1),Str. Traian nr. 18,Drobeta-Turnu Severin,44.6252,22.6466
48,27,MEHEDINȚI,MUNICIPIUL DROBETA-TURNU SEVERIN,244,41,111,37,3,70,29,52,254,42,126,31,1,67,28,42,Colegiul Tehnic „Decebal”,Str. Antonini nr. 2,Drobeta-Turnu Severin,44.6284,22.6516
49,27,MEHEDINȚI,MUNICIPIUL DROBETA-TURNU SEVERIN,236,46,160,30,3,61,21,46,233,44,152,31,2,66,23,49,Școala Gimnazială nr. 3,Nr. 21-23,Drobeta-Turnu Severin,44.6297,22.6517
50,27,MEHEDINȚI,MUNICIPIUL DROBETA-TURNU SEVERIN,281,46,112,18,1,62,22,50,293,39,130,16,1,58,17,39,Școala Gimnazială „Alice Voinescu” (Școala Generală nr. 2),Bulevardul Tudor Vladimirescu nr. 71,Drobeta-Turnu Severin,44.6322,22.651
51,27,MEHEDINȚI,MUNICIPIUL DROBETA-TURNU SEVERIN,228,37,60,20,0,39,18,42,231,43,61,15,0,42,13,34,Școala Gimnazială nr. 15 (fosta Școală Generală nr. 8),Str. Cicero nr. 79,Drobeta-Turnu Severin,44.6359,22.6446
52,27,MEHEDINȚI,MUNICIPIUL DROBETA-TURNU SEVERIN,385,35,92,35,8,63,23,44,380,32,98,32,8,69,21,42,Școala Gimnazială nr. 15 (fosta Școală Generală nr. 8),Str. Cicero nr. 79,Drobeta-Turnu Severin,44.6359,22.6446
53,27,MEHEDINȚI,MUNICIPIUL DROBETA-TURNU SEVERIN,292,39,102,16,0,66,34,54,281,31,130,10,0,74,33,46,Școala Gimnazială „Teodor Costescu” (Școala Generală nr. 7),Str. Păcii nr. 2,Drobeta-Turnu Severin,44.6402,22.641
54,27,MEHEDINȚI,MUNICIPIUL DROBETA-TURNU SEVERIN,259,27,66,23,2,57,22,37,255,29,75,20,2,56,14,29,Școala Gimnazială „Teodor Costescu” (Școala Generală nr. 7),Str. Păcii nr. 2,Drobeta-Turnu Severin,44.6402,22.641
55,27,MEHEDINȚI,MUNICIPIUL DROBETA-TURNU SEVERIN,259,40,93,21,0,47,17,29,263,35,93,22,0,48,17,31,Școala Gimnazială „Teodor Costescu” (Școala Generală nr. 7),Str. Păcii nr. 2,Drobeta-Turnu Severin,44.6402,22.641
56,27,MEHEDINȚI,MUNICIPIUL DROBETA-TURNU SEVERIN,283,28,107,18,2,45,28,44,272,29,117,19,1,52,22,37,Școala Gimnazială „Teodor Costescu” (Școala Generală nr. 7),Str. Păcii nr. 2,Drobeta-Turnu Severin,44.6402,22.641
57,27,MEHEDINȚI,MUNICIPIUL DROBETA-TURNU SEVERIN,192,29,70,14,1,30,19,31,186,26,73,12,1,38,21,32,Școala Gimnazială nr. 15,Str. Crișan nr. 47A,Drobeta-Turnu Severin,44.642,22.648
58,27,MEHEDINȚI,MUNICIPIUL DROBETA-TURNU SEVERIN,195,22,53,13,0,33,13,28,196,18,58,12,0,38,10,19,Școala Gimnazială nr. 15,Str. Crișan nr. 47A,Drobeta-Turnu Severin,44.642,22.648
59,27,MEHEDINȚI,MUNICIPIUL DROBETA-TURNU SEVERIN,248,28,74,23,1,30,11,31,239,24,92,20,1,30,8,33,Școala Gimnazială nr. 15,Str. Crișan nr. 47A,Drobeta-Turnu Severin,44.642,22.648
60,27,MEHEDINȚI,MUNICIPIUL DROBETA-TURNU SEVERIN,326,35,100,39,3,50,25,49,321,33,117,32,3,49,19,39,Școala Gimnazială nr. 15,Str. Crișan nr. 47A,Drobeta-Turnu Severin,44.642,22.648
61,27,MEHEDINȚI,MUNICIPIUL DROBETA-TURNU SEVERIN,281,19,73,6,0,36,9,24,272,14,76,6,0,46,12,24,Grădinița cu Program Prelungit nr. 15,Calea Timișoarei (Str. Schelei) nr. 164,Drobeta-Turnu Severin,44.6251,22.6117
62,27,MEHEDINȚI,MUNICIPIUL DROBETA-TURNU SEVERIN,258,42,83,10,4,29,16,36,259,37,100,10,4,25,22,33,Grădinița cu Program Prelungit nr. 15,Calea Timișoarei (Str. Schelei) nr. 164,Drobeta-Turnu Severin,44.6251,22.6117
63,27,MEHEDINȚI,MUNICIPIUL DROBETA-TURNU SEVERIN,250,5,138,15,0,32,4,23,249,4,149,10,0,29,5,23,Grădinița cu Program Prelungit nr. 15,Calea Timișoarei (Str. Schelei) nr. 164,Drobeta-Turnu Severin,44.6251,22.6117
64,27,MEHEDINȚI,MUNICIPIUL DROBETA-TURNU SEVERIN,300,18,130,18,0,19,7,33,298,16,132,18,0,20,8,27,Școala Gimnazială nr. 5,Bulevardul Vîrciorova nr. 5,Drobeta-Turnu Severin,44.6328,22.6101
65,27,MEHEDINȚI,MUNICIPIUL DROBETA-TURNU SEVERIN,439,12,93,20,0,32,12,27,436,13,100,20,3,31,11,23,Școala Gimnazială „Dimitrie Grecescu” (Școala Generală nr. 15 Gura Văii),Str. Jidoștiței nr. 2,Drobeta-Turnu Severin,44.667,22.5556
161,27,MEHEDINȚI,DUBOVA,101,9,140,16,0,2,4,11,91,8,137,25,0,7,6,13,Primăria Dubova,,Dubova,44.6117,22.2527
261,27,MEHEDINȚI,ŞIMIAN,484,1,32,5,0,3,7,21,476,2,41,4,2,5,7,12,Școala Generală I-IV Dudașu,,Dudașu,44.6524,22.6952
164,27,MEHEDINȚI,DUMBRAVA,74,0,60,4,1,129,1,9,76,0,64,5,1,130,3,4,Căminul Cultural Dumbrava de Jos,,Dumbrava de Jos,44.5146,23.1526
105,27,MEHEDINȚI,BALA,76,1,12,1,1,21,9,19,74,2,12,2,1,23,6,17,Școala Generală I-VIII Dîlma,,Dâlma,44.9061,22.7382
159,27,MEHEDINȚI,DÎRVARI,218,12,95,14,0,49,4,23,217,14,97,14,0,48,4,18,Căminul Cultural Nou-Dîrvari,,Dârvari,44.1904,23.0477
209,27,MEHEDINȚI,JIANA,442,3,48,7,0,11,4,14,446,3,48,7,0,11,4,14,Căminul Cultural Dănceu,,Dănceu,44.3653,22.7186
162,27,MEHEDINȚI,DUBOVA,24,0,96,2,0,0,0,15,31,0,104,2,0,0,2,3,Fosta Primărie Eibenthal,,Eibenthal,44.5447,22.1594
264,27,MEHEDINȚI,ŞIMIAN,119,0,13,1,0,2,1,2,110,0,17,1,0,5,3,5,Clădire Consumcoop Erghevița,,Erghevița,44.61,22.7824
169,27,MEHEDINȚI,EŞELNIŢA,184,16,89,37,0,25,6,71,176,13,87,48,2,15,6,78,Grădinița Eselnita,,Eșelnița,44.7004,22.3641
170,27,MEHEDINȚI,EŞELNIŢA,185,13,80,49,0,19,4,78,174,16,84,66,0,18,6,67,Grădinița Eselnita,,Eșelnița,44.7004,22.3641
171,27,MEHEDINȚI,FLOREŞTI,468,8,126,9,0,18,5,17,477,6,130,7,0,13,5,17,Școala Generală I-VIII Florești,,Florești,44.7682,22.9392
243,27,MEHEDINȚI,PRUNIŞOR,82,9,22,2,0,7,8,15,81,8,22,3,0,6,7,15,Căminul Cultural Fîntîna Domnească,,Fântâna Domnească,44.6255,22.6594
239,27,MEHEDINȚI,POROINA MARE,75,0,16,7,1,3,2,6,73,0,15,7,1,3,2,5,Școala Generală Fîntânile Negre,,Fântânile Negre,44.4858,22.9176
122,27,MEHEDINȚI,BREZNIŢA-MOTRU,137,0,14,2,1,3,0,2,137,1,16,2,1,1,0,2,Școala Generală I-VIII Făuroaia,,Făuroaia,44.5454,23.2885
160,27,MEHEDINȚI,DÎRVARI,157,2,323,7,0,19,5,18,154,1,331,6,0,22,3,12,Căminul Cultural Vechi-Gemeni,,Gemeni,44.1722,23.0798
245,27,MEHEDINȚI,PRUNIŞOR,149,4,45,7,1,2,5,9,151,4,44,6,1,2,4,7,Imobil Proprietate Privată - Persoană Fizică,,Ghelmegioaia,44.6131,22.8365
234,27,MEHEDINȚI,PONOARELE,149,3,66,6,0,20,9,16,149,3,71,6,0,20,6,15,Căminul Cultural Gheorghești,,Gheorghești,44.9712,22.7214
120,27,MEHEDINȚI,BRANIŞTEA,199,5,24,9,0,5,4,7,199,2,24,8,0,7,3,6,Școala Generală I-IV Goanța,,Goanța,44.2331,22.9611
175,27,MEHEDINȚI,GODEANU,120,2,91,11,0,15,3,10,117,2,92,11,0,14,2,10,Primăria Godeanu,,Godeanu,44.8005,22.6058
176,27,MEHEDINȚI,GOGOŞU,337,8,26,14,0,15,17,26,337,8,26,14,0,15,17,26,Școala Generală Clasele I-VIII Gogoșu,,Gogoșu,44.3746,22.5911
232,27,MEHEDINȚI,PODENI,97,0,6,2,0,3,1,2,96,1,6,1,0,4,2,3,Căminul Cultural Gornenți,,Gornenți,44.9122,22.547
109,27,MEHEDINȚI,BALTA,77,0,7,3,1,8,7,11,73,0,9,3,1,7,9,14,Căminul Cultural Gornovița,,Gornovița,44.9317,22.6317
181,27,MEHEDINȚI,GRECI,237,1,21,34,1,22,3,13,239,4,25,33,2,21,2,8,Căminul Cultural Greci,,Greci,44.5621,23.1049
184,27,MEHEDINȚI,GROZEŞTI,92,0,32,5,1,46,3,7,94,0,31,4,1,42,2,8,Școala Generală I-VIII Grozești,,Grozești,44.6486,23.3058
187,27,MEHEDINȚI,GRUIA,181,10,46,5,1,13,2,10,185,10,48,3,1,13,2,9,Căminul Cultural Gruia,,Gruia,44.2665,22.705
188,27,MEHEDINȚI,GRUIA,318,0,8,0,0,7,0,10,322,1,11,0,0,7,0,3,Stadionul Comunal Gruia,,Gruia,44.272,22.7088
135,27,MEHEDINȚI,BUTOIEŞTI,51,2,28,4,1,57,3,7,52,1,31,4,0,56,4,8,Școala Generală I-IV Gura Motrului,,Gura Motrului,44.554,23.4387
111,27,MEHEDINȚI,BĂLĂCIŢA,254,4,125,5,1,12,3,16,251,5,128,8,0,11,3,16,Școala Gimnazială Gvardinița,,Gvardinița,44.3888,23.1474
173,27,MEHEDINȚI,GÂRLA MARE,291,3,55,28,0,30,27,36,311,2,54,28,1,25,17,24,Căminul Cultural Gîrla Mare,,Gârla Mare,44.2095,22.7756
174,27,MEHEDINȚI,GÂRLA MARE,230,2,47,29,0,10,33,38,250,1,49,29,0,9,15,21,Căminul Cultural Gîrla Mare,,Gârla Mare,44.2095,22.7756
235,27,MEHEDINȚI,PONOARELE,155,2,22,6,1,7,2,5,154,1,21,5,2,12,1,2,Școala Generală I-IV Gărdăneasa,,Gărdăneasa,44.9662,22.7861
205,27,MEHEDINȚI,IZVORU BÎRZII,229,0,102,3,1,15,8,26,223,0,105,5,1,21,7,21,Școala Generală I-VIII Halînga,,Halânga,44.6749,22.6938
191,27,MEHEDINȚI,HINOVA,181,7,54,4,3,28,8,20,184,6,57,4,3,25,7,18,Școala Generală I-VIII Hinova,,Hinova,44.5403,22.7752
88,27,MEHEDINȚI,ORAŞ STREHAIA,109,0,5,2,0,1,8,10,105,0,5,2,1,2,8,11,Școala Generală Hurducești,Nr. Numărul 75,Hurducești,44.6015,23.1389
194,27,MEHEDINȚI,HUSNICIOARA,239,1,147,1,2,7,3,10,231,1,152,4,2,9,3,7,Școala Gimnazială Husnicioara,,Husnicioara,44.6738,22.8535
225,27,MEHEDINȚI,PĂDINA,108,0,10,4,0,7,1,14,106,0,10,5,0,8,1,14,Școala Generală Iablanița,,Iablanița,44.4618,22.9864
198,27,MEHEDINȚI,ILOVIŢA,164,3,103,10,0,12,8,13,174,2,97,6,0,10,7,16,Școala Generală Ilovița,,Ilovița,44.7521,22.4774
197,27,MEHEDINȚI,ILOVĂŢ,212,0,289,7,1,35,5,21,214,0,297,6,1,34,3,12,Dispensar Uman Ilovăț,,Ilovăț,44.8118,22.7609
143,27,MEHEDINȚI,CORCOVA,137,0,57,4,0,1,6,10,140,1,58,3,0,3,3,6,Școala Generală Imoasa,,Imoasa,44.7174,23.0401
200,27,MEHEDINȚI,ISVERNA,355,3,59,6,2,62,0,15,361,4,56,8,2,62,3,17,Cămin Cultural Isverna,,Isverna,44.9796,22.6235
99,27,MEHEDINȚI,BALA,51,1,4,6,1,5,0,3,50,1,4,6,1,6,0,3,Școala Generală I-IV Iupca,,Iupca,44.8656,22.867
218,27,MEHEDINȚI,OBÎRŞIA DE CÎMP,414,7,25,10,1,33,4,10,412,7,25,10,1,32,4,11,Căminul Cultural Izimșa,,Izimșa,44.1796,22.9559
189,27,MEHEDINȚI,GRUIA,219,0,99,11,0,12,17,26,236,6,97,14,0,10,15,20,Școala Generală Izvoarele,,Izvoarele,44.3091,22.6625
212,27,MEHEDINȚI,LIVEZILE,201,6,18,6,1,5,3,7,203,5,18,5,2,4,3,8,Școala Primară Izvoru Aneștilor,,Izvoru Aneștilor,44.5578,22.8535
203,27,MEHEDINȚI,IZVORU BÎRZII,283,6,173,17,0,14,7,13,277,5,174,17,1,19,5,19,Căminul Cultural Izvoru Bîrzii,,Izvoru Bârzii,44.7061,22.6718
132,27,MEHEDINȚI,BURILA MARE,65,2,22,4,2,3,1,4,63,3,21,4,0,7,1,4,Școala Generală Izvoru Frumos,,Izvoru Frumos,44.4519,22.4953
272,27,MEHEDINȚI,TÎMNA,85,0,18,1,0,6,3,16,90,0,16,1,0,5,3,16,Cămin Cultural Izvorălu,,Izvorălu,44.5382,22.9643
213,27,MEHEDINȚI,LIVEZILE,89,0,2,13,0,1,0,2,90,0,2,13,1,1,0,1,Școala Primară Izvorălu de Jos,,Izvorălu de Jos,44.5337,22.9217
206,27,MEHEDINȚI,JIANA,287,1,28,3,0,15,4,5,289,2,30,3,0,6,4,4,Școala Generală I-VIII Jiana,,Jiana,44.4027,22.7111
207,27,MEHEDINȚI,JIANA,331,1,27,6,1,10,2,6,320,1,30,5,0,18,1,4,Școala Generală I-IV Jiana Mare,,Jiana Mare,44.4112,22.6861
208,27,MEHEDINȚI,JIANA,325,1,14,11,0,12,2,18,342,1,18,8,0,1,2,9,Școala Generală I-VIII Jiana Veche,,Jiana Veche,44.3937,22.6615
125,27,MEHEDINȚI,BREZNIŢA-OCOL,274,7,23,23,1,14,10,23,274,5,28,22,1,17,9,21,Școala Generală I-IV Jidoștița,,Jidoștița,44.713,22.5972
146,27,MEHEDINȚI,CORCOVA,206,5,139,7,10,12,8,26,206,2,134,13,8,14,9,23,Căminul Cultural Jirov,,Jirov,44.6722,23.0872
284,27,MEHEDINȚI,VOLOIAC,56,3,6,1,0,7,0,3,52,3,8,1,0,7,0,3,Fosta Școală Generală I-IV Lac,,Lac,44.6113,23.0734
211,27,MEHEDINȚI,LIVEZILE,354,4,45,12,0,6,4,9,356,11,41,11,0,8,1,3,Căminul Cultural Livezile,,Livezile,44.5117,22.8622
87,27,MEHEDINȚI,ORAŞ STREHAIA,132,3,20,4,1,5,3,5,129,4,21,4,1,6,5,7,Școala Generală Lunca Banului,Nr. Numărul 12,Lunca Banului,44.613,23.2425
127,27,MEHEDINȚI,BROŞTENI,361,10,49,4,0,23,5,18,370,13,46,5,0,19,5,15,Cămin Cultural Lupșa de Jos,,Lupșa de Jos,44.731,22.9945
124,27,MEHEDINȚI,BREZNIŢA-OCOL,173,0,85,8,2,10,8,17,171,1,83,8,1,13,8,13,Școala Generală I-IV Magheru,,Magheru,44.6539,22.6283
214,27,MEHEDINȚI,MALOVĂŢ,471,3,66,10,2,25,12,28,454,2,79,10,1,24,21,36,Căminul Cultural Malovăț,,Malovăț,44.7032,22.7314
147,27,MEHEDINȚI,CORCOVA,86,0,73,4,0,61,0,8,83,0,74,5,0,64,1,7,Școala Generală Măru Roșu,,Măru Roșu,44.6692,23.1112
77,27,MEHEDINȚI,ORAŞ BAIA DE ARAMĂ,231,17,83,6,3,58,7,25,239,14,89,5,2,58,6,23,Școala Generală Mărășești,,Mărășești,45.0196,22.7703
201,27,MEHEDINȚI,ISVERNA,91,1,11,7,0,14,1,4,91,2,15,6,0,13,1,3,Școala Generală Nadanova,,Nadanova,44.9472,22.6653
79,27,MEHEDINȚI,ORAŞ BAIA DE ARAMĂ,129,4,35,5,0,13,3,11,129,2,36,5,0,11,5,12,Școala Generală Negoești,,Negoești,44.9838,22.8587
93,27,MEHEDINȚI,ORAŞ VÎNJU MARE,136,3,140,3,0,13,0,6,136,4,145,4,0,11,0,5,Școala Generală I-IV Nicolae Bălcescu,,Nicolae Bălcescu,44.3745,22.8548
268,27,MEHEDINȚI,ŞIŞEŞTI,103,0,113,3,2,20,2,8,100,0,124,2,1,16,0,8,Căminul Cultural Noapteșa,,Noapteșa,44.8006,22.8655
217,27,MEHEDINȚI,OBÎRŞIA DE CÎMP,305,2,44,7,1,30,12,22,318,3,44,4,1,33,10,15,Căminul Cultural Obârșia de Câmp,,Obârșia de Câmp,44.1732,22.9763
219,27,MEHEDINȚI,OBÎRŞIA-CLOŞANI,140,5,91,15,1,25,7,11,148,7,90,16,1,24,4,8,Școala Generală I-VIII Obîrșia Cloșani,,Obârșia-Cloșani,45.0218,22.6851
220,27,MEHEDINȚI,OPRIŞOR,227,3,63,11,1,48,0,15,232,2,64,11,1,46,1,9,Căminul Cultural Oprișor,,Oprișor,44.2869,23.0755
221,27,MEHEDINȚI,OPRIŞOR,166,1,81,6,0,49,2,12,168,1,77,8,0,48,2,13,Școala Generală I-VIII Oprișor,,Oprișor,44.2895,23.0805
94,27,MEHEDINȚI,ORAŞ VÎNJU MARE,179,0,65,5,0,73,4,14,180,1,70,3,0,73,5,13,Școala Generală I-IV Orevița Mare,,Orevița Mare,44.4569,22.9123
66,27,MEHEDINȚI,MUNICIPIUL ORŞOVA,257,29,88,39,3,40,11,42,250,33,95,39,2,39,9,40,Școala cu Clasele I-VIII Petru Dumitriu Sud,Bulevardul Porțile de Fier nr. 64,Orșova,44.7186,22.3978
67,27,MEHEDINȚI,MUNICIPIUL ORŞOVA,196,12,31,28,2,20,7,17,183,10,38,28,1,23,9,21,Liceul Traian Lalescu,Bulevardul Porțile de Fier nr. 32,Orșova,44.7229,22.3959
68,27,MEHEDINȚI,MUNICIPIUL ORŞOVA,202,14,52,17,1,25,9,24,206,15,51,19,0,31,9,15,Liceul Traian Lalescu,Bulevardul Porțile de Fier,Orșova,44.7229,22.3959
69,27,MEHEDINȚI,MUNICIPIUL ORŞOVA,199,13,29,17,1,28,14,33,200,13,27,18,2,28,16,32,Clubul Copiilor,Str. Decebal nr. 7,Orșova,44.7235,22.3948
70,27,MEHEDINȚI,MUNICIPIUL ORŞOVA,190,19,56,11,0,31,9,18,186,14,61,20,0,34,7,16,Clubul Copiilor,Str. Decebal nr. 7,Orșova,44.7235,22.3948
71,27,MEHEDINȚI,MUNICIPIUL ORŞOVA,227,28,78,24,4,43,19,35,228,21,86,27,2,42,16,32,Colegiul Tehnic Dierna,Nr. 11A,Orșova,44.7276,22.4
72,27,MEHEDINȚI,MUNICIPIUL ORŞOVA,252,24,61,21,1,44,15,31,245,20,64,22,1,55,14,31,Școala Generală I-VIII Numărul 1 Nord,Nr. 2,Orșova,44.7327,22.4034
73,27,MEHEDINȚI,MUNICIPIUL ORŞOVA,253,21,93,36,1,64,18,41,256,27,88,36,1,55,16,43,Grădinița Numărul 3,Str. Ștefan cel Mare nr. 16,Orșova,44.7365,22.4068
74,27,MEHEDINȚI,MUNICIPIUL ORŞOVA,80,4,14,4,2,5,7,10,77,4,16,4,1,7,7,11,Grădinița Coramnic,Str. Herculane nr. 1,Orșova,44.7429,22.3987
193,27,MEHEDINȚI,HINOVA,67,2,19,2,1,10,15,20,60,2,20,3,2,11,11,21,Școala Generală I-IV Ostrovu Corbului,,Ostrovu Corbului,44.5183,22.72
179,27,MEHEDINȚI,GOGOŞU,147,7,22,7,0,1,1,7,143,0,23,9,0,3,2,15,Școala Generală Ostrovu Mare,,Ostrovu Mare,44.3796,22.5159
180,27,MEHEDINȚI,GOGOŞU,39,8,19,18,0,9,2,6,35,10,20,17,1,12,0,4,Grădinița Porțile de Fier Ii,,Ostrovu Mare,44.3082,22.5739
195,27,MEHEDINȚI,HUSNICIOARA,110,4,46,1,1,6,1,7,104,4,58,0,1,5,2,4,Căminul Cultural Peri,,Peri,44.6572,22.8933
115,27,MEHEDINȚI,BÎCLEŞ,128,0,4,0,1,14,0,4,126,0,3,0,1,15,0,5,Școala Generală I-IV Petra,,Petra,44.4601,23.0858
273,27,MEHEDINȚI,TÎMNA,94,2,18,1,1,34,1,17,102,1,23,1,1,29,2,13,Școala Generală Plopi,,Plopi,44.5324,23.0141
137,27,MEHEDINȚI,BUTOIEŞTI,147,1,38,11,0,5,3,7,144,0,40,10,0,4,1,10,Școala Generală I-IV Pluta,,Pluta,44.5717,23.3358
231,27,MEHEDINȚI,PODENI,257,4,36,17,0,6,5,17,257,5,39,18,0,5,5,19,Căminul Cultural Podeni,,Podeni,44.8781,22.5436
114,27,MEHEDINȚI,BÎCLEŞ,75,0,9,1,1,23,2,3,75,0,9,1,2,22,1,3,Școala Generală I-IV Podu Grosului,,Podu Grosului,44.4823,23.0652
190,27,MEHEDINȚI,GRUIA,58,1,10,6,0,4,1,4,58,1,10,6,0,4,0,3,Școala Poiana Gruii,,Poiana Gruii,44.2795,22.8173
233,27,MEHEDINȚI,PONOARELE,234,9,102,33,0,21,6,18,232,13,107,33,0,21,7,12,Căminul Cultural Ponoarele,,Ponoarele,44.9743,22.7626
263,27,MEHEDINȚI,ŞIMIAN,125,1,8,2,0,5,1,8,122,0,10,4,0,5,1,8,Școala Generală I-IV Poroina,,Poroina,44.6178,22.776
237,27,MEHEDINȚI,POROINA MARE,211,3,8,6,0,3,4,7,215,4,11,4,0,3,4,4,Școala Generală Poroina Mare,,Poroina Mare,44.5016,22.9287
107,27,MEHEDINȚI,BALTA,125,1,8,2,1,17,2,5,124,1,11,1,1,18,1,4,Căminul Cultural Prejna,,Prejna,44.935,22.6
240,27,MEHEDINȚI,PRISTOL,293,3,60,3,1,26,24,32,290,5,67,5,0,27,19,25,Căminul Cultural Pristol,,Pristol,44.228,22.7056
222,27,MEHEDINȚI,OPRIŞOR,142,1,10,4,0,6,1,7,143,1,7,4,0,7,1,9,Școala Generală Prisăceaua,,Prisăceaua,44.3169,23.0925
242,27,MEHEDINȚI,PRUNIŞOR,207,2,52,9,1,13,4,8,206,2,51,10,0,13,5,11,Școala Generală Prunișor,,Prunișor,44.6069,22.9163
247,27,MEHEDINȚI,PUNGHINA,181,3,38,5,1,8,8,13,177,1,44,5,1,6,7,12,Căminul Cultural Punghina,,Punghina,44.2833,22.9365
223,27,MEHEDINȚI,PĂDINA,91,1,2,6,0,20,0,5,91,2,2,5,0,21,0,5,Căminul Cultural Pădina Mare,,Pădina Mare,44.4421,23.0094
224,27,MEHEDINȚI,PĂDINA,65,2,24,2,1,16,0,7,67,2,22,2,2,15,0,7,Școala Generală Pădina Mică,,Pădina Mică,44.4261,22.9938
227,27,MEHEDINȚI,PĂTULELE,303,6,107,31,0,13,12,25,300,5,117,24,0,18,14,22,Căminul Cultural Pătulele,,Pătulele,44.3452,22.7736
228,27,MEHEDINȚI,PĂTULELE,236,6,99,14,1,17,15,24,239,3,110,12,0,13,15,25,Școala Generală I-IV Pătulele,,Pătulele,44.3456,22.7869
229,27,MEHEDINȚI,PĂTULELE,103,1,30,1,0,5,1,4,103,1,32,1,0,6,1,2,Grădinița nr. 3 Rudărie,,Pătulele,44.3513,22.7889
248,27,MEHEDINȚI,PUNGHINA,212,0,22,4,1,8,3,13,211,0,22,5,1,8,3,10,Școala I-IV Recea,,Recea,44.3207,22.9118
167,27,MEHEDINȚI,DUMBRAVA,23,0,11,0,2,37,2,3,22,0,12,0,2,44,1,1,Căminul Cultural Rocșoreni,,Rocșoreni,44.5317,23.0677
251,27,MEHEDINȚI,ROGOVA,626,13,108,14,0,12,4,22,631,17,106,16,0,11,5,14,Școala Generală I-VIII Rogova,,Rogova,44.469,22.8049
276,27,MEHEDINȚI,VÂNĂTORI,291,4,66,13,2,7,3,8,287,6,70,12,0,6,3,6,Școala Generală I-IV Roșiori,,Roșiori,44.2559,22.9261
103,27,MEHEDINȚI,BALA,94,2,8,2,1,22,9,22,95,2,9,2,1,27,5,13,Școala Generală I-IV Rudina,,Rudina,44.8796,22.7959
252,27,MEHEDINȚI,SALCIA,357,8,99,15,1,23,7,19,343,8,99,21,1,28,8,17,Școala Generală V-VIII Salcia,,Salcia,44.141,22.9285
253,27,MEHEDINȚI,SALCIA,408,4,101,2,0,18,7,21,409,1,95,2,0,21,7,23,Școala Generală V-VIII Salcia,,Salcia,44.141,22.9285
255,27,MEHEDINȚI,STÎNGĂCEAUA,162,3,15,4,0,1,1,3,158,3,17,4,0,0,3,3,Școala Generală Satu Mare,,Satu Mare,44.5791,23.2733
280,27,MEHEDINȚI,VLĂDAIA,20,0,4,10,0,63,0,6,19,0,6,7,1,65,1,5,Școala Generală I-IV Scorila,,Scorila,44.3477,23.0853
158,27,MEHEDINȚI,DEVESEL,140,4,122,3,0,8,17,24,143,5,114,3,1,6,18,25,Școala Generală Scăpău,,Scăpău,44.4645,22.7183
140,27,MEHEDINȚI,CĂZĂNEŞTI,315,12,194,17,0,15,12,22,307,8,200,15,0,30,13,19,Școala Generală I-IV Severinești,,Severinești,44.6946,22.941
226,27,MEHEDINȚI,PĂDINA,211,1,25,12,0,8,1,5,210,1,22,12,0,13,0,4,Căminul Cultural Slașoma,,Slașoma,44.4167,23.0502
85,27,MEHEDINȚI,ORAŞ STREHAIA,91,0,23,4,1,4,5,9,92,0,22,4,1,3,5,8,Școala Generală Slătinicul Mare,Nr. Numărul 51,Slătinicu Mare,44.5986,23.2029
117,27,MEHEDINȚI,BÎCLEŞ,271,0,15,1,1,14,0,5,276,1,15,1,1,16,0,1,Școala Generală I-IV Smadovița,,Smadovița,44.4803,23.2002
145,27,MEHEDINȚI,CORCOVA,137,2,15,1,0,8,2,13,137,2,16,2,0,6,2,11,Școala Generală I-IV Stejaru,,Stejaru,44.685,23.0732
238,27,MEHEDINȚI,POROINA MARE,242,0,15,3,0,3,3,10,244,1,17,2,0,5,4,10,Școala Generală I-IV Stignița,,Stignița,44.4924,23.0003
80,27,MEHEDINȚI,ORAŞ STREHAIA,491,12,47,16,0,14,8,33,490,15,55,12,0,14,7,25,Liceul Tehnologic Matei Basarab,Str. Republicii nr. Numărul 235,Strehaia,44.623,23.2017
81,27,MEHEDINȚI,ORAŞ STREHAIA,438,13,88,18,1,17,10,25,432,12,97,22,1,18,13,23,Grădinița 2,Str. Eroilor nr. Numărul 20,Strehaia,44.6232,23.1941
82,27,MEHEDINȚI,ORAŞ STREHAIA,393,11,49,16,3,18,11,26,383,10,59,15,3,15,12,27,Școala Generală Strehaia,Str. Republicii nr. Numărul 126,Strehaia,44.6213,23.1909
83,27,MEHEDINȚI,ORAŞ STREHAIA,472,10,73,12,5,13,17,35,467,10,82,12,4,13,13,35,Grădinița Vest Strehaia,Str. Republicii nr. Numărul 88,Strehaia,44.6197,23.1834
254,27,MEHEDINȚI,STÎNGĂCEAUA,316,2,60,6,1,21,1,8,316,3,60,7,2,20,1,7,Școala Generală Stîngăceaua,,Stângăceaua,44.6068,23.3131
89,27,MEHEDINȚI,ORAŞ STREHAIA,70,0,8,5,2,3,1,7,71,0,10,4,1,4,1,6,Școala Generală Stăncești,,Stăncești,44.617,23.2653
256,27,MEHEDINȚI,SVINIŢA,234,20,47,9,0,14,5,74,293,13,60,14,0,13,5,11,Primăria Svinița,,Svinița,44.4981,22.1056
183,27,MEHEDINȚI,GRECI,112,1,9,0,0,12,2,4,110,2,8,1,0,13,2,3,Școala Generală Sălătruc,,Sălătruc,44.5731,23.0922
98,27,MEHEDINȚI,BALA,58,4,10,0,1,15,0,3,58,3,11,0,1,16,0,3,Școala Generală I-IV Sărdănești,,Sărdănești,44.8773,22.8866
78,27,MEHEDINȚI,ORAŞ BAIA DE ARAMĂ,107,11,13,16,2,20,4,8,108,11,11,16,2,20,5,8,Școala Generală Titerlești,,Titerlești,45.0219,22.8038
95,27,MEHEDINȚI,ORAŞ VÎNJU MARE,97,3,40,5,0,107,2,7,95,3,45,3,0,106,4,7,Școala Generală I-IV Traian,,Traian,44.4596,22.8557
270,27,MEHEDINȚI,TÎMNA,127,2,34,7,0,54,8,68,135,3,38,9,0,62,6,47,Primăria Tîmna,,Tâmna,44.5896,23.0391
271,27,MEHEDINȚI,TÎMNA,87,5,39,2,0,12,6,26,93,5,46,2,0,11,7,19,Școala Generală Tîmna,,Tâmna,44.5703,23.0078
138,27,MEHEDINȚI,BUTOIEŞTI,80,1,36,9,0,31,1,10,81,1,34,7,2,29,0,11,Școala Generală I-IV Țînțaru,,Tânțaru,44.5372,23.342
150,27,MEHEDINȚI,CORLĂŢEL,218,0,16,4,0,2,2,16,217,1,17,5,0,2,3,10,Școala Profesională Valea Anilor,,Valea Anilor,44.3643,22.9206
285,27,MEHEDINȚI,VOLOIAC,114,1,9,1,0,9,10,14,114,1,7,1,0,7,11,18,Școala Generală I-IV Valea Bună,,Valea Bună,44.6358,23.1081
265,27,MEHEDINȚI,ŞIMIAN,82,1,4,1,0,2,0,1,78,3,6,2,0,2,0,1,Școala Generală Valea Copcii,,Valea Copcii,44.6389,22.7543
166,27,MEHEDINȚI,DUMBRAVA,9,1,27,0,3,43,0,1,10,1,28,0,3,41,0,1,Clădire fosta Școală Valea Marcului,,Valea Marcului,44.5131,23.2496
230,27,MEHEDINȚI,PĂTULELE,118,4,45,1,1,10,1,9,119,3,46,2,1,11,1,4,Căminul Cultural Viașu,,Viașu,44.3527,22.8223
104,27,MEHEDINȚI,BALA,26,3,11,4,2,10,4,7,23,3,11,4,2,14,4,6,Școala Generală I-IV Vidimirești,,Vidimirești,44.8601,22.8259
278,27,MEHEDINȚI,VLĂDAIA,87,8,26,3,1,143,1,13,85,5,24,4,2,156,1,12,"Școala I-VIII Preda Buzescu, Vlădaia",,Vlădaia,44.3556,23.0259
168,27,MEHEDINȚI,DUMBRAVA,45,0,28,0,1,11,1,2,43,2,29,0,1,12,1,1,Clădire fostă Școală Vlădica,,Vlădica,44.5081,23.0712
282,27,MEHEDINȚI,VOLOIAC,219,8,44,8,1,5,3,13,213,7,46,6,1,6,4,16,Școala Generală I-VIII Voloiac,,Voloiac,44.6249,23.0908
131,27,MEHEDINȚI,BURILA MARE,59,2,25,8,0,14,2,6,57,3,23,10,0,16,2,6,Școala Generală Vrancea,,Vrancea,44.5453,22.5982
286,27,MEHEDINȚI,VRATA,568,7,90,12,0,20,9,17,576,8,91,11,0,14,7,16,Căminul Cultural Vrata,,Vrata,44.1905,22.8455
90,27,MEHEDINȚI,ORAŞ VÎNJU MARE,330,24,137,9,0,59,18,30,321,21,142,9,0,64,16,31,Liceul Teoretic Vînju Mare,Str. Rahovei nr. 2,Vânju Mare,44.425,22.873
91,27,MEHEDINȚI,ORAŞ VÎNJU MARE,404,21,121,17,0,92,9,29,413,23,124,16,0,86,9,28,Școala Generală I-VIII Vînju Mare,Str. Libertății,Vânju Mare,44.4227,22.8733
277,27,MEHEDINȚI,VÎNJULEŢ,907,0,23,4,5,3,6,17,890,1,35,4,6,4,7,14,Cămin Cultural Vînjuleț,,Vânjuleț,44.4371,22.7892
275,27,MEHEDINȚI,VÂNĂTORI,335,3,74,11,0,7,8,19,338,2,79,8,0,8,6,12,Școala Generală I-VIII Vînători,,Vânători,44.2423,22.9292
246,27,MEHEDINȚI,PRUNIŞOR,81,6,9,1,0,7,1,7,85,5,9,3,0,5,2,5,Școala Generală Zegaia,,Zegaia,44.6327,22.8348
172,27,MEHEDINȚI,FLOREŞTI,408,4,26,3,0,21,6,14,411,1,30,3,0,25,4,9,Școala Generală I-VIII Zegujani,,Zegujani,44.8083,22.9138
257,27,MEHEDINȚI,ŞIMIAN,654,24,48,9,0,24,4,12,606,22,74,13,0,28,5,20,Școala Generală I-VIII Șimian,,Șimian,44.6147,22.712
258,27,MEHEDINȚI,ŞIMIAN,584,23,63,18,1,25,9,29,552,23,72,23,2,35,7,32,Școala Generală I-VIII Șimian,,Șimian,44.6147,22.712
266,27,MEHEDINȚI,ŞIŞEŞTI,236,5,114,7,1,20,6,14,221,6,120,10,1,16,8,21,Căminul Cultural Șișești,,Șișești,44.7711,22.8481
269,27,MEHEDINȚI,ŞOVARNA,364,7,22,3,1,47,57,71,390,4,30,4,1,48,25,38,Primăria Șovarna,,Șovarna,44.8522,22.7963
281,27,MEHEDINȚI,VLĂDAIA,43,1,5,1,3,81,3,6,38,1,7,2,3,77,2,9,Școala Generală I-IV Ștircovița,,Ștircovița,44.3572,23.0043
186,27,MEHEDINȚI,GROZEŞTI,96,0,14,16,1,14,4,11,91,2,14,12,1,22,3,9,Școala Generală I-IV Șușița,,Șușița,44.6206,23.3644
130,27,MEHEDINȚI,BURILA MARE,105,2,25,16,1,3,4,10,105,1,25,18,1,1,4,10,Școala Generală Țigănași,,Țigănași,44.4308,22.501