id,nr_circumscriptie,circumscriptie,localitate,psd_cdep,usr_cdep,pnl_cdep,pmp_cdep,udmr_cdep,alde_cdep,pru_cdep,altele_cdep,psd_senat,usr_senat,pnl_senat,pmp_senat,udmr_senat,alde_senat,pru_senat,altele_senat,name,address,city,lat,lng
264,32,SATU MARE,POMI,41,0,4,2,1,2,1,2,39,1,3,2,1,3,1,3,Camin Cultural,Nr. 50,Aciua,47.6806,23.3646
119,32,SATU MARE,ACÎŞ,82,4,112,3,213,10,3,24,76,4,128,5,216,8,9,12,Primăria Comunei Acâș,,Acâș,47.5389,22.7844
97,32,SATU MARE,ORAŞ LIVADA,14,1,10,1,177,11,0,3,15,0,9,1,182,12,0,3,Școala Primară Adrian,Nr. 99,Adrian,47.9036,23.1251
168,32,SATU MARE,CĂUAŞ,14,0,2,6,12,7,0,2,12,0,3,6,12,8,0,2,Căminul Cultural,Nr. 67,Ady Endre,47.5814,22.6152
122,32,SATU MARE,AGRIŞ,21,0,8,1,349,1,2,5,23,0,8,3,346,1,2,6,Primăria Agris,Nr. 68,Agriș,47.8817,23.0049
123,32,SATU MARE,AGRIŞ,29,0,11,3,7,14,3,5,27,0,11,3,6,14,4,6,Grădinița cu Program Normal Agrișul Nou,Nr. 65,Agriș,47.8921,22.9844
309,32,SATU MARE,TÎRŞOLŢ,10,3,37,3,1,0,10,13,11,2,40,2,1,0,9,12,Școala Gimnazială Aliceni,Nr. 89,Aliceni,47.9637,23.3062
251,32,SATU MARE,PĂULEŞTI,76,9,30,3,63,15,8,14,74,10,33,2,64,10,10,17,Școala Generală Amați,Nr. 265,Amați,47.7434,22.9174
252,32,SATU MARE,PĂULEŞTI,41,6,24,1,224,0,5,8,39,6,27,1,219,0,5,9,Școala Soltesz Janos Ambud,Nr. 131,Ambud,47.7704,22.9408
125,32,SATU MARE,ANDRID,70,0,30,4,233,75,7,15,72,0,31,5,234,78,7,11,Școala Gimnazială Andrid,Nr. 181,Andrid,47.515,22.3425
128,32,SATU MARE,APA,125,6,101,6,84,23,0,4,124,6,95,5,86,26,3,11,Centru Cultural „Emil Matei” Apa,Nr. 444,Apa,47.7625,23.1981
129,32,SATU MARE,APA,146,7,61,4,36,24,6,16,152,8,70,2,35,22,9,17,Școala Gimnazială „Vasile Lucaciu” Apa,Nr. 43,Apa,47.7632,23.1937
187,32,SATU MARE,CULCIU,25,2,9,1,45,2,0,1,24,2,7,1,47,2,2,3,Gradinița Apateu,Nr. 101,Apateu,47.7752,22.9923
89,32,SATU MARE,ORAŞ ARDUD,142,18,158,18,81,16,12,33,140,25,163,18,81,14,14,25,Liceul Tehnologic,Str. Mihai Viteazu nr. 2/a,Ardud,47.6453,22.8916
90,32,SATU MARE,ORAŞ ARDUD,82,2,91,10,256,4,8,28,83,2,103,7,257,4,5,14,Biblioteca Ardud,Str. Ștefan cel Mare nr. 76,Ardud,47.6381,22.8865
198,32,SATU MARE,DOROLŢ,9,0,4,2,146,1,1,4,8,0,3,2,152,1,1,4,Camin Cultural Atea,Nr. FN,Atea,47.8703,22.7903
91,32,SATU MARE,ORAŞ ARDUD,84,4,61,3,5,6,4,12,88,3,57,3,7,4,5,10,Școala Generală Baba Novac,Str. Doamna Stanca nr. 2,Baba Novac,47.6504,22.7921
150,32,SATU MARE,BOGDAND,83,2,64,6,5,8,9,13,87,0,64,8,5,7,6,13,Școala cu Clasele I-VIII,Nr. 346,Babța,47.4582,22.9416
283,32,SATU MARE,SĂUCA,45,0,12,17,84,4,1,5,46,2,11,18,93,3,1,2,Școala cu Clasele I-VIII Becheni,Nr. 102,Becheni,47.452,22.446
134,32,SATU MARE,BELTIUG,71,3,141,5,84,10,11,108,69,5,209,7,102,9,10,19,Școala Gimnazială Beltiug,Nr. 617,Beltiug,47.5471,22.8424
219,32,SATU MARE,LAZURI,6,0,7,3,205,3,1,4,8,0,6,2,204,3,1,1,Școala cu Clasele I-IV Bercu,,Bercu,47.9156,22.885
241,32,SATU MARE,ODOREU,20,1,3,2,22,1,2,3,20,1,3,1,23,1,2,3,Casa de Tip Familial „Iris”,Nr. 109,Berindan,47.7849,23.0106
140,32,SATU MARE,BERVENI,20,3,7,1,590,12,2,4,17,3,8,1,595,14,2,4,Școala Generală Berveni,Nr. 117,Berveni,47.755,22.4717
265,32,SATU MARE,POMI,50,1,5,4,2,4,0,1,46,3,7,3,1,4,1,2,Camin Cultural,Nr. 31,Bicău,47.665,23.2823
142,32,SATU MARE,BIXAD,74,3,48,6,1,3,29,32,75,3,52,5,2,3,23,27,Școala Generală Bixad,Nr. 105,Bixad,47.9328,23.3969
143,32,SATU MARE,BIXAD,83,9,45,8,1,12,12,19,90,11,45,6,1,9,9,16,Școala Generală Bixad,Nr. 105,Bixad,47.9328,23.3969
115,32,SATU MARE,ORAŞ TĂŞNAD,41,2,12,4,4,5,3,5,41,3,11,5,4,5,4,5,Grădinița cu Program Normal Blaja,Nr. 81/A,Blaja,47.4575,22.554
299,32,SATU MARE,TARNA MARE,68,0,101,10,0,5,2,8,69,0,103,12,1,3,1,10,Căminul Cultural Bocicău,Nr. 67,Bocicău,48.094,23.1513
149,32,SATU MARE,BOGDAND,5,0,6,1,309,4,1,4,5,1,6,1,306,4,1,6,Primăria Comunei Bogdand,Nr. 310/A,Bogdand,47.4153,22.9342
193,32,SATU MARE,DOBA,43,3,10,3,62,25,5,7,41,4,10,2,66,26,4,5,Școala Generală Boghiș,Nr. 331,Boghiș,47.7593,22.6718
144,32,SATU MARE,BIXAD,72,12,89,10,4,1,3,27,77,14,93,15,4,4,1,11,Boinesti Școala Generală,Nr. 179,Boinești,47.9153,23.3492
135,32,SATU MARE,BELTIUG,12,1,7,1,1,1,2,4,12,1,8,1,2,1,1,2,Căminul Cultural Bolda,Nr. 53,Bolda,47.5311,22.9164
266,32,SATU MARE,POMI,72,3,27,10,4,72,1,9,68,4,33,11,4,69,1,7,Școala Generală,Nr. 194,Borlești,47.6779,23.3338
153,32,SATU MARE,BOTIZ,94,11,66,9,144,68,6,14,91,9,68,8,149,66,5,17,Primăria Botiz,Str. Mioriței nr. 63,Botiz,47.8324,22.9545
154,32,SATU MARE,BOTIZ,141,13,93,6,87,41,7,21,139,17,91,5,87,43,10,23,Școala Gimnazială cu Clasele I-IV Osvareu,Str. Teilor nr. 61,Botiz,47.8341,22.9414
148,32,SATU MARE,BÎRSĂU,107,7,72,6,0,8,2,6,103,6,78,6,0,8,2,7,Sediu Administrativ,Nr. 87,Bârsău de Jos,47.5958,23.2622
147,32,SATU MARE,BÎRSĂU,470,2,115,7,0,10,2,13,470,2,115,8,0,9,1,7,Primăria Bârsău,Nr. 277,Bârsău de Sus,47.5921,23.218
206,32,SATU MARE,HALMEU,6,0,6,1,135,1,0,4,6,0,5,1,136,2,1,4,Grădinița Băbești,Nr. 22,Băbești,47.9686,23.0777
229,32,SATU MARE,MEDIEŞU AURIT,115,2,23,2,1,9,6,16,111,2,23,1,1,10,11,22,Grădinița,Nr. 50,Băbășești,47.7758,23.0979
131,32,SATU MARE,BĂTARCI,215,0,194,9,1,18,15,28,216,1,193,11,1,19,12,24,Școala Gimnazială Bătarci,Nr. 86,Bătarci,48.0354,23.1492
75,32,SATU MARE,MUNICIPIUL CAREI,83,8,50,15,261,23,5,17,87,6,50,13,269,22,6,12,Liceul Romano-Catolic „Josephus Calasantius”,Str. Iuliu Maniu (Str. Culturii) nr. 1,Carei,47.6892,22.4645
76,32,SATU MARE,MUNICIPIUL CAREI,125,13,51,9,292,32,7,22,127,14,54,9,289,31,7,21,Colegiul Tehnic „Iuliu Maniu”,Str. Iuliu Maniu (Str. Culturii) nr. 18,Carei,47.6886,22.4674
77,32,SATU MARE,MUNICIPIUL CAREI,91,14,35,8,469,14,10,21,89,13,35,8,473,16,9,14,Liceul Tehnologic „Simion Bărnuțiu”,Nr. 12,Carei,47.6845,22.4603
78,32,SATU MARE,MUNICIPIUL CAREI,112,17,46,10,369,39,3,16,113,18,42,10,358,38,5,15,Școala Gimnazială nr. 1,Str. 1 Decembrie 1918 nr. 30,Carei,47.6884,22.4619
79,32,SATU MARE,MUNICIPIUL CAREI,142,22,52,14,333,28,23,34,149,21,44,12,331,36,21,31,Școala Gimnazială „Vasile Lucaciu” nr. 2,Str. Vasile Lucaciu nr. 16,Carei,47.6862,22.4708
80,32,SATU MARE,MUNICIPIUL CAREI,85,16,48,7,246,17,3,11,92,14,47,4,246,17,3,10,Grădinița cu Program Normal nr. 9,Str. Vasile Lucaciu nr. 16,Carei,47.6862,22.4708
81,32,SATU MARE,MUNICIPIUL CAREI,131,12,65,17,352,33,11,26,130,14,68,12,351,31,15,32,Grădinița cu Program Normal nr. 10,Str. Liszt Ferenc (Str. Rapsodiei) nr. 1,Carei,47.684,22.4759
82,32,SATU MARE,MUNICIPIUL CAREI,169,19,85,12,282,24,13,26,169,22,80,10,289,29,14,23,Școala Gimnazială nr. 3,Nr. 18,Carei,47.6798,22.4677
83,32,SATU MARE,MUNICIPIUL CAREI,82,11,32,12,264,15,3,8,83,10,35,7,264,17,3,7,Liceul Teoretic Carei,Nr. 20,Carei,47.6796,22.4666
84,32,SATU MARE,MUNICIPIUL CAREI,176,11,68,13,399,29,10,30,178,15,70,9,397,32,11,24,Grădinița cu Program Normal nr. 5,Str. Tireamului nr. 27,Carei,47.6769,22.4703
85,32,SATU MARE,MUNICIPIUL CAREI,69,5,52,5,259,21,17,22,69,5,44,5,262,27,15,20,Grădinița cu Program Normal nr. 8,Str. Viilor nr. 2,Carei,47.6795,22.4588
86,32,SATU MARE,MUNICIPIUL CAREI,125,14,65,11,450,46,16,25,121,13,70,8,448,52,14,24,Muzeul Municipal Carei,Nr. 1,Carei,47.6773,22.4533
87,32,SATU MARE,MUNICIPIUL CAREI,52,5,28,9,202,9,5,13,50,6,28,6,203,10,10,15,Școala Generală nr. 4,,Carei,47.6773,22.4533
284,32,SATU MARE,SĂUCA,40,0,9,15,9,17,4,6,38,0,8,16,9,17,4,4,Școala cu Clasele I-IV Cean,Nr. 44,Cean,47.4436,22.5176
172,32,SATU MARE,CEHAL,230,7,60,5,2,4,2,8,229,9,64,5,2,3,1,4,Școala Cehal,Nr. 128,Cehal,47.3844,22.5929
171,32,SATU MARE,CEHAL,21,1,14,5,235,2,1,5,20,1,13,6,238,2,1,3,Camin Cultural,Nr. 288,Cehăluț,47.422,22.5686
174,32,SATU MARE,CERTEZE,60,0,55,13,2,4,75,82,74,2,73,17,2,5,39,44,Școala Gimnazială Certeze,Nr. 93,Certeze,47.907,23.4617
175,32,SATU MARE,CERTEZE,49,1,54,9,2,12,92,99,73,3,82,12,2,13,36,43,Școala Gimnazială Certeze,Nr. 93,Certeze,47.907,23.4617
281,32,SATU MARE,SĂCĂŞENI,24,1,9,9,2,7,1,5,22,0,11,9,1,7,3,7,Camin Cultural Chegea,Nr. 177,Chegea,47.4574,22.6787
278,32,SATU MARE,SANTĂU,31,2,115,6,32,36,1,1,30,2,126,5,31,27,1,2,Școala Prim. Chereușa,Nr. -,Chereușa,47.4927,22.4498
214,32,SATU MARE,HOMOROADE,29,3,35,2,0,2,16,19,26,3,37,2,1,2,16,18,Școala Chilia,,Chilia,47.6416,23.0824
269,32,SATU MARE,PORUMBEŞTI,26,1,13,2,321,4,1,18,30,2,11,4,320,3,2,15,Școala Gimnazială Cidreag,Nr. 16,Cidreag,47.9865,22.9626
116,32,SATU MARE,ORAŞ TĂŞNAD,58,2,20,9,1,1,1,4,59,2,19,9,2,1,0,4,Grădinița cu Program Normal Cig,Nr. 148,Cig,47.5275,22.6413
332,32,SATU MARE,VIILE SATU MARE,26,2,35,1,4,19,4,6,26,3,36,1,4,19,5,6,Grădinița Cionchești,Nr. 40/B,Cionchești,47.701,22.9121
178,32,SATU MARE,CIUMEŞTI,17,3,7,2,330,2,0,5,19,3,4,3,330,2,0,2,Căminul Cultural,Nr. 266,Ciumești,47.6633,22.3357
124,32,SATU MARE,AGRIŞ,23,1,16,4,48,4,1,3,24,2,16,3,46,4,1,2,Școala Primară Ciuperceni,Nr. 37,Ciuperceni,47.8666,23.0025
156,32,SATU MARE,CĂLINEŞTI-OAŞ,61,4,59,7,3,24,3,9,64,6,58,8,2,20,4,8,Școala Coca,Nr. 68,Coca,47.9007,23.2529
132,32,SATU MARE,BĂTARCI,82,0,91,17,2,8,1,7,81,2,90,15,2,7,4,12,Căminul Cultural Comlăușa,Nr. 43,Comlăușa,48.0525,23.1539
189,32,SATU MARE,CULCIU,32,1,9,2,71,1,0,5,32,1,9,1,73,1,0,4,Gradinița Corod,Nr. 189,Corod,47.7584,23.0074
151,32,SATU MARE,BOGDAND,55,1,27,2,2,41,3,5,52,1,30,1,2,40,3,7,Școala cu Clasele I-VIII,Nr. 160,Corund,47.4223,22.868
179,32,SATU MARE,CRAIDOROLŢ,106,2,25,1,73,22,5,13,100,3,28,2,71,24,5,9,Primăria Craidorolt,Nr. 106,Craidorolț,47.6118,22.7021
180,32,SATU MARE,CRAIDOROLŢ,29,1,6,0,1,8,5,11,27,1,6,0,1,7,6,12,Școala Primară Crișeni,Nr. 20,Crișeni,47.6385,22.679
183,32,SATU MARE,CRUCIŞOR,91,2,19,26,1,15,7,10,82,4,26,20,1,18,6,11,Școala cu Clasele I-IV Crucisor,Nr. 152,Crucișor,47.6863,23.2367
186,32,SATU MARE,CULCIU,89,2,18,10,78,9,4,8,94,2,17,11,77,8,3,7,Sediul Consiliului Local al Comunei Culciu,Nr. 234,Culciu Mare,47.7567,23.0569
190,32,SATU MARE,CULCIU,32,2,11,3,123,4,2,6,32,1,14,2,122,3,2,7,Școala Primară Culciu-Mic,Nr. 122,Culciu Mic,47.7644,23.0347
287,32,SATU MARE,SOCOND,79,4,12,1,2,19,1,3,80,4,12,1,1,19,1,4,Caminul Cultural Cuta,Nr. 164/A,Cuța,47.5391,23.0035
155,32,SATU MARE,CĂLINEŞTI-OAŞ,116,6,136,8,1,36,12,19,121,7,138,5,3,37,8,12,Primăria Calinesti Oas,Nr. 1,Călinești-Oaș,47.9083,23.2968
159,32,SATU MARE,CĂLINEŞTI-OAŞ,73,7,90,2,1,11,7,10,67,5,94,4,1,10,5,11,Spclep Calinesti Oas,Nr. 1A,Călinești-Oaș,47.9085,23.297
162,32,SATU MARE,CĂMIN,17,3,32,3,500,2,2,23,20,2,30,5,510,1,2,8,Școala Gimnazială Camin,Nr. 195,Cămin,47.7292,22.4779
160,32,SATU MARE,CĂMĂRZANA,102,3,73,5,2,61,3,8,118,5,71,5,2,39,5,11,Primăria Com. Camarzana,Nr. 338,Cămărzana,47.9947,23.3073
161,32,SATU MARE,CĂMĂRZANA,59,3,73,3,1,55,5,15,73,4,73,5,2,48,1,7,Școala Generală Camarzana,Nr. 459,Cămărzana,47.9927,23.3094
163,32,SATU MARE,CĂPLENI,6,2,3,2,500,7,0,4,5,1,4,1,500,9,0,0,Primăria Comunei Căpleni,Nr. 619,Căpleni,47.7102,22.5029
164,32,SATU MARE,CĂPLENI,13,1,12,25,554,4,1,12,12,1,11,31,553,4,1,6,Școala Gimnazială „Fényi István” Căpleni,Nr. 163,Căpleni,47.705,22.4967
188,32,SATU MARE,CULCIU,42,3,10,5,250,3,2,6,42,3,6,4,252,3,2,7,Școala de Gimnazială Bem Jozsef Cărășeu,Nr. 328,Cărășeu,47.741,23.0975
165,32,SATU MARE,CĂUAŞ,61,1,13,22,5,76,3,17,61,3,14,23,7,78,6,10,Școala Gimnazială,Nr. 240,Căuaș,47.5688,22.5447
194,32,SATU MARE,DOBA,46,1,17,3,2,4,2,2,45,1,17,2,2,5,2,3,Cămin Cultural Dacia,Nr. 98,Dacia,47.7335,22.655
199,32,SATU MARE,DOROLŢ,3,1,2,0,605,2,2,6,3,1,1,2,598,2,3,10,Școala Dara,Nr. 79,Dara,47.8148,22.7404
328,32,SATU MARE,VETIŞ,113,15,50,21,4,87,7,13,106,17,45,19,3,96,10,20,Caminul Cultural din Decebal,Nr. 231,Decebal,47.7659,22.7533
126,32,SATU MARE,ANDRID,28,3,21,42,149,8,3,7,26,3,21,44,145,6,5,11,Școala Primară Dindesti,Nr. 210,Dindești,47.5333,22.3798
257,32,SATU MARE,PETREŞTI,10,0,3,2,71,3,1,5,10,0,2,3,75,3,2,4,Școala Gimnazială Dr. Stefan Vonhaz Petresti,Nr. 35,Dindeștiu Mic,47.5729,22.3507
192,32,SATU MARE,DOBA,70,5,30,5,82,87,8,16,72,8,27,4,83,86,6,11,Primăria Comunei Doba,Nr. 56,Doba,47.743,22.7132
207,32,SATU MARE,HALMEU,15,0,2,1,90,1,0,2,13,0,2,2,87,1,0,4,Grădinița Dabolț,Nr. 89,Dobolț,47.9832,23.036
292,32,SATU MARE,SUPUR,10,0,4,1,344,1,0,2,10,0,4,2,346,1,1,2,Școala Gimnazială Dobra,Nr. 307,Dobra,47.4936,22.8287
237,32,SATU MARE,MOFTIN,94,3,9,8,30,115,6,13,97,4,10,8,31,116,4,6,Școala Generală Cl I-VIIIi,Nr. 78,Domănești,47.7129,22.5924
197,32,SATU MARE,DOROLŢ,23,0,5,6,640,9,1,9,21,2,6,2,644,9,2,7,Primăria Comunei Dorolt,Nr. 83,Dorolț,47.8429,22.8119
317,32,SATU MARE,TURULUNG,167,7,51,8,1,12,6,13,174,6,51,6,3,9,4,11,Școala Gimnazială Draguseni,Str. Principală nr. 42,Drăgușeni,47.9055,23.0767
98,32,SATU MARE,ORAŞ LIVADA,185,5,47,8,12,10,5,12,181,8,51,5,12,9,6,14,Școala Gimnazială „Iosif Țiproc” Dumbrava,Nr. 212,Dumbrava,47.8429,23.0686
181,32,SATU MARE,CRAIDOROLŢ,46,1,20,6,44,1,2,8,48,2,22,6,44,0,3,6,Școala Primară Eriu Sâncrai,Nr. 156,Eriu Sâncrai,47.5742,22.6721
201,32,SATU MARE,FOIENI,14,4,16,2,692,2,1,27,18,3,19,3,706,2,3,4,Consiliul Local Foieni,Nr. 469,Foieni,47.6972,22.3837
302,32,SATU MARE,TEREBEŞTI,84,3,32,11,1,52,12,16,92,3,33,12,1,43,13,17,Grădinița cu Program Normal Gelu,Nr. 152,Gelu,47.6834,22.7827
92,32,SATU MARE,ORAŞ ARDUD,52,0,45,9,1,10,2,5,49,1,44,7,1,11,3,5,Școala Generală Gerăușa,Str. Școlii nr. 5,Gerăușa,47.6084,22.9386
170,32,SATU MARE,CĂUAŞ,19,0,11,10,164,97,7,12,20,0,13,11,164,93,8,11,Căminul Cultural,Nr. 86,Ghenci,47.6296,22.5264
314,32,SATU MARE,TURŢ,150,7,111,7,3,25,4,9,146,9,113,6,1,22,7,12,Școala cu Clasele Primare Gherta Mare,Nr. 76,Gherța Mare,47.9693,23.203
202,32,SATU MARE,GHERŢA MICĂ,206,1,71,12,1,23,2,9,218,1,72,9,1,19,1,4,Primăria Comunei,Nr. 234,Gherța Mică,47.9355,23.2184
203,32,SATU MARE,GHERŢA MICĂ,190,3,52,11,0,18,5,12,185,3,52,11,0,18,6,16,Școala Gimnazială,Nr. 441,Gherța Mică,47.9361,23.2196
166,32,SATU MARE,CĂUAŞ,18,1,2,11,2,2,3,5,17,1,3,9,2,2,6,7,Școala Generală,Nr. 70,Ghilești,47.5398,22.579
136,32,SATU MARE,BELTIUG,4,0,69,1,271,2,1,7,4,0,73,1,271,2,1,4,Școala Primară Ghirișa,Nr. 218,Ghirișa,47.5957,22.792
293,32,SATU MARE,SUPUR,113,4,25,7,1,3,0,2,111,3,23,9,1,4,0,2,Școala Gimnazială Giorocuta,Nr. 269,Giorocuta,47.4351,22.8017
137,32,SATU MARE,BELTIUG,28,1,21,1,4,2,4,6,27,1,24,1,3,2,4,5,Căminul Cultural Giungi,Nr. 164,Giungi,47.5734,22.7732
210,32,SATU MARE,HODOD,61,2,28,4,2,12,2,3,62,2,26,6,2,11,3,5,Școala Gimnazială Giurtelecu Hododului,Nr. 150,Giurtelecu Hododului,47.4154,23.0909
204,32,SATU MARE,HALMEU,119,5,54,17,214,28,3,17,126,5,44,18,213,26,3,16,Școala cu Clasele I-VIII Halmeu,Str. Eliberării nr. 72-74,Halmeu,47.9767,23.0189
205,32,SATU MARE,HALMEU,72,6,36,4,156,14,7,13,78,6,34,4,151,13,7,16,Școala cu Clasele I-VIII Halmeu,Str. Eliberării nr. 17,Halmeu,47.9762,23.0256
289,32,SATU MARE,SOCOND,38,0,42,3,2,4,4,9,39,0,44,3,2,3,3,5,Caminul Cultural Hodisa,Nr. 179/A,Hodișa,47.5771,22.9738
209,32,SATU MARE,HODOD,9,1,5,3,295,2,0,5,11,1,4,5,293,1,0,1,Sediul Primariei Comunei Hodod,Nr. 172,Hodod,47.405,23.0257
215,32,SATU MARE,HOMOROADE,30,2,14,3,1,5,11,14,31,1,15,3,1,5,11,13,Școala Clasele I-IV Homorodu de Jos,Nr. 71,Homorodu de Jos,47.6643,23.0833
213,32,SATU MARE,HOMOROADE,107,4,59,7,1,10,52,59,108,5,58,10,1,8,50,54,Școala Clasele I-VIII Homorodu de Mijloc,Nr. 268,Homorodu de Mijloc,47.623,23.0563
275,32,SATU MARE,SANISLĂU,26,0,9,5,3,4,1,6,22,0,10,5,3,3,1,5,Cămin Cultural Sat Horea,Nr. 64,Horea,47.6845,22.2344
169,32,SATU MARE,CĂUAŞ,19,0,7,10,3,5,2,8,19,0,7,11,2,2,6,11,Căminul Cultural,Nr. 115,Hotoan,47.5555,22.4867
253,32,SATU MARE,PĂULEŞTI,28,0,23,6,28,1,2,6,24,0,25,3,29,1,3,7,Școala Generală Hrip,Nr. 348,Hrip,47.721,22.9826
294,32,SATU MARE,SUPUR,68,0,37,1,14,1,1,5,70,0,35,0,15,2,2,3,Școala Gimnazială „Moise Sora Novac” Hurezu Mare,Nr. 143,Hurezu Mare,47.4659,22.8363
176,32,SATU MARE,CERTEZE,61,4,40,14,1,3,20,71,78,8,53,16,2,3,17,30,Grădinița cu Program Huta Certeze,Nr. 155,Huta Certeze,47.926,23.4866
88,32,SATU MARE,MUNICIPIUL CAREI,73,6,23,3,2,4,5,11,72,6,24,3,2,6,6,11,Grădinița cu Program Normal Ianculești,Nr. 1 185,Ianculești,47.6319,22.423
184,32,SATU MARE,CRUCIŞOR,72,8,27,20,1,27,6,9,69,7,33,18,1,25,6,10,Școala cu Clasele I-IV Iegheriste,Nr. 2,Iegheriște,47.6579,23.2606
226,32,SATU MARE,MEDIEŞU AURIT,88,10,32,6,101,4,4,12,85,10,33,7,101,7,4,11,Școala Generală,Nr. 370,Iojib,47.816,23.1542
127,32,SATU MARE,ANDRID,7,0,3,7,220,2,0,4,7,0,3,8,227,2,0,1,Școala Gimnazială Irina,Nr. 128,Irina,47.5508,22.4049
218,32,SATU MARE,LAZURI,72,17,51,16,778,25,14,31,81,26,53,15,773,23,8,19,Camin Cultural Nou,,Lazuri,47.8532,22.8747
157,32,SATU MARE,CĂLINEŞTI-OAŞ,27,2,91,5,2,18,2,12,26,2,94,4,0,20,2,10,Școala Lechinta,Nr. 2,Lechința,47.9227,23.2957
211,32,SATU MARE,HODOD,7,0,1,2,235,1,0,1,6,0,1,3,234,1,0,1,Școala Primară Lelei,Nr. 312,Lelei,47.3757,23.0662
191,32,SATU MARE,CULCIU,48,3,50,27,3,16,2,6,55,2,48,18,4,17,2,6,Școala Primară Lipău,Nr. 283,Lipău,47.7182,23.1289
94,32,SATU MARE,ORAŞ LIVADA,34,4,6,4,327,7,5,7,36,5,6,4,331,6,3,4,Școala Gimnazială „Petofi Sandor” Livada,Str. Victoriei (Str. 23 August) nr. 67,Livada,47.8701,23.114
95,32,SATU MARE,ORAŞ LIVADA,76,8,29,3,290,24,6,14,78,5,32,2,293,23,7,13,Grădinița cu Program Normal Livada,Str. Satu Mare,Livada,47.8644,23.1176
96,32,SATU MARE,ORAŞ LIVADA,40,5,16,3,490,11,4,15,40,4,17,4,486,11,6,12,Școala Gimnazială Petofi Sandor Livada,Str. Oașului nr. 7,Livada,47.8635,23.1221
99,32,SATU MARE,ORAŞ LIVADA,34,2,10,8,6,11,1,4,33,1,11,11,5,11,1,3,Grădinița Livada Mică,Nr. 64,Livada Mică,47.8438,23.1146
141,32,SATU MARE,BERVENI,168,15,83,5,44,39,7,27,174,11,80,3,46,41,7,26,Școala Generală Lucaceni,Nr. 66,Lucăceni,47.7415,22.4749
276,32,SATU MARE,SANISLĂU,66,1,15,2,2,13,1,2,68,3,14,2,3,9,2,3,Cămin Cultural Sat Marna Nouă,Nr. 86,Marna Nouă,47.6579,22.3895
230,32,SATU MARE,MEDIEŞU AURIT,40,2,12,10,1,7,6,7,40,2,10,10,1,5,14,14,Școala Generală,Nr. 117,Medieș Râturi,47.8096,23.2055
231,32,SATU MARE,MEDIEŞU AURIT,57,0,6,4,2,4,1,4,57,0,5,4,2,5,2,5,Școala Generală,Nr. 29,Medieș Vii,47.8177,23.2426
224,32,SATU MARE,MEDIEŞU AURIT,243,5,50,14,10,17,8,16,237,8,52,11,10,19,7,15,Primăria Mediesu Aurit,Nr. 157,Medieșu Aurit,47.787,23.1318
225,32,SATU MARE,MEDIEŞU AURIT,378,6,60,7,12,6,7,15,365,5,65,6,11,5,7,15,Școala Mediesu Aurit,,Medieșu Aurit,47.7889,23.1342
333,32,SATU MARE,VIILE SATU MARE,26,0,3,1,6,5,1,2,26,0,3,1,6,6,1,1,Școala Primară Medișa,Nr.    -,Medișa,47.6056,23.0055
208,32,SATU MARE,HALMEU,29,2,8,1,3,1,1,5,30,2,7,1,3,1,1,5,Grădinița Mesteacăn,Nr. 11,Mesteacăn,47.9448,23.0192
232,32,SATU MARE,MICULA,26,0,14,12,329,18,2,4,27,0,15,9,332,18,2,4,Centru Cultural Turistic,Nr. 93,Micula,47.8999,22.9504
233,32,SATU MARE,MICULA,79,5,31,6,152,43,1,18,83,6,32,9,150,43,1,11,Grădinița nr. 2 Micula,Nr. 419,Micula,47.8976,22.9615
234,32,SATU MARE,MICULA,61,2,29,8,5,37,3,12,72,1,28,8,5,31,2,9,Școala Generală Micula Noua,Nr. 42,Micula Nouă,47.916,22.9289
120,32,SATU MARE,ACÎŞ,2,0,19,1,73,8,0,1,2,0,19,1,74,8,0,0,Școala Generală Mihaieni,,Mihăieni,47.5596,22.7339
235,32,SATU MARE,MOFTIN,48,5,24,8,100,19,1,33,46,6,23,10,131,17,1,6,Școala Generală,Nr. 51,Moftinu Mare,47.6748,22.6573
236,32,SATU MARE,MOFTIN,175,7,33,20,99,16,4,10,175,9,33,20,98,14,3,6,Caminul Cultural,Nr. 221,Moftinu Mic,47.6871,22.5984
177,32,SATU MARE,CERTEZE,77,2,38,4,1,4,33,40,84,2,49,5,0,7,12,20,Grădinița cu Program Normal Moișeni,Nr. 58,Moișeni,47.9278,23.4679
93,32,SATU MARE,ORAŞ ARDUD,111,11,82,4,5,18,6,13,101,11,100,4,3,23,6,9,Școala Generală Mădăras,Str. Principală nr. 48/a,Mădăras,47.6852,22.8551
242,32,SATU MARE,ODOREU,105,24,49,9,80,14,4,10,97,20,50,10,81,19,8,14,"After School, Martinesti nr. 51",Nr. 51,Mărtinești,47.7871,22.935
212,32,SATU MARE,HODOD,14,0,1,1,287,1,0,5,15,0,1,1,291,1,0,1,Centru Social Nadisu Hododului,Nr. 223,Nadișu Hododului,47.4,22.9978
216,32,SATU MARE,HOMOROADE,28,1,7,2,3,7,8,10,27,1,7,2,3,6,8,12,Școala Necopoi,Nr. 175,Necopoi,47.6824,23.0643
100,32,SATU MARE,ORAŞ NEGREŞTI-OAŞ,147,4,37,11,5,3,3,10,148,4,37,12,5,3,3,10,Școala Gen.nr. 2,Str. Zorilor nr. 9,Negrești-Oaș,47.8654,23.4361
101,32,SATU MARE,ORAŞ NEGREŞTI-OAŞ,208,7,33,4,2,3,7,8,212,7,32,4,1,5,4,5,Școala Gen.nr. 2,Str. Zorilor nr. 9,Negrești-Oaș,47.8654,23.4361
102,32,SATU MARE,ORAŞ NEGREŞTI-OAŞ,185,25,85,8,15,11,19,28,196,25,81,10,14,11,9,20,Școala Gen.nr. 3,Str. Victoriei nr. 59,Negrești-Oaș,47.8678,23.4246
103,32,SATU MARE,ORAŞ NEGREŞTI-OAŞ,158,16,52,4,2,10,6,16,170,14,50,6,2,8,2,13,Școala Gen.nr. 3,Str. Victoriei nr. 59,Negrești-Oaș,47.8678,23.4246
104,32,SATU MARE,ORAŞ NEGREŞTI-OAŞ,243,38,85,29,14,8,10,16,252,36,80,27,15,12,6,16,Școala Generală nr. 3,Nr. 59,Negrești-Oaș,47.8678,23.4246
105,32,SATU MARE,ORAŞ NEGREŞTI-OAŞ,135,14,71,9,14,6,15,28,142,16,73,10,13,8,6,12,Școala Gen.nr. 1,Str. Victoriei nr. 99,Negrești-Oaș,47.8722,23.4269
106,32,SATU MARE,ORAŞ NEGREŞTI-OAŞ,202,15,87,16,17,14,8,22,220,17,80,11,16,14,5,16,Școala Gen nr. 1,Str. Victoriei nr. 99,Negrești-Oaș,47.8722,23.4269
107,32,SATU MARE,ORAŞ NEGREŞTI-OAŞ,168,22,97,13,14,24,13,22,189,22,92,13,14,13,8,17,Liceul Teoretic,Str. Victoriei nr. 101,Negrești-Oaș,47.8743,23.4269
108,32,SATU MARE,ORAŞ NEGREŞTI-OAŞ,189,8,38,13,14,13,11,15,192,9,36,13,13,16,5,12,Liceul Teoretic,Str. Victoriei nr. 101,Negrești-Oaș,47.8743,23.4269
109,32,SATU MARE,ORAŞ NEGREŞTI-OAŞ,229,11,83,11,2,11,9,20,242,10,83,15,2,9,7,12,Liceul Teoretic,Str. Victoriei nr. 101,Negrești-Oaș,47.8743,23.4269
220,32,SATU MARE,LAZURI,13,3,12,2,240,1,1,6,14,3,9,2,245,2,2,3,Școala cu Clasele I-VIII Nisipeni,,Nisipeni,47.901,22.9001
221,32,SATU MARE,LAZURI,8,0,16,1,50,8,1,3,9,0,15,1,53,7,1,2,Școala cu Clasele I-IV Noroieni,,Noroieni,47.8863,22.8858
329,32,SATU MARE,VETIŞ,17,3,9,2,319,9,1,4,18,5,10,1,313,7,2,6,Căminul Cultural Oar,Nr. 264,Oar,47.8099,22.7192
239,32,SATU MARE,ODOREU,262,23,128,9,96,16,5,11,260,23,127,10,98,14,8,14,Grădinița de Copii,Str. Republicii nr. 86,Odoreu,47.7957,22.9899
240,32,SATU MARE,ODOREU,348,16,78,13,121,26,7,21,345,16,75,12,122,36,6,18,Școala Gimnazială Odoreu,Str. Tineretului nr. 2,Odoreu,47.7954,22.9931
243,32,SATU MARE,ORAŞU NOU,16,0,5,3,306,3,0,4,17,2,4,4,309,3,1,3,Școala Gimnazială Orasu Nou Sala de Clasă 1,Nr. 79,Orașu Nou,47.835,23.2899
244,32,SATU MARE,ORAŞU NOU,10,1,3,1,396,3,0,1,9,1,2,1,394,2,0,3,Școala Gimnazială Orasu Nou Sala de Clasă 2,Nr. 79,Orașu Nou,47.835,23.2899
245,32,SATU MARE,ORAŞU NOU,57,3,22,1,3,4,1,5,59,3,23,1,3,3,2,4,Grădiniță cu Program Normal,Nr. 91,Orașu Nou-Vii,47.8072,23.268
173,32,SATU MARE,CEHAL,85,0,14,1,2,4,1,4,82,1,13,2,2,4,1,4,Cladire Primarie,Nr. 70,Orbău,47.412,22.6295
195,32,SATU MARE,DOBA,69,4,20,4,3,20,3,11,66,3,21,4,2,25,3,7,Grădinița Paulian,Nr. 111,Paulian,47.7249,22.6778
222,32,SATU MARE,LAZURI,20,0,17,1,276,2,2,8,20,1,15,2,278,2,3,4,Școala cu Clasele I-VIII Peles,,Peleș,47.8849,22.8206
223,32,SATU MARE,LAZURI,9,0,3,1,100,1,0,6,6,0,2,2,103,1,0,2,Școala cu Clasele I-IV Pelisor,,Pelișor,47.9051,22.8582
200,32,SATU MARE,DOROLŢ,14,2,4,2,106,2,1,6,16,3,5,2,103,2,1,3,Camin Cultural Petea,Nr. 40,Petea,47.8531,22.7832
254,32,SATU MARE,PĂULEŞTI,28,2,21,2,144,1,2,7,24,0,19,3,152,3,2,6,Școala Generală Petin,Nr. 57,Petin,47.7723,22.9667
256,32,SATU MARE,PETREŞTI,19,3,9,1,338,5,6,17,18,3,10,2,340,4,7,12,Școala Gimnazială Dr. Stefan Vonház,Nr. 549,Petrești,47.6052,22.3634
258,32,SATU MARE,PIR,55,2,20,20,293,13,3,10,59,2,21,18,292,12,2,11,Școala cu Clasele I-VIII Pir,Nr. 279,Pir,47.4594,22.3711
303,32,SATU MARE,TEREBEŞTI,194,4,10,1,8,10,1,9,194,4,10,1,8,7,5,11,Școala Primară Piscari,Nr. 60,Pișcari,47.6542,22.7299
260,32,SATU MARE,PIŞCOLT,55,3,81,5,78,10,6,11,49,3,86,5,78,9,6,8,Primăria Comunei Piscolt,Nr. 62,Pișcolt,47.58,22.2989
261,32,SATU MARE,PIŞCOLT,54,3,50,1,103,8,2,11,62,2,55,2,98,10,0,1,Primăria Comunei Piscolt,Nr. 62,Pișcolt,47.58,22.2989
185,32,SATU MARE,CRUCIŞOR,422,17,77,7,17,18,10,42,414,16,80,8,18,18,14,43,Școala Gimnazială Poiana Codrului,Nr. 143,Poiana Codrului,47.6261,23.2494
267,32,SATU MARE,POMI,140,6,65,14,2,44,9,19,132,7,77,16,4,39,9,18,Primăria Pomi,Nr. 110,Pomi,47.6988,23.3042
304,32,SATU MARE,TIREAM,32,1,5,1,3,7,1,1,32,0,6,1,2,9,1,1,Grădinița cu Program Normal,Nr. 31,Portița,47.5689,22.4135
268,32,SATU MARE,PORUMBEŞTI,10,3,4,2,526,1,4,12,14,3,1,3,527,1,5,11,Caminul Cultural,Nr. 221,Porumbești,47.9781,22.9789
227,32,SATU MARE,MEDIEŞU AURIT,122,3,34,6,90,8,4,6,117,5,37,7,89,6,6,10,Școala Generală,Nr. 329,Potău,47.7594,23.1203
246,32,SATU MARE,ORAŞU NOU,31,3,44,13,3,12,3,11,34,4,47,11,3,11,1,8,Grădiniță cu Program Normal,Nr. 171,Prilog,47.8544,23.3185
247,32,SATU MARE,ORAŞU NOU,37,1,6,3,7,1,0,1,38,1,5,2,7,1,0,1,"Imobil, Casa de Locuit",Nr. 48/a,Prilog Vii,47.8602,23.276
248,32,SATU MARE,ORAŞU NOU,14,0,4,0,9,4,0,0,14,0,4,0,9,4,0,1,Clădirea Scolii,Nr. 117,Prilog Vii,47.865,23.2421
250,32,SATU MARE,PĂULEŞTI,193,28,123,19,142,38,12,26,188,31,128,17,143,44,10,18,Caminul Cultural Paulesti,Nr. 134,Păulești,47.7793,22.9202
158,32,SATU MARE,CĂLINEŞTI-OAŞ,9,0,31,4,1,10,1,3,12,0,30,4,1,7,1,2,Școala Pasunea Mare,Nr. 54,Pășunea Mare,47.8826,23.2308
295,32,SATU MARE,SUPUR,27,1,16,2,1,3,0,5,29,1,17,1,1,2,0,4,Grădiniță cu Program Normal,Nr. 69,Racova,47.4619,22.8855
270,32,SATU MARE,RACŞA,369,7,24,18,2,4,1,7,367,15,24,14,1,5,0,4,Școala Generală,Nr. 335,Racșa,47.8202,23.3332
271,32,SATU MARE,RACŞA,291,11,22,43,3,1,4,6,287,41,23,21,1,1,1,6,Școala Gimnazială,Nr. 335,Racșa,47.8202,23.3332
272,32,SATU MARE,RACŞA,70,6,19,4,1,1,1,5,73,9,17,2,1,2,0,1,Școala Primară,Nr. 29,Racșa Vii,47.794,23.2942
249,32,SATU MARE,ORAŞU NOU,5,3,2,4,192,4,3,5,6,3,4,5,191,4,1,3,Școală Primară Remetea Oaș,Nr. 79,Remetea Oașului,47.8755,23.3157
262,32,SATU MARE,PIŞCOLT,27,0,38,4,14,5,3,6,28,0,40,4,14,3,5,5,Școala Gimnazială Pișcolt,Nr. 193,Resighea,47.5982,22.2988
228,32,SATU MARE,MEDIEŞU AURIT,100,3,19,6,72,12,13,16,95,4,20,7,71,14,11,14,Școala Generală,Nr. 43,Românești,47.7905,23.1135
255,32,SATU MARE,PĂULEŞTI,63,2,20,10,5,2,7,12,63,3,20,10,5,3,4,8,Școala Generală Rușeni,Nr. 75,Rușeni,47.7116,22.9448
167,32,SATU MARE,CĂUAŞ,16,1,5,6,1,9,1,5,17,1,5,5,2,7,1,4,Casă de Locuit,Nr. 26,Rădulești,47.6013,22.5668
138,32,SATU MARE,BELTIUG,67,1,53,3,12,7,1,7,63,1,56,2,11,5,3,7,Școala Gimnazială Rătești,Nr. 84,Rătești,47.5823,22.88
273,32,SATU MARE,SANISLĂU,57,3,13,4,339,2,0,13,60,4,12,6,344,1,2,7,Grădinița Sanislău,Nr. 1082,Sanislău,47.6395,22.3251
274,32,SATU MARE,SANISLĂU,121,11,45,15,156,20,7,18,124,12,38,14,160,22,9,19,Școala cu Cl. I-VIII Gh. Bulgăr-Sanislău,Nr. 1069,Sanislău,47.6375,22.325
277,32,SATU MARE,SANTĂU,91,2,262,12,113,40,3,7,101,2,259,10,113,37,3,6,Școala Gimnazială Santau,Nr. 225,Santău,47.5106,22.5092
1,32,SATU MARE,MUNICIPIUL SATU MARE,125,22,56,12,120,24,15,34,118,23,62,10,122,28,15,33,Grădinița cu Program Prelungit „Draga Mea” (Grădinița „Draga Mea”),Str. Uzinei (Bulevardul Uzinei) nr. 19/A,Satu Mare,47.782,22.8809
2,32,SATU MARE,MUNICIPIUL SATU MARE,183,43,122,23,163,27,26,49,189,44,124,13,159,33,26,48,Grădinița cu Program Prelungit „Draga Mea” (Grădinița „Draga Mea”),Str. Uzinei (Bulevardul Uzinei),Satu Mare,47.782,22.8809
3,32,SATU MARE,MUNICIPIUL SATU MARE,153,28,70,24,126,25,18,28,143,24,78,22,127,40,12,21,Asociația Caritas Satu Mare Cantrul Social Deschis La Casa Prieteniei,Str. Uzinei (Bulevardul Uzinei) nr. 19/A,Satu Mare,47.7816,22.8811
4,32,SATU MARE,MUNICIPIUL SATU MARE,172,25,127,14,148,33,17,33,170,26,124,11,144,36,20,35,Școala Gimnazială „Ion Creangă” (Școala cu Clasele I-VIII „Ion Creangă”),Str. Someșului nr. 6,Satu Mare,47.779,22.89
5,32,SATU MARE,MUNICIPIUL SATU MARE,152,38,83,17,130,35,14,22,160,36,83,13,131,33,10,21,Școala Gimnazială „Ion Creangă” (Școala cu Clasele I-VIII „Ion Creangă”),Str. Someșului nr. 6,Satu Mare,47.779,22.89
6,32,SATU MARE,MUNICIPIUL SATU MARE,118,42,92,15,152,27,15,32,119,39,87,16,155,34,17,29,Școala Gimnazială „Ion Creangă” (Școala cu Clasele I-VIII „Ion Creangă”),Str. Someșului nr. 6,Satu Mare,47.779,22.89
7,32,SATU MARE,MUNICIPIUL SATU MARE,150,37,99,32,216,33,22,42,158,41,94,27,216,39,20,35,Școala Gimnazială „Ion Creangă” (Școala cu Clasele I-VIII „Ion Creangă”),Str. Someșului nr. 6,Satu Mare,47.779,22.89
8,32,SATU MARE,MUNICIPIUL SATU MARE,176,28,86,12,118,28,11,23,172,28,89,14,116,33,11,21,Școala Gimnazială „Lucian Blaga” (Școala cu Clasele I-VIII „Lucian Blaga”),Str. Ion Vidu (Str. Aniversării) nr. 51-53,Satu Mare,47.7795,22.8923
9,32,SATU MARE,MUNICIPIUL SATU MARE,129,33,96,11,161,13,16,36,123,33,96,14,157,21,13,35,Școala Gimnazială „Lucian Blaga” (Școala cu Clasele I-VIII „Lucian Blaga”),Str. Ion Vidu (Str. Aniversării) nr. 51-53,Satu Mare,47.7795,22.8923
10,32,SATU MARE,MUNICIPIUL SATU MARE,131,20,68,15,134,30,10,25,136,18,65,14,137,31,9,23,Școala Gimnazială „Lucian Blaga” (Școala cu Clasele I-VIII „Lucian Blaga”),Str. Ion Vidu (Str. Aniversării) nr. 51-53,Satu Mare,47.7795,22.8923
11,32,SATU MARE,MUNICIPIUL SATU MARE,155,21,74,17,123,18,12,28,147,18,76,15,122,26,12,31,Școala Gimnazială „Lucian Blaga” (Școala cu Clasele I-VIII „Lucian Blaga”),Str. Ion Vidu (Str. Aniversării) nr. 51-53,Satu Mare,47.7795,22.8923
12,32,SATU MARE,MUNICIPIUL SATU MARE,116,19,53,4,223,15,4,17,121,21,48,5,219,17,6,17,Școala Gimnazială „Octavian Goga” (Școala cu Clasele I-VIII „Octavian Goga”),Aleea Postăvaru nr. 3,Satu Mare,47.7748,22.8862
13,32,SATU MARE,MUNICIPIUL SATU MARE,144,17,63,9,134,27,8,24,143,19,67,8,127,23,13,32,Școala Gimnazială „Octavian Goga” (Școala cu Clasele I-VIII „Octavian Goga”),Aleea Postăvaru nr. 3,Satu Mare,47.7748,22.8862
14,32,SATU MARE,MUNICIPIUL SATU MARE,148,49,107,12,111,21,18,39,144,50,107,9,109,33,16,33,Școala Gimnazială „Octavian Goga” (Școala cu Clasele I-VIII „Octavian Goga”),Aleea Postăvaru nr. 3,Satu Mare,47.7748,22.8862
15,32,SATU MARE,MUNICIPIUL SATU MARE,173,34,104,20,119,27,21,39,171,38,99,16,122,35,20,39,Școala Gimnazială „Octavian Goga” (Școala cu Clasele I-VIII „Octavian Goga”),Aleea Postăvaru nr. 3,Satu Mare,47.7748,22.8862
16,32,SATU MARE,MUNICIPIUL SATU MARE,163,39,83,16,105,30,12,24,160,37,91,11,101,37,12,23,Grădinița cu Program Normal nr. 21,Bulevardul Lucian Blaga (Bulevardul Uzinei) nr. 121,Satu Mare,47.768,22.8822
17,32,SATU MARE,MUNICIPIUL SATU MARE,166,21,121,25,98,36,18,39,168,20,126,23,97,38,18,34,Grădinița cu Program Normal nr. 21,Bulevardul Lucian Blaga (Bulevardul Uzinei) nr. 121,Satu Mare,47.768,22.8822
18,32,SATU MARE,MUNICIPIUL SATU MARE,184,34,150,17,186,41,20,35,191,37,151,16,188,37,17,34,Universitatea Tehnică Cluj Napoca - Filiala Satu Mare (Grădinița cu Program Normal nr. 21),Bulevardul Lucian Blaga (Bulevardul Uzinei) nr. 121,Satu Mare,47.7672,22.8833
19,32,SATU MARE,MUNICIPIUL SATU MARE,182,25,103,17,141,20,15,36,182,25,101,15,138,22,19,41,Universitatea Tehnică Cluj Napoca - Filiala Satu Mare (Grădinița cu Program Normal nr. 21),Bulevardul Lucian Blaga (Bulevardul Uzinei) nr. 121,Satu Mare,47.7672,22.8833
20,32,SATU MARE,MUNICIPIUL SATU MARE,195,23,87,18,59,18,7,27,196,20,77,19,60,25,9,26,Școala cu Clasele I-VIII nr. 9,Bulevardul Lucian Blaga (Bulevardul Uzinei) nr. 409,Satu Mare,47.7331,22.8822
21,32,SATU MARE,MUNICIPIUL SATU MARE,161,24,96,20,212,35,20,41,163,29,93,18,213,43,18,37,Liceul Teoretic German „Johann Ettinger”,Bulevardul Cloșca nr. 72,Satu Mare,47.7752,22.8665
22,32,SATU MARE,MUNICIPIUL SATU MARE,164,58,101,22,238,41,15,28,153,59,100,19,238,52,14,28,Colegiul Tehnic „Elisa Zamfirescu” (Col.Tehnic Elisa Zamfirescu (Grup Școala de Industrie Ușoară) ),Bulevardul Cloșca nr. 48,Satu Mare,47.7798,22.8713
23,32,SATU MARE,MUNICIPIUL SATU MARE,135,28,63,15,236,36,18,39,136,30,69,11,232,37,14,40,Școala Gimnazială „Mircea Eliade” (Școala cu Clasele I-VIII „Mircea Eliade”),Str. Mircea Eliade (Str. Simfoniei) nr. 3,Satu Mare,47.7823,22.8679
24,32,SATU MARE,MUNICIPIUL SATU MARE,144,23,85,15,250,35,10,31,145,21,87,14,253,33,10,25,Școala Gimnazială „Mircea Eliade” (Școala cu Clasele I-VIII „Mircea Eliade”),Str. Mircea Eliade (Str. Simfoniei) nr. 3,Satu Mare,47.7823,22.8679
25,32,SATU MARE,MUNICIPIUL SATU MARE,78,11,39,10,141,25,5,15,79,13,42,12,138,20,5,14,Școala Gimnazială „Mircea Eliade” (Școala cu Clasele I-VIII „Mircea Eliade”),Str. Mircea Eliade (Str. Simfoniei) nr. 3,Satu Mare,47.7823,22.8679
26,32,SATU MARE,MUNICIPIUL SATU MARE,136,12,57,8,204,17,10,26,144,12,56,7,207,20,5,19,Școala Gimnazială „Mircea Eliade” (Școala cu Clasele I-VIII „Mircea Eliade”),Str. Mircea Eliade (Str. Simfoniei) nr. 3,Satu Mare,47.7823,22.8679
27,32,SATU MARE,MUNICIPIUL SATU MARE,135,11,49,11,160,24,14,25,130,15,48,12,160,24,16,26,Grădinița cu Program Prelungit nr. 9,Str. Târnavei (Aleea Tîrnavei) nr. 18,Satu Mare,47.7807,22.8678
28,32,SATU MARE,MUNICIPIUL SATU MARE,107,12,45,14,179,13,7,20,109,11,43,13,187,14,5,18,Grădinița cu Program Prelungit nr. 9,Str. Târnavei (Aleea Tîrnavei) nr. 18,Satu Mare,47.7807,22.8678
29,32,SATU MARE,MUNICIPIUL SATU MARE,140,29,79,5,186,30,8,14,139,30,76,5,184,36,10,14,Școala Gimnazială „Bălcescu-Petofi” (Școala cu Clasele I-VIII „Bălcescu-Petofi”),Aleea Trotușului nr. 2,Satu Mare,47.7815,22.8573
30,32,SATU MARE,MUNICIPIUL SATU MARE,149,50,90,9,318,25,22,47,143,51,88,9,322,33,22,43,Școala Gimnazială „Bălcescu-Petofi” (Școala cu Clasele I-VIII „Bălcescu-Petofi”),Aleea Trotușului nr. 2,Satu Mare,47.7815,22.8573
31,32,SATU MARE,MUNICIPIUL SATU MARE,161,23,65,14,193,28,14,28,162,23,65,15,196,28,11,25,Școala Gimnazială „Bălcescu-Petofi” (Școala cu Clasele I-VIII „Bălcescu-Petofi”),Aleea Trotușului nr. 2,Satu Mare,47.7815,22.8573
32,32,SATU MARE,MUNICIPIUL SATU MARE,144,27,62,6,208,14,15,28,143,27,67,4,210,17,15,21,Grădinița cu Program Prelungit nr. 13,Aleea Milcov nr. 4,Satu Mare,47.7809,22.86
33,32,SATU MARE,MUNICIPIUL SATU MARE,104,15,55,15,172,18,12,20,98,19,58,18,177,19,10,16,Grădinița cu Program Prelungit nr. 5,Aleea Tisa nr. 8,Satu Mare,47.7802,22.8633
34,32,SATU MARE,MUNICIPIUL SATU MARE,116,14,56,10,233,21,17,26,114,14,54,14,230,23,16,25,Grădinița cu Program Prelungit nr. 5,Aleea Tisa nr. 8,Satu Mare,47.7802,22.8633
35,32,SATU MARE,MUNICIPIUL SATU MARE,135,32,69,4,165,26,11,22,132,29,72,3,165,32,10,21,Școala Gimnazială „Avram Iancu” (Școala cu Clasele I-VIII „Avram Iancu”) (Grădinița cu Program Prelungit „Voinicelul” Corp „B”),Bulevardul Muncii nr. 24,Satu Mare,47.7859,22.8629
36,32,SATU MARE,MUNICIPIUL SATU MARE,151,50,69,13,206,24,14,23,150,50,69,11,208,29,12,21,Școala Gimnazială „Avram Iancu” (Școala cu Clasele I-VIII „Avram Iancu”),Bulevardul Muncii nr. 19,Satu Mare,47.7859,22.8629
37,32,SATU MARE,MUNICIPIUL SATU MARE,163,26,61,19,210,23,18,35,159,32,54,21,212,26,18,33,Școala Gimnazială „Avram Iancu” (Școala cu Clasele I-VIII „Avram Iancu”),Bulevardul Muncii nr. 19,Satu Mare,47.7859,22.8629
38,32,SATU MARE,MUNICIPIUL SATU MARE,164,25,74,14,247,37,8,26,165,22,76,11,247,41,7,25,Școala Gimnazială „Avram Iancu” (Școala cu Clasele I-VIII „Avram Iancu”),Bulevardul Muncii nr. 19,Satu Mare,47.7859,22.8629
39,32,SATU MARE,MUNICIPIUL SATU MARE,132,26,62,21,159,26,15,29,127,22,67,16,163,33,13,27,Școala Gimnazială „Avram Iancu” (Școala cu Clasele I-VIII „Avram Iancu”),Bulevardul Muncii nr. 19,Satu Mare,47.7859,22.8629
40,32,SATU MARE,MUNICIPIUL SATU MARE,147,21,67,8,201,35,15,28,150,21,69,6,200,31,19,30,Școala Gimnazială „Avram Iancu” (Școala cu Clasele I-VIII „Avram Iancu”) (Grădinița cu Program Prelungit „Voinicelul”),Bulevardul Muncii nr. 19,Satu Mare,47.7859,22.8629
41,32,SATU MARE,MUNICIPIUL SATU MARE,151,25,79,14,189,35,17,21,146,21,85,10,184,45,19,24,Liceul Tehnologic Ind. Alim „George Emil Palade” . (Grupul Școlar de Ind. Alimentară „George Emil Palade”),Str. Crizantemei nr. 3,Satu Mare,47.788,22.8576
42,32,SATU MARE,MUNICIPIUL SATU MARE,174,38,61,15,200,39,16,26,170,39,55,18,197,41,23,31,Liceul Tehnologic Ind. Alim „George Emil Palade” . (Grupul Școlar de Ind. Alimentară „George Emil Palade”),Str. Crizantemei nr. 3,Satu Mare,47.788,22.8576
43,32,SATU MARE,MUNICIPIUL SATU MARE,131,35,51,11,186,23,8,21,131,34,53,11,184,27,6,18,Liceul Tehnologic Ind. Alim „George Emil Palade” . (Grupul Școlar de Ind. Alimentară „George Emil Palade”),Str. Crizantemei nr. 3,Satu Mare,47.788,22.8576
44,32,SATU MARE,MUNICIPIUL SATU MARE,162,35,82,16,179,31,23,39,160,33,92,14,177,37,21,33,Liceul Tehnologic Ind. Alim „George Emil Palade” . (Grupul Școlar de Ind. Alimentară „George Emil Palade”),Str. Crizantemei nr. 3,Satu Mare,47.788,22.8576
45,32,SATU MARE,MUNICIPIUL SATU MARE,175,29,72,17,194,27,11,29,181,29,68,18,194,33,10,23,Liceul Tehnologic Ind. Alim „George Emil Palade” . (Grupul Școlar de Ind. Alimentară „George Emil Palade”),Str. Crizantemei nr. 3,Satu Mare,47.788,22.8576
47,32,SATU MARE,MUNICIPIUL SATU MARE,92,32,98,19,542,30,16,35,100,28,106,14,545,36,12,20,Asociația Județeană de Fotbal (Școala nr. 15),Bulevardul Unirii nr. 95,Satu Mare,47.8046,22.863
48,32,SATU MARE,MUNICIPIUL SATU MARE,118,35,86,22,360,25,25,41,122,36,90,24,353,20,21,39,Secția de Drumuri Naționale,Str. Gheorghe Barițiu nr. 127,Satu Mare,47.8157,22.8854
49,32,SATU MARE,MUNICIPIUL SATU MARE,93,18,78,10,425,20,12,30,97,13,82,10,427,18,12,21,Școala Gimnazială „Dr. Vasile Lucaciu” (Sc. cu Cl. I-VIII „Dr. V. Lucaciu”),Str. Wolfenbüttel (Str. Wolfenbutel) nr. 6,Satu Mare,47.8009,22.8754
50,32,SATU MARE,MUNICIPIUL SATU MARE,107,26,79,11,264,27,14,20,110,32,72,10,258,24,17,25,Școala Gimnazială „Dr. Vasile Lucaciu” (Sc. cu Cl. I-VIII „Dr. V. Lucaciu”),Str. Rodnei nr. 64,Satu Mare,47.8016,22.8864
51,32,SATU MARE,MUNICIPIUL SATU MARE,88,32,75,17,237,23,7,18,101,33,79,11,236,15,3,15,Școala Gimnazială „Dr. Vasile Lucaciu” (Sc. cu Cl. I-VIII „Dr. V. Lucaciu”),Str. Rodnei nr. 64,Satu Mare,47.8016,22.8864
52,32,SATU MARE,MUNICIPIUL SATU MARE,88,34,46,9,347,22,12,18,93,31,52,8,345,20,9,17,Grădinița nr. 15,Bulevardul Unirii nr. 9,Satu Mare,47.8012,22.8729
53,32,SATU MARE,MUNICIPIUL SATU MARE,142,31,54,16,180,16,13,31,139,32,60,18,181,19,10,26,Liceul Teologic „Nicolae Steinhardt”,Str. George Călinescu (Str. Viitorului) nr. 51,Satu Mare,47.8069,22.8866
54,32,SATU MARE,MUNICIPIUL SATU MARE,167,32,57,9,258,29,10,26,169,37,61,11,258,22,7,22,Liceul Teologic „Nicolae Steinhardt”,Str. George Călinescu (Str. Viitorului) nr. 51,Satu Mare,47.8069,22.8866
55,32,SATU MARE,MUNICIPIUL SATU MARE,104,6,64,8,180,21,10,19,109,6,67,10,178,22,6,12,Grădinița cu Program Prelungit nr. 12,Aleea Ilișești nr. 4,Satu Mare,47.8067,22.8855
56,32,SATU MARE,MUNICIPIUL SATU MARE,174,14,89,17,203,19,18,45,174,19,86,17,204,19,17,40,Grădinița cu Program Prelungit - „14 Mai”,Aleea Gladiolei nr. 4,Satu Mare,47.8054,22.8913
57,32,SATU MARE,MUNICIPIUL SATU MARE,96,10,41,3,193,18,18,28,96,10,42,3,193,21,14,23,Grădinița cu Program Prelungit - „14 Mai”,Aleea Gladiolei nr. 4,Satu Mare,47.8054,22.8913
58,32,SATU MARE,MUNICIPIUL SATU MARE,155,61,111,21,249,33,35,60,179,54,117,18,251,28,33,46,Liceul Tehnologic „Constantin Brâncuș” (Grup Scolar „Constantin Brancus” Satu Mare),Str. Crișan nr. 1,Satu Mare,47.797,22.8881
59,32,SATU MARE,MUNICIPIUL SATU MARE,66,28,90,12,297,18,17,30,66,32,83,13,298,26,13,23,Liceul cu Program Sportiv,Str. Ioan Slavici (Str. Slavici Ioan) nr. 43,Satu Mare,47.7989,22.8814
60,32,SATU MARE,MUNICIPIUL SATU MARE,159,39,80,19,273,30,36,55,161,43,95,20,270,24,24,35,Școala Gimnazială „Grigore Moisil” (Școala cu Clasele I-VIII „Grigore Moisil”),Str. Mileniului (Str. Castanilor) nr. 1,Satu Mare,47.795,22.8784
61,32,SATU MARE,MUNICIPIUL SATU MARE,115,33,82,18,162,27,13,33,113,32,87,14,162,28,10,30,Școala Gimnazială „Grigore Moisil” (Școala cu Clasele I-VIII „Grigore Moisil”),Str. Mileniului (Str. Castanilor) nr. 1,Satu Mare,47.795,22.8784
62,32,SATU MARE,MUNICIPIUL SATU MARE,175,50,131,20,180,29,21,37,186,42,143,15,182,25,12,30,Colegiul Tehnic de Transp. și Telecomunicații „I.C. Brătianu”,Bulevardul Vasile Lucaciu (Bulevardul Republicii) nr. 1,Satu Mare,47.7903,22.8824
63,32,SATU MARE,MUNICIPIUL SATU MARE,89,31,70,11,147,23,18,32,97,25,74,11,152,24,12,23,Liceul Teologic Romano-Catolic „Ham Janos” (Grup Școala Teologic Rom.-Cat. „Ham Janos”),Str. 1 Decembrie 1918 nr. 2,Satu Mare,47.7924,22.8786
64,32,SATU MARE,MUNICIPIUL SATU MARE,94,35,53,8,280,28,9,21,98,32,58,9,283,25,5,16,Liceul Reformat (Liceul Teologic Reformat),Piața Jean Calvin (Piața Păcii) nr. 2,Satu Mare,47.7955,22.8745
65,32,SATU MARE,MUNICIPIUL SATU MARE,99,33,84,9,317,38,17,38,113,31,86,8,321,34,11,26,Grădinița cu Prog. Prelungit „Dumbrava Minunată” (Grădinița „Dumbrava Minunată”),Str. Gavril Lazăr de Purcăreți (Str. Lazăr Gavril de Purcăreț) nr. 21,Satu Mare,47.7924,22.8623
66,32,SATU MARE,MUNICIPIUL SATU MARE,95,30,53,17,169,26,8,22,87,28,55,16,173,26,10,25,Colegiul Național „D-Na Stanca”,Str. Ștefan cel Mare nr. 5,Satu Mare,47.7945,22.874
67,32,SATU MARE,MUNICIPIUL SATU MARE,60,20,49,4,451,23,13,21,62,20,53,6,447,23,10,17,Școala Gimnazială nr. 10 (Școala cu Clasele I-VIII nr. 10),Str. Ana Ipătescu nr. 8,Satu Mare,47.7943,22.8663
68,32,SATU MARE,MUNICIPIUL SATU MARE,121,43,94,8,483,24,24,36,129,41,113,7,479,24,15,26,Școala Gimnazială nr. 10 (Școala cu Clasele I-VIII nr. 10),Str. Ana Ipătescu nr. 8,Satu Mare,47.7943,22.8663
69,32,SATU MARE,MUNICIPIUL SATU MARE,207,82,144,17,233,42,20,41,223,92,141,10,238,34,13,30,Școala Gimnazială „C. Brîncoveanu” (Școala cu Clasele I-VIII „C. Brîncoveanu”),Str. Constantin Brâncoveanu nr. 6,Satu Mare,47.7899,22.8722
70,32,SATU MARE,MUNICIPIUL SATU MARE,128,32,88,10,136,30,17,38,138,37,79,9,139,26,15,31,Colegiul Național „Mihai Eminescu”,Str. Mihai Eminescu (Str. Mihail Eminescu) nr. 5,Satu Mare,47.7894,22.8764
71,32,SATU MARE,MUNICIPIUL SATU MARE,188,45,133,17,226,33,32,47,190,40,146,16,224,38,23,40,Colegiul Economic „Gheorghe Dragoș” (Grup Școala Economic „Gheorghe Dragoș”),Bulevardul Henri Coandă (Str. Baia Mare) nr. 23,Satu Mare,47.7888,22.8832
72,32,SATU MARE,MUNICIPIUL SATU MARE,131,22,68,9,130,19,14,23,135,22,67,12,127,18,7,19,Grădinița cu Program Prelungit,Str. Botizului nr. 61/A,Satu Mare,47.8,22.9049
73,32,SATU MARE,MUNICIPIUL SATU MARE,120,19,71,13,102,13,11,26,129,22,68,14,101,13,10,22,Grădinița cu Program Prelungit,Str. Botizului nr. 61/A,Satu Mare,47.8,22.9049
74,32,SATU MARE,MUNICIPIUL SATU MARE,134,9,58,12,124,19,16,33,143,9,57,8,122,23,10,26,Grădinița cu Program Prelungit,Str. Botizului nr. 61/A,Satu Mare,47.8,22.9049
182,32,SATU MARE,CRAIDOROLŢ,63,0,4,0,2,2,1,7,63,0,5,0,1,3,0,6,Școala Primară Satu Mic,Nr. 132,Satu Mic,47.5756,22.7003
263,32,SATU MARE,PIŞCOLT,61,6,36,2,1,7,4,10,62,6,39,3,1,6,4,7,Școala Gimnazială Pișcolt,Nr. 177,Scărișoara Nouă,47.6155,22.2276
296,32,SATU MARE,SUPUR,6,1,2,1,22,1,0,1,6,1,2,1,22,1,0,1,Cămin Cultural Sechereșa,Nr. 6,Sechereșa,47.4521,22.7411
152,32,SATU MARE,BOGDAND,5,0,5,1,190,1,1,1,4,0,3,2,193,1,1,3,Școala cu Clasele I-IV,Nr. 99,Ser,47.3787,22.9685
285,32,SATU MARE,SĂUCA,34,0,7,1,1,0,4,4,33,0,9,1,1,1,1,1,Școala Silvas,Nr. 6,Silvaș,47.4732,22.5212
286,32,SATU MARE,SOCOND,70,3,35,1,10,5,5,9,66,3,34,1,11,6,5,9,Școala Gimnazială Socond,Nr. 30,Socond,47.5623,22.9506
288,32,SATU MARE,SOCOND,52,6,21,0,4,19,10,15,52,5,24,0,4,19,10,14,Grădinița cu Program Normal,,Soconzel,47.515,23.0023
217,32,SATU MARE,HOMOROADE,46,3,15,8,1,5,9,11,44,3,17,8,1,5,12,12,Școala Solduba,Nr. 46,Solduba,47.5989,23.0391
130,32,SATU MARE,APA,30,1,36,4,1,8,1,5,29,1,36,3,1,8,5,9,Grădinița din Satul Someșeni,Nr. 73,Someșeni,47.7449,23.2097
290,32,SATU MARE,SOCOND,280,2,21,1,0,19,3,8,279,2,19,0,0,19,3,10,Școala Gimnazială Stana,Nr. 213,Stâna,47.5092,22.9615
279,32,SATU MARE,SANTĂU,8,1,40,1,7,3,0,0,7,1,38,1,7,3,0,2,Grădinița Sudurău,Nr. -,Sudurău,47.5321,22.4558
291,32,SATU MARE,SUPUR,217,2,53,6,13,21,2,4,216,3,56,5,13,19,3,6,Primăria Comunei Supur,Nr. 14,Supuru de Jos,47.4669,22.7935
297,32,SATU MARE,SUPUR,78,11,29,6,2,5,2,4,78,12,27,5,2,5,3,7,Școala Primară „Ioan Galu” Supuru de Sus,Nr. 160,Supuru de Sus,47.4332,22.7643
238,32,SATU MARE,MOFTIN,83,13,13,3,6,2,5,7,83,12,14,4,6,3,3,5,Grădinița de Copii,Nr. 73,Sânmiclăuș,47.6374,22.6049
280,32,SATU MARE,SĂCĂŞENI,41,0,12,23,180,9,3,11,41,1,10,26,183,7,4,7,Primăria Sacaseni,Nr. 467,Săcășeni,47.48,22.6831
259,32,SATU MARE,PIR,23,0,3,7,1,3,1,2,18,1,3,7,1,4,1,5,Școala Primară,Nr. 67,Sărvăzel,47.4556,22.4161
117,32,SATU MARE,ORAŞ TĂŞNAD,92,1,88,47,88,8,3,17,96,0,97,43,90,5,2,12,Școala Gimnazială Sărăuad,Nr. 141,Sărăuad,47.479,22.6232
46,32,SATU MARE,MUNICIPIUL SATU MARE,120,11,51,18,3,20,26,41,109,13,46,13,4,23,36,53,Școala Gimnazială - Sătmărel (Școala cu Clasele I-VIII - Sătmărel),,Sătmărel,47.7396,22.7922
282,32,SATU MARE,SĂUCA,58,1,17,28,6,5,1,5,54,2,21,34,6,5,2,3,Școala cu Clasele I-VIII Sauca,Nr. 23,Săuca,47.4702,22.4939
298,32,SATU MARE,TARNA MARE,184,1,290,3,37,8,14,29,193,3,296,3,33,8,9,17,Primăria Tarna Mare,Nr. 284,Tarna Mare,48.092,23.1944
301,32,SATU MARE,TEREBEŞTI,113,0,29,18,11,6,0,7,111,0,26,19,10,5,0,8,Primăria Terebesti,Nr. 166,Terebești,47.68,22.7193
305,32,SATU MARE,TIREAM,34,2,24,15,185,17,3,20,38,1,25,17,191,17,4,6,Primăria Comunei Tiream,Nr. 490,Tiream,47.6166,22.4698
196,32,SATU MARE,DOBA,34,0,5,2,1,9,1,3,35,0,5,2,1,9,3,4,Cămin Cultural Traian,Nr. 122,Traian,47.7685,22.6937
145,32,SATU MARE,BIXAD,96,4,41,9,4,16,18,29,94,5,44,13,3,15,13,26,Trip Școala Generală,Nr. 442,Trip,47.9206,23.3901
146,32,SATU MARE,BIXAD,50,5,39,8,4,2,2,7,49,5,35,11,4,1,2,6,Trip Școala Generală,Nr. 442,Trip,47.9206,23.3901
110,32,SATU MARE,ORAŞ NEGREŞTI-OAŞ,316,3,65,5,2,6,0,6,304,6,67,6,2,3,4,8,Cladire Dispensar Tur,Nr. 232,Tur,47.8825,23.3844
315,32,SATU MARE,TURULUNG,12,1,3,1,343,1,1,4,11,1,2,1,342,1,1,3,Primăria,Str. Parcului nr. 260,Turulung,47.9329,23.0826
316,32,SATU MARE,TURULUNG,50,0,4,1,393,3,0,12,46,1,4,2,399,1,1,6,Școala Gimnazială Turulung,Str. Principală nr. 13,Turulung,47.9325,23.0827
318,32,SATU MARE,TURULUNG,2,1,1,1,76,1,1,2,2,1,1,1,77,1,1,2,Grădinița,Nr. 50,Turulung Vii,47.9322,23.1483
310,32,SATU MARE,TURŢ,185,13,129,13,9,22,9,18,184,15,129,11,7,24,8,20,"Liceul Tehnologic Anghel Saligny Turt, Corpul A",Piața Eroilor (Str. Călinețe) nr. 31,Turț,47.9886,23.1966
311,32,SATU MARE,TURŢ,113,5,108,5,1,24,4,7,116,5,108,4,1,20,6,11,"Liceul Tehnologic Anghel Saligny Turt, Corpul B",Piața Eroilor (Str. Călinețe) nr. 31,Turț,47.9889,23.1969
312,32,SATU MARE,TURŢ,157,7,121,4,1,32,4,12,158,8,119,5,1,29,5,13,Școala cu Clasele I-VIII nr. 2,Str. Ulița Mare nr. 111,Turț,47.9943,23.2139
313,32,SATU MARE,TURŢ,81,3,104,6,1,8,7,12,83,3,101,3,1,8,7,10,Grădinița cu Program Normal Susani,Str. Susanii de Jos nr. 83,Turț,47.9864,23.2098
307,32,SATU MARE,TÎRŞOLŢ,36,7,119,28,1,9,2,11,37,8,118,27,1,8,5,12,Școala Gimnazială Tarsolt,Nr. 89,Târșolț,47.952,23.3368
308,32,SATU MARE,TÎRŞOLŢ,16,6,46,5,1,1,1,6,17,6,45,5,1,1,1,4,Școala Gimnazială Tarsolt,Nr. 89,Târșolț,47.952,23.3368
133,32,SATU MARE,BĂTARCI,15,1,8,2,111,3,1,3,15,0,9,3,111,3,1,2,Școala Primară Tămășeni,Nr. 78,Tămășeni,48.0153,23.1343
334,32,SATU MARE,VIILE SATU MARE,113,7,55,2,5,8,4,11,111,9,51,3,6,9,8,14,Școala Primară Tătărești,Nr. 42,Tătărești,47.6827,23.006
111,32,SATU MARE,ORAŞ TĂŞNAD,178,10,61,27,285,18,11,17,189,11,59,23,293,13,10,13,Școala Gimnazială Tășnad,Str. Nicolae Bălcescu nr. 27,Tășnad,47.4746,22.5859
112,32,SATU MARE,ORAŞ TĂŞNAD,174,16,93,21,220,9,9,30,178,19,85,21,226,14,9,24,Școala Gimnazială Tășnad,Str. Lăcrămioarelor nr. 11,Tășnad,47.4767,22.5832
113,32,SATU MARE,ORAŞ TĂŞNAD,181,12,127,23,304,29,4,13,194,11,124,19,302,27,6,11,Școala Gimnazială Tășnad,Str. Lăcrămioarelor nr. 11,Tășnad,47.4767,22.5832
114,32,SATU MARE,ORAŞ TĂŞNAD,170,8,130,38,340,14,6,26,166,10,143,42,337,16,7,15,Casa de Cultură,Str. Înfrățirii nr. 1,Tășnad,47.4786,22.5835
121,32,SATU MARE,ACÎŞ,61,0,53,1,4,4,1,5,61,0,54,2,3,6,1,3,Școala Generală Unimăt,,Unimăt,47.5079,22.743
319,32,SATU MARE,URZICENI,12,6,15,3,402,4,1,21,11,5,17,3,415,5,1,4,Camin Cultural Urziceni,Nr. 239,Urziceni,47.7368,22.3995
320,32,SATU MARE,URZICENI,8,1,6,1,18,21,4,6,7,2,6,1,20,21,4,6,Cămin Cultural Urziceni Pădure,Nr. 20,Urziceni Pădure,47.7437,22.3425
118,32,SATU MARE,ORAŞ TĂŞNAD,19,2,19,3,2,1,1,4,20,2,17,4,2,3,0,2,Grădinița cu Program Normal Valea Morii,Nr. 51,Valea Morii,47.4962,22.5407
300,32,SATU MARE,TARNA MARE,87,3,105,25,2,7,30,43,89,2,101,30,3,7,27,38,Grădinița Valea Seaca,Nr. 391,Valea Seacă,48.0804,23.1632
321,32,SATU MARE,VALEA VINULUI,146,18,44,11,1,44,8,19,139,18,48,12,1,45,7,14,Primăria Comunie Valea Vinului,Nr. 63,Valea Vinului,47.7182,23.1895
322,32,SATU MARE,VALEA VINULUI,54,0,25,1,2,18,1,4,50,0,27,1,2,19,1,4,Școala cu Clasele I-IV Marius,,Valea Vinului,47.6647,23.1824
323,32,SATU MARE,VALEA VINULUI,82,2,18,15,1,4,0,8,77,3,19,16,1,4,1,7,Școala cu Clasele I-IV Rosiori,,Valea Vinului,47.713,23.2428
324,32,SATU MARE,VALEA VINULUI,93,1,20,7,2,9,5,6,94,1,18,7,2,8,5,8,Școala cu Clasele I-IV Sii,,Valea Vinului,47.6829,23.1206
325,32,SATU MARE,VAMA,99,10,72,8,119,23,7,15,100,11,77,8,119,21,6,13,Grădinița cu Program Normal Vama,Nr. 704,Vama,47.8378,23.3917
326,32,SATU MARE,VAMA,91,7,58,7,235,10,6,15,93,10,54,11,229,11,7,15,Școala Gimnazială Vama,Nr. 743,Vama,47.8391,23.3957
327,32,SATU MARE,VETIŞ,93,13,57,7,192,32,17,34,100,12,63,6,190,34,14,25,Caminul Cultural Vetis,,Vetiș,47.8082,22.7749
306,32,SATU MARE,TIREAM,52,1,19,8,4,8,1,4,53,2,17,9,6,6,1,2,Școala Primară Vezendiu,Nr. 88,Vezendiu,47.5739,22.4307
330,32,SATU MARE,VIILE SATU MARE,60,5,36,10,628,12,8,14,62,7,28,11,629,11,6,13,Primăria Viile Satu Mare,Str. Republicii nr. 1,Viile Satu Mare,47.659,22.9534
331,32,SATU MARE,VIILE SATU MARE,52,5,21,2,76,2,4,8,50,5,23,2,77,4,3,6,Școala Primară Dealu Mare,Str. Școlii nr. 10,Viile Satu Mare,47.6487,22.968
139,32,SATU MARE,BELTIUG,29,2,23,1,5,1,1,10,29,1,30,1,7,1,2,2,Grădinița de Copii Șandra,Nr. 8,Șandra,47.5582,22.9119