id,nr_circumscriptie,circumscriptie,localitate,psd_cdep,usr_cdep,pnl_cdep,pmp_cdep,udmr_cdep,alde_cdep,pru_cdep,altele_cdep,psd_senat,usr_senat,pnl_senat,pmp_senat,udmr_senat,alde_senat,pru_senat,altele_senat,name,address,city,lat,lng
207,34,SIBIU,ORAŞ SĂLIŞTE,29,5,36,6,0,4,7,13,31,3,36,4,0,3,8,16,Cămin Cultural Aciliu,Nr. 274,Aciliu,45.8291,23.8748
148,34,SIBIU,ORAŞ AGNITA,91,23,106,9,4,13,20,46,87,23,110,10,5,13,19,42,Școala Gimnazială G.D.Teutsch,Str. Mihai Viteazu nr. 83,Agnita,45.9753,24.6139
149,34,SIBIU,ORAŞ AGNITA,124,31,135,23,8,19,18,41,121,36,134,22,8,24,23,40,Școala Gimnazială G.D.Teutsch,Piața G. D. Teutsch nr. 1,Agnita,45.9733,24.6234
150,34,SIBIU,ORAŞ AGNITA,80,18,110,12,6,20,9,24,81,21,106,15,8,19,9,20,Grădinița cu Program Prelungit,Str. Fabricii nr. 44,Agnita,45.9778,24.6167
151,34,SIBIU,ORAŞ AGNITA,120,22,130,12,4,14,11,33,115,25,129,16,5,10,11,33,Casa Seniorilor,Str. Mihai Viteazu nr. 9,Agnita,45.9755,24.6202
152,34,SIBIU,ORAŞ AGNITA,73,20,89,16,2,12,10,19,76,22,87,15,2,13,9,19,Colegiul Tehnic A.T. Laurean,Str. Școlii (D) nr. 2,Agnita,45.975,24.6288
153,34,SIBIU,ORAŞ AGNITA,85,21,106,14,3,20,12,20,80,21,104,16,4,22,15,26,Casa de Cultură „Ilarion Cocișiu”,Str. Școlii (D) nr. 1B,Agnita,45.9754,24.6282
154,34,SIBIU,ORAŞ AGNITA,113,30,105,20,7,15,33,58,108,30,112,22,7,13,39,55,Grădinița cu Program Prelungit nr. 2,Str. Horea nr. 38,Agnita,45.9789,24.6266
227,34,SIBIU,AXENTE SEVER,84,25,116,4,1,19,6,12,81,26,113,3,1,22,10,16,Cămin Cultural,,Agârbiciu,46.067,24.1929
214,34,SIBIU,ALMA,121,5,136,4,65,4,4,11,124,5,132,4,60,5,5,18,Căminul Cultural Alma,Nr. 228,Alma,46.2138,24.4802
303,34,SIBIU,MOŞNA,55,3,26,1,1,0,1,7,51,5,24,1,0,1,3,10,Grădinița cu Program Normal Alma Vii,Nr. 121,Alma Vii,46.0478,24.4311
287,34,SIBIU,LOAMNEŞ,137,8,54,4,2,4,2,13,142,9,47,6,1,4,1,8,Cămin Cultural Alămor,Nr. 331,Alămor,45.9289,23.9925
217,34,SIBIU,ALŢINA,316,12,124,2,1,5,3,12,321,11,127,3,1,3,3,7,Sediu Primăria,,Alțina,45.9284,24.4627
206,34,SIBIU,ORAŞ SĂLIŞTE,29,3,61,5,0,3,4,9,29,3,60,5,0,2,4,13,Școala Primară Amnaș,Nr. 363,Amnaș,45.8457,23.8962
220,34,SIBIU,APOLDU DE JOS,156,17,184,7,0,9,4,15,156,16,185,5,0,9,6,16,Cămin Cultural Apoldu de Jos,Nr. 77,Apoldu de Jos,45.8796,23.8475
192,34,SIBIU,ORAŞ MIERCUREA SIBIULUI,62,15,115,8,1,7,1,20,68,20,120,7,0,6,4,9,Camin Cultural,Nr. 232,Apoldu de Sus,45.8508,23.8242
239,34,SIBIU,BÎRGHIŞ,24,4,25,1,1,2,3,5,26,6,22,1,1,2,2,4,Școala Primară Apoș,Nr. fără număr,Apoș,46.0282,24.5521
288,34,SIBIU,LOAMNEŞ,51,4,44,0,0,5,1,5,54,4,42,0,0,3,0,6,Școala Primară Armeni,Nr. 242,Armeni,45.9687,23.9751
222,34,SIBIU,ARPAŞU DE JOS,87,12,136,29,0,1,2,12,90,14,136,21,0,5,3,10,Primăria Comunei Arpasu de Jos,Nr. 214,Arpașu de Jos,45.7791,24.6212
223,34,SIBIU,ARPAŞU DE JOS,74,13,219,17,4,4,6,8,72,14,206,17,4,5,9,18,Școala Gimnazială „Aurel Popa”,Nr. 13,Arpașu de Sus,45.7352,24.6176
157,34,SIBIU,ORAŞ AVRIG,113,22,110,26,1,6,12,41,112,25,112,27,1,8,11,39,Grădinița nr. 3 Program Prelungit,Str. Samuel Brukenthal nr. 149,Avrig,45.7243,24.3926
158,34,SIBIU,ORAŞ AVRIG,77,39,207,62,1,17,20,45,84,47,215,58,1,21,12,23,Școala Gimnazială Avrig,Str. Lazăr Gheorghe nr. 37,Avrig,45.7287,24.3766
159,34,SIBIU,ORAŞ AVRIG,97,45,231,38,1,7,25,41,93,48,237,31,2,10,21,36,Școala Gimnazială Avrig,Str. Lazăr Gheorghe nr. 37,Avrig,45.7287,24.3766
160,34,SIBIU,ORAŞ AVRIG,102,36,206,34,3,10,25,53,108,44,206,37,2,12,16,40,Grădinița nr. 1 Program Normal,Str. Samuel Brukenthal nr. 41,Avrig,45.7248,24.3805
161,34,SIBIU,ORAŞ AVRIG,111,39,168,29,3,7,11,23,114,35,169,26,3,8,5,18,"Liceul „Gheorghe Lazăr”, Avrig",Str. Horea nr. 15,Avrig,45.7274,24.3825
162,34,SIBIU,ORAŞ AVRIG,138,52,166,41,5,18,19,44,143,50,172,38,4,17,8,36,"Liceul „Gheorghe Lazăr”, Avrig",Str. Horea nr. 15,Avrig,45.7274,24.3825
229,34,SIBIU,AXENTE SEVER,112,19,107,11,1,11,2,18,110,23,104,13,2,11,5,19,Școala Gimnazială Axente Sever,Nr. 317,Axente Sever,46.0926,24.2143
230,34,SIBIU,AXENTE SEVER,80,18,112,10,1,4,2,14,82,19,109,9,1,6,4,16,Sala de Festivități,Nr. 301,Axente Sever,46.0907,24.2128
225,34,SIBIU,AŢEL,86,20,144,13,1,81,8,20,87,19,145,14,2,83,6,17,Primăria Atel,Nr. 388,Ațel,46.1572,24.4666
231,34,SIBIU,BAZNA,103,17,148,8,9,12,6,17,104,17,138,10,10,15,7,23,Primăria Bazna,Nr. 500,Bazna,46.201,24.2803
218,34,SIBIU,ALŢINA,54,0,18,1,2,4,3,6,50,0,20,1,2,2,5,8,Fost Sediu Cap,,Benești,45.9559,24.5006
234,34,SIBIU,BIERTAN,132,12,223,3,6,6,2,15,131,14,225,6,5,5,1,13,Primăria Comunei Biertan,Nr. 19,Biertan,46.136,24.5202
245,34,SIBIU,BLĂJEL,178,8,314,12,33,10,4,17,179,13,314,10,30,11,3,19,Căminul Cultural Blăjel,Str. Tudor Vladimirescu nr. 70,Blăjel,46.2113,24.3242
344,34,SIBIU,ŞEICA MARE,26,5,39,2,15,4,3,8,27,3,41,3,13,5,2,7,Școala Primară Boarta,Nr. f.nr.,Boarta,46.0106,24.1946
313,34,SIBIU,PĂUCA,67,1,142,0,0,3,9,21,72,1,142,6,0,3,5,11,Școala Gimnazială Bogatu-Român,Nr. 130,Bogatu Român,45.9907,23.9337
232,34,SIBIU,BAZNA,60,5,285,10,3,3,5,15,58,3,273,12,3,2,5,20,Școala Gimnazială Boian,Nr. FN,Boian,46.203,24.2279
246,34,SIBIU,BOIŢA,125,21,177,4,0,5,3,12,125,32,158,13,0,5,2,10,Primăria Comunei Boița,Str. Traian nr. 263,Boița,45.6334,24.2589
165,34,SIBIU,ORAŞ AVRIG,52,18,136,6,0,7,4,12,55,18,132,7,0,10,1,11,Școala Gimnazială Bradu,,Bradu,45.7212,24.3267
247,34,SIBIU,BRATEIU,58,4,124,23,1,4,2,15,59,3,133,20,2,6,0,10,Căminul Cultural Brateiu,Nr. 31,Brateiu,46.174,24.4226
248,34,SIBIU,BRATEIU,62,12,139,23,3,7,5,22,63,12,141,22,3,8,4,15,Școala Gimnazială Brateiu,Nr. 68,Brateiu,46.1691,24.423
314,34,SIBIU,PĂUCA,59,1,94,0,0,3,5,7,61,2,97,3,0,3,6,7,Școala Primară Broșteni,Nr. 70,Broșteni,46.0311,23.9523
253,34,SIBIU,BRUIU,63,1,39,3,0,12,1,12,62,3,34,4,0,13,0,12,Primăria Bruiu,Nr. 19,Bruiu,45.8752,24.7019
250,34,SIBIU,BRĂDENI,49,4,154,3,2,4,9,25,56,3,161,3,2,3,6,14,Sala Mare-Primărie,Nr. 31,Brădeni,46.0839,24.8312
345,34,SIBIU,ŞEICA MARE,20,1,49,3,7,4,1,10,17,5,49,2,7,5,2,10,Școala Primară Buia,Nr. f.nr.,Buia,45.9739,24.2765
355,34,SIBIU,ŞELIMBĂR,34,9,63,7,0,3,0,2,31,10,63,7,0,2,2,10,Cămin Cultural Bungrad,Nr. 18,Bungard,45.7758,24.2207
249,34,SIBIU,BRATEIU,54,1,149,24,1,4,0,7,53,2,151,28,1,4,1,6,Școala Gimnazială Buzd,Nr. 35,Buzd,46.1364,24.4136
238,34,SIBIU,BÎRGHIŞ,49,8,155,7,8,4,6,16,45,4,159,7,12,6,8,15,Grădinița cu Program Normal Bîrghiș,Nr. 75,Bârghiș,45.9887,24.537
333,34,SIBIU,ROŞIA,33,2,51,8,0,4,3,10,30,4,52,6,1,4,4,9,Școala Gimnazială Cașolț,Nr. 145,Cașolț,45.778,24.2827
297,34,SIBIU,MICĂSASA,25,0,8,3,1,1,0,5,23,1,10,3,1,1,0,6,Dispensarul Medical Chesler,Nr. 136,Chesler,46.1428,24.1866
255,34,SIBIU,CHIRPĂR,155,4,143,2,1,4,2,7,144,5,150,1,1,3,5,11,Școala Gimnazială Chirpăr,Nr. 46,Chirpăr,45.8939,24.597
169,34,SIBIU,ORAŞ CISNĂDIE,142,63,196,21,2,13,18,48,145,61,185,34,4,20,14,41,Grădinița cu Program Prelungit nr. 7,Piața Nouă nr. 12,Cisnădie,45.7102,24.1376
170,34,SIBIU,ORAŞ CISNĂDIE,146,49,171,32,0,13,11,35,144,52,163,40,1,14,14,36,Clubul Copiilor Cisnădie,Str. Măgurii nr. 93,Cisnădie,45.708,24.1403
171,34,SIBIU,ORAŞ CISNĂDIE,127,45,195,22,4,18,10,43,125,50,187,28,3,20,15,42,Grădinița cu Program Prelungit nr. 6,Str. Stejarului nr. F.N,Cisnădie,45.7104,24.1415
172,34,SIBIU,ORAŞ CISNĂDIE,149,81,185,22,2,15,14,45,140,81,187,32,2,19,16,43,Școala Gimnazială nr. 3 Cisnădie,Str. Măgurii nr. 63,Cisnădie,45.7092,24.1437
173,34,SIBIU,ORAŞ CISNĂDIE,163,45,191,25,4,11,11,45,165,50,184,26,3,14,8,37,Liceul Teoretic „Gustav Gundisch” Cisnădie,Str. Măgurii nr. 5,Cisnădie,45.7123,24.15
174,34,SIBIU,ORAŞ CISNĂDIE,127,68,183,30,2,26,14,59,120,76,170,40,1,32,11,53,Grădinița cu Program Normal nr. 3,Str. Unirii (Str. 6 Martie) nr. 6,Cisnădie,45.7116,24.1523
175,34,SIBIU,ORAŞ CISNĂDIE,118,74,187,27,2,23,22,67,118,74,184,39,3,21,26,68,Școala Gimnazială nr. 2 Cisnădie,Str. Țesătorilor nr. 47,Cisnădie,45.7148,24.1456
176,34,SIBIU,ORAŞ CISNĂDIE,89,33,150,27,3,13,10,32,85,37,144,33,2,15,9,30,Liceul Tehnologic Cisnădie,Str. Târgului (Str. Tîrgului) nr. 14,Cisnădie,45.7134,24.1579
177,34,SIBIU,ORAŞ CISNĂDIE,79,24,121,15,2,8,5,27,79,31,120,12,1,11,5,21,Liceul Tehnologic Cisnădie,Str. Târgului (Str. Tîrgului) nr. 14,Cisnădie,45.7134,24.1579
178,34,SIBIU,ORAŞ CISNĂDIE,133,216,230,30,2,25,17,57,129,216,239,32,2,26,18,43,Grădinița cu Program Normal nr. 1,Str. Șelimbărului nr. 1,Cisnădie,45.7182,24.1564
179,34,SIBIU,ORAŞ CISNĂDIE,93,53,128,17,2,9,7,33,97,53,125,22,2,10,7,25,Grădinița cu Program Normal nr. 1,Str. Șelimbărului nr. 1,Cisnădie,45.7182,24.1564
168,34,SIBIU,ORAŞ CISNĂDIE,25,37,58,11,0,15,7,27,25,43,56,14,1,14,6,17,Grădinița cu Program Normal Cisnădioara,,Cisnădioara,45.7045,24.1106
212,34,SIBIU,ORAŞ TĂLMACIU,26,3,34,2,2,2,0,4,27,3,34,2,1,2,2,7,Liceul Tehnologic/Școala Colonie Talmaciu Ii,Nr. 18,Colonia Tălmaciu,45.6885,24.2524
323,34,SIBIU,PORUMBACU DE JOS,11,20,15,3,0,3,1,7,15,19,15,2,0,3,1,5,Căminul Cultural Colun,Nr. 40,Colun,45.7799,24.5048
236,34,SIBIU,BIERTAN,96,4,67,1,1,1,1,5,96,4,66,1,1,1,1,6,Școala Primară Copsa Mare,Nr. 141,Copșa Mare,46.1317,24.5487
180,34,SIBIU,ORAŞ COPŞA MICĂ,120,6,102,4,2,7,7,14,121,7,100,2,2,9,9,15,"Școala Gimnazială Copșa Mică, Strada Colonia Laborator nr. 45",Colonia Laborator nr. 45,Copșa Mică,46.1059,24.2266
181,34,SIBIU,ORAŞ COPŞA MICĂ,118,26,165,5,3,7,5,16,118,26,157,8,4,11,4,15,"Liceul Tehnologic „Nicolae Teclu” Copșa Mică, Strada Șoseaua Sibiului nr. 61",Șoseaua Sibiului (Str. Chimiștilor) nr. 61,Copșa Mică,46.11,24.2259
182,34,SIBIU,ORAŞ COPŞA MICĂ,82,12,91,6,68,3,1,7,78,10,90,5,68,0,2,19,"Școala Gimnazială nr. 1 Copșa Mică, Strada Șoseaua Mediașului nr. 93",Șoseaua Mediașului (Șoseaua Colectiviștilor) nr. 93,Copșa Mică,46.1179,24.2559
183,34,SIBIU,ORAŞ COPŞA MICĂ,31,5,49,1,2,0,2,7,34,6,47,1,1,0,2,4,"Școala Primară nr. 2 Copșa Mică, Strada Târnăvioara nr. 76",Str. Târnăvioara nr. 76,Copșa Mică,46.1226,24.2469
334,34,SIBIU,ROŞIA,76,24,43,2,4,14,3,14,74,25,43,3,1,14,3,15,Sediul Administrativ Dispensar,Nr. 149,Cornățel,45.7973,24.3536
155,34,SIBIU,ORAŞ AGNITA,68,3,44,6,0,5,3,6,66,4,42,6,0,7,2,6,Școala Gimnazială Coveș,Nr. 172,Coveș,45.98,24.5714
261,34,SIBIU,CRISTIAN,49,11,113,19,0,8,4,16,49,9,120,21,0,8,7,15,Primăria Comunei Cristian,Str. I nr. 1,Cristian,45.7804,24.0283
262,34,SIBIU,CRISTIAN,68,68,206,23,4,10,2,23,62,64,208,24,4,14,2,25,Grădinița cu Program Prelungit Cristian,Str. XI nr. 30,Cristian,45.7865,24.0249
263,34,SIBIU,CRISTIAN,67,43,214,18,0,16,11,25,61,51,204,17,0,20,12,24,"Școala Gimnazială, Cristian",Str. V nr. 8,Cristian,45.7839,24.028
266,34,SIBIU,DÎRLOS,14,1,152,3,3,3,2,12,15,5,144,4,4,3,3,13,Școala Gimnazială Curciu,Nr. 64,Curciu,46.2444,24.4058
259,34,SIBIU,CÎRŢA,141,10,74,8,0,8,7,23,141,17,76,5,1,6,6,15,Primăria Cirta,Nr. 104,Cârța,45.7905,24.5659
260,34,SIBIU,CÎRŢIŞOARA,211,7,115,9,2,8,4,19,205,10,113,9,1,9,3,22,Primăria Comunei Cîrțișoara,Nr. 55,Cârțișoara,45.7263,24.58
332,34,SIBIU,ROŞIA,28,3,135,7,0,14,3,10,31,2,133,7,0,14,4,12,Școala Gimaziala Daia,Nr. 177,Daia,45.8014,24.282
294,34,SIBIU,MERGHINDEAL,143,2,46,1,1,1,3,10,145,2,48,1,1,1,1,5,Școala Primară Dealu Frumos,Nr. 314,Dealu Frumos,45.9887,24.6984
193,34,SIBIU,ORAŞ MIERCUREA SIBIULUI,53,6,24,3,2,8,6,12,55,7,24,2,2,6,4,10,Camin Cultural,Nr. 62,Dobârca,45.8501,23.7731
184,34,SIBIU,ORAŞ DUMBRĂVENI,135,44,144,12,38,19,9,27,135,42,147,12,39,14,13,30,Primăria Orașului Dumbrăveni,Bulevardul Mihail Eminescu (Bulevardul V. I. Lenin) nr. 6,Dumbrăveni,46.2254,24.5754
185,34,SIBIU,ORAŞ DUMBRĂVENI,149,19,140,27,31,13,7,16,149,23,142,31,31,13,5,10,Liceul Teoretic Dumbrăveni,Str. Cuza Vodă nr. 5-7,Dumbrăveni,46.2262,24.5786
186,34,SIBIU,ORAŞ DUMBRĂVENI,130,14,69,13,21,3,6,13,134,12,72,14,20,2,8,13,Liceul Tehnologic „Timotei Cipariu” Dumbrăveni,Piața Timotei Cipariu (Str. Piața Republicii) nr. 9,Dumbrăveni,46.224,24.5773
187,34,SIBIU,ORAŞ DUMBRĂVENI,125,17,123,9,22,14,9,29,121,20,117,11,22,16,11,28,Centrul Școlar Pentru Educație Incluzivă Dumbrăveni,Str. Tudor Vladimirescu nr. 32,Dumbrăveni,46.2237,24.5727
226,34,SIBIU,AŢEL,19,5,25,2,3,1,1,9,19,6,25,1,3,3,1,8,Cladirea Primăriei (fosta Școală),Nr. 107,Dupuș,46.1519,24.4968
264,34,SIBIU,DÎRLOS,59,7,104,8,7,13,5,20,60,9,97,7,6,14,9,24,Cămin Cultural Dîrlos,Nr. 590,Dârlos,46.1871,24.4079
265,34,SIBIU,DÎRLOS,75,8,97,15,3,15,11,33,83,7,105,15,2,14,8,25,Școala Gimnazială „Ioan Moraru” Dîrlos,Nr. 439,Dârlos,46.1908,24.4128
189,34,SIBIU,ORAŞ DUMBRĂVENI,77,4,54,6,5,6,2,12,74,4,58,8,4,4,3,9,Școala Primară Ernea,,Ernea,46.2347,24.5281
282,34,SIBIU,LASLEA,17,1,16,1,0,3,2,4,17,1,16,1,0,3,3,5,Cămin Cultural Florești,Nr. 81,Florești,46.1595,24.6609
307,34,SIBIU,NOCRICH,26,0,136,1,0,1,2,5,24,0,129,1,0,1,1,8,Școala Primară Fofeldea,Nr. 189,Fofeldea,45.8358,24.4982
203,34,SIBIU,ORAŞ SĂLIŞTE,19,0,40,0,0,0,2,4,17,0,40,0,0,2,2,5,Cămin Cultural Fântânele,Nr. 49,Fântânele,45.7556,23.9267
200,34,SIBIU,ORAŞ SĂLIŞTE,34,2,54,7,0,6,6,9,29,3,51,6,0,9,6,12,Muzeul Etnografic „Maria Costachescu”,Nr. 172,Galeș,45.7981,23.862
308,34,SIBIU,NOCRICH,20,4,21,1,0,1,0,1,18,4,20,1,0,1,1,2,Fosta Școala Ghijasa de Jos,Nr. 66,Ghijasa de Jos,45.9197,24.3916
219,34,SIBIU,ALŢINA,35,1,15,6,2,1,4,8,33,2,13,8,2,2,3,8,Fost Sediu Cap,,Ghijasa de Sus,45.9788,24.4177
215,34,SIBIU,ALMA,71,0,25,2,2,0,1,4,69,1,21,2,1,1,2,6,Școala Primară Giacăș,Nr. 76,Giacăș,46.2437,24.4739
167,34,SIBIU,ORAŞ AVRIG,8,4,44,26,1,1,5,8,10,4,45,24,1,1,6,7,Școala Primară Glîmboaca,,Glâmboaca,45.7817,24.4606
268,34,SIBIU,GURA RÎULUI,134,40,384,17,0,18,11,24,144,40,385,12,0,21,13,21,Școala Gimnazială „Aurel Decei” Gura Râului,Nr. 70,Gura Râului,45.7296,23.9821
269,34,SIBIU,GURA RÎULUI,113,22,371,6,2,17,6,22,105,23,374,10,2,21,7,18,Grădinița cu Program Normal nr. 2 Gura Râului,Nr. 538,Gura Râului,45.7241,23.9751
358,34,SIBIU,ŞURA MARE,65,15,85,10,0,7,10,23,67,15,87,10,0,6,9,21,Căminul Cultural,Str. Cooperativei nr. 53,Hamba,45.8623,24.1932
289,34,SIBIU,LOAMNEŞ,79,3,72,6,1,3,2,9,83,3,72,6,1,2,2,8,Școala Primară Hașag,Nr. 122,Hașag,45.9782,24.0761
270,34,SIBIU,HOGHILAG,189,1,94,28,4,9,3,9,197,0,96,24,3,7,3,7,Primăria Hoghilag,Nr. 305,Hoghilag,46.2291,24.6121
306,34,SIBIU,NOCRICH,54,4,68,3,1,2,3,8,52,4,73,3,2,3,3,8,Școala Gimnazială Hosman,Nr. 328,Hosman,45.834,24.4296
273,34,SIBIU,IACOBENI,207,2,61,5,0,1,3,11,207,4,60,6,0,0,4,7,Primăria Iacobeni,Nr. 57,Iacobeni,46.0509,24.7172
147,34,SIBIU,MUNICIPIUL MEDIAŞ,55,10,228,19,2,14,3,9,52,10,227,21,2,14,4,14,Școala Gimnazială,,Ighișu Nou,46.1128,24.3453
237,34,SIBIU,BÎRGHIŞ,39,0,37,1,2,3,5,8,28,2,35,2,3,5,9,11,Cămin Cultural Ighișu Vechi,Nr. 34,Ighișu Vechi,45.9893,24.4849
292,34,SIBIU,MARPOD,16,5,60,0,0,1,3,5,17,7,57,0,0,1,3,5,Fostă Școală Generală Ilimbav,Nr. 82,Ilimbav,45.8672,24.5293
278,34,SIBIU,JINA,68,3,318,29,0,19,13,27,75,0,323,24,1,17,13,27,Primăria Comunei Jina,Nr. 1210,Jina,45.7838,23.6806
279,34,SIBIU,JINA,52,7,114,47,1,11,4,28,55,7,109,54,2,9,6,19,Școala Gimnazială Jina Băieși,Nr. 1493,Jina,45.794,23.6942
280,34,SIBIU,LASLEA,235,20,98,11,2,7,4,15,231,21,100,11,2,9,5,15,Cămin Cultural Laslea,Nr. 9,Laslea,46.2105,24.657
285,34,SIBIU,LOAMNEŞ,140,5,63,13,1,9,3,10,138,9,68,8,1,8,2,12,Cămin Cultural Loamneș,Nr. 139,Loamneș,45.9442,24.0855
290,34,SIBIU,LUDOŞ,128,6,80,1,0,19,1,5,123,7,78,8,0,13,1,6,Primăria Comunei Ludoș,Nr. 73,Ludoș,45.9252,23.9001
205,34,SIBIU,ORAŞ SĂLIŞTE,34,5,144,2,1,3,7,10,33,4,145,4,1,3,9,11,Școala Primară Mag,Nr. 120,Mag,45.8193,23.9532
291,34,SIBIU,MARPOD,40,7,205,8,1,3,6,10,39,5,208,10,1,3,5,11,Primăria Marpod,Nr. 327,Marpod,45.8715,24.494
106,34,SIBIU,MUNICIPIUL MEDIAŞ,105,49,140,16,38,11,13,49,104,43,132,15,41,17,15,51,Școala Gimnazială Hermann Oberth,Piața Castelului nr. 2,Mediaș,46.1654,24.3509
107,34,SIBIU,MUNICIPIUL MEDIAŞ,111,42,115,16,34,15,7,30,111,40,110,15,35,12,5,36,Grădinița cu Program Prelungit nr. 12,Str. Constantin Brâncoveanu (Str. Marx Karl) nr. 13,Mediaș,46.1671,24.3488
108,34,SIBIU,MUNICIPIUL MEDIAŞ,101,45,206,13,50,16,15,40,101,50,191,15,46,20,14,49,Școala Gimnazială Mihai Eminescu,Str. Mihai Viteazu (Str. Viitorului) nr. 14,Mediaș,46.167,24.3542
109,34,SIBIU,MUNICIPIUL MEDIAŞ,111,46,154,20,54,9,5,29,104,43,154,23,54,8,5,35,Grădinița cu Program Prelungit Bucuria Copiilor,Str. După Zid nr. 11,Mediaș,46.1704,24.352
110,34,SIBIU,MUNICIPIUL MEDIAŞ,65,30,96,8,48,7,4,14,62,32,97,8,39,9,8,21,Vestiar Sparta,Str. Stadionului nr. 85,Mediaș,46.1731,24.3572
111,34,SIBIU,MUNICIPIUL MEDIAŞ,65,24,137,0,46,8,11,31,72,27,125,5,46,11,12,30,Stadionul Municipal Gaz Metan,,Mediaș,46.1725,24.352
112,34,SIBIU,MUNICIPIUL MEDIAŞ,133,40,190,27,47,22,16,45,132,47,179,26,45,22,16,50,Școala Hula Veche S.R.L.,Str. Codrului nr. 2,Mediaș,46.1777,24.3357
113,34,SIBIU,MUNICIPIUL MEDIAŞ,108,33,161,11,35,14,14,42,106,37,153,9,36,15,11,48,Clubul Copiilor,Str. Nucului (Str. Nucilor) nr. 5,Mediaș,46.1704,24.3383
114,34,SIBIU,MUNICIPIUL MEDIAŞ,76,31,187,8,23,14,18,41,76,31,175,7,21,18,16,51,Centru Școlar de Educație Incluzivă Mediaș,Str. Piscului nr. nr.8,Mediaș,46.1683,24.3306
115,34,SIBIU,MUNICIPIUL MEDIAŞ,144,38,232,12,32,12,10,37,140,35,224,13,31,13,7,50,Școala Gimnazială nr. 7,Str. Cîmpeni (Str. 1 Decembrie) (D) nr. 34,Mediaș,46.1663,24.3329
116,34,SIBIU,MUNICIPIUL MEDIAŞ,99,21,113,11,30,9,6,19,94,21,111,11,29,10,5,25,Școala Gimnazială nr. 7,Str. Cîmpeni (Str. 1 Decembrie) (D) nr. 34,Mediaș,46.1663,24.3329
117,34,SIBIU,MUNICIPIUL MEDIAŞ,108,36,157,10,29,22,12,44,105,33,157,9,25,27,11,48,Școala Gimnazială nr. 7,Str. Cîmpeni (Str. 1 Decembrie) (D) nr. 34,Mediaș,46.1663,24.3329
118,34,SIBIU,MUNICIPIUL MEDIAŞ,109,25,110,9,27,7,4,29,108,24,104,9,26,8,4,36,Școala Gimnazială nr. 7,Str. Cîmpeni (Str. 1 Decembrie) (D) nr. nr.34,Mediaș,46.1663,24.3329
119,34,SIBIU,MUNICIPIUL MEDIAŞ,142,28,150,16,40,22,17,54,140,30,153,11,41,23,15,56,Grădinița cu Program Prelungit Rază de Soare,"Str. Cluj (Str. Titus Andronic, Str. Clujului) (D) nr. 12",Mediaș,46.1667,24.3358
120,34,SIBIU,MUNICIPIUL MEDIAŞ,97,34,150,9,21,9,9,31,99,34,135,8,22,5,7,42,Școala Gimnazială nr. 5 Corp A,Str. Cîmpeni (Str. 1 Decembrie) (D) nr. 26,Mediaș,46.1681,24.3378
121,34,SIBIU,MUNICIPIUL MEDIAŞ,93,18,107,22,17,9,9,24,98,20,98,22,15,8,9,31,Școala Gimnazială nr. 5 Corp A,Str. Cîmpeni (Str. 1 Decembrie) (D) nr. 26,Mediaș,46.1681,24.3378
122,34,SIBIU,MUNICIPIUL MEDIAŞ,117,34,136,15,23,12,15,31,109,30,138,15,22,16,11,37,Grădinița cu Program Prelungit nr. 7,Str. Merilor nr. 23,Mediaș,46.1691,24.339
123,34,SIBIU,MUNICIPIUL MEDIAŞ,138,33,289,17,37,19,11,47,134,31,270,19,37,23,10,61,Grădinița cu Program Prelungit Piticot,Str. Lucian Blaga (Str. 1 Septembrie) nr. 8,Mediaș,46.161,24.3457
124,34,SIBIU,MUNICIPIUL MEDIAŞ,126,55,122,14,7,8,13,34,123,49,123,15,10,13,13,34,Școala Gimnazială nr. 4,Str. Stephan Ludwig Roth nr. nr.21,Mediaș,46.162,24.3492
125,34,SIBIU,MUNICIPIUL MEDIAŞ,114,44,179,22,24,13,18,45,116,40,166,18,23,11,15,65,Școala Gimnazială nr. 4,Str. Dealul Furcilor nr. 7,Mediaș,46.1655,24.3656
126,34,SIBIU,MUNICIPIUL MEDIAŞ,102,51,194,9,30,13,8,26,106,48,192,9,30,15,7,26,Spațiu cu Altă Detinație,Str. George Topârceanu (Str. George Topîrceanu) nr. fn,Mediaș,46.1668,24.3591
127,34,SIBIU,MUNICIPIUL MEDIAŞ,47,7,118,10,21,4,5,20,48,7,118,11,19,4,4,20,Școala Automecanica Sa,Str. Aurel Vlaicu nr. fn,Mediaș,46.1696,24.3737
128,34,SIBIU,MUNICIPIUL MEDIAŞ,98,40,159,22,30,13,8,27,97,39,146,23,30,14,10,43,Școala Transgaz Sa,Str. George Coșbuc nr. 29,Mediaș,46.1628,24.3583
129,34,SIBIU,MUNICIPIUL MEDIAŞ,107,54,191,31,21,12,15,29,107,66,172,27,22,6,15,45,Societate Comercială,Str. Moșnei (Str. Valea Moșnei) nr. 22,Mediaș,46.1472,24.3686
130,34,SIBIU,MUNICIPIUL MEDIAŞ,119,53,249,25,53,14,21,50,124,52,232,26,54,14,16,63,Complex Comercial,Str. Stejarului nr. nr.1,Mediaș,46.1571,24.3633
131,34,SIBIU,MUNICIPIUL MEDIAŞ,92,43,150,9,17,12,7,40,103,46,134,10,16,14,6,43,Școala Gimnazială George Popa,Str. Avram Iancu nr. nr.42,Mediaș,46.157,24.3589
132,34,SIBIU,MUNICIPIUL MEDIAŞ,127,32,256,21,29,14,6,26,127,29,245,22,30,13,6,42,Școala Gimnazială George Popa,Str. Avram Iancu nr. 42,Mediaș,46.157,24.3589
133,34,SIBIU,MUNICIPIUL MEDIAŞ,99,50,216,29,22,23,18,41,102,46,208,25,21,32,15,48,Școala Gimnazială George Popa,Str. Avram Iancu nr. 12,Mediaș,46.16,24.3561
134,34,SIBIU,MUNICIPIUL MEDIAŞ,102,55,211,19,21,11,9,36,93,41,203,16,21,15,16,63,Liceul Tehnologic Școala Națională de Gaze,Str. Metanului nr. nr.1,Mediaș,46.1572,24.3542
135,34,SIBIU,MUNICIPIUL MEDIAŞ,119,48,173,20,21,15,12,44,128,48,159,21,21,15,8,44,Muzeul Herman Oberth,Str. Hermann Oberth (Str. Salcîmilor) nr. 31,Mediaș,46.1584,24.3463
136,34,SIBIU,MUNICIPIUL MEDIAŞ,124,49,157,11,28,9,6,21,128,47,154,12,24,8,10,29,Colegiul Tehnic Mediensis,Str. Sticlei nr. 9,Mediaș,46.1535,24.3419
137,34,SIBIU,MUNICIPIUL MEDIAŞ,91,55,166,18,28,15,11,33,90,57,156,17,30,18,9,38,Școala Gimnazială Cireșarii,Str. Sticlei nr. 11,Mediaș,46.1526,24.3418
138,34,SIBIU,MUNICIPIUL MEDIAŞ,108,29,139,14,46,16,5,16,105,31,128,17,44,15,8,27,Grădinița cu Program Prelungit Pinocchio,Str. Rubinului nr. 5,Mediaș,46.1514,24.3389
139,34,SIBIU,MUNICIPIUL MEDIAŞ,93,20,170,18,27,16,4,32,97,19,164,20,25,16,3,37,Școala Gimnazială Constantin Ioan Motaș,Str. Sebeșului nr. 3,Mediaș,46.1505,24.3331
140,34,SIBIU,MUNICIPIUL MEDIAŞ,164,31,151,11,19,4,11,22,158,34,140,10,16,8,15,34,Școala Gimnazială Constantin Ioan Motaș,Str. Sebeșului nr. 3,Mediaș,46.1505,24.3331
141,34,SIBIU,MUNICIPIUL MEDIAŞ,118,30,176,19,15,10,6,31,109,26,177,18,16,16,7,36,Școala Gimnazială Constantin Ioan Motaș,Str. Sebeșului nr. 3,Mediaș,46.1505,24.3331
142,34,SIBIU,MUNICIPIUL MEDIAŞ,101,25,135,9,27,6,5,27,98,27,130,7,26,9,7,36,Școala Gimnazială Constantin Ioan Motaș,Str. Sebeșului nr. 3,Mediaș,46.1505,24.3331
143,34,SIBIU,MUNICIPIUL MEDIAŞ,107,41,173,20,23,17,8,24,105,40,168,19,25,13,8,33,Școala Gimnazială Constantin Ioan Motaș,Str. Sebeșului nr. nr.3,Mediaș,46.1505,24.3331
144,34,SIBIU,MUNICIPIUL MEDIAŞ,108,19,139,8,24,5,9,29,106,21,134,8,25,7,11,33,Școala Gimnazială Constantin Ioan Motaș,Str. Sebeșului nr. 3,Mediaș,46.1505,24.3331
145,34,SIBIU,MUNICIPIUL MEDIAŞ,95,30,152,11,19,7,5,24,93,31,147,11,19,10,5,27,Universitatea Lucian Blaga,Str. Lotru nr. fn,Mediaș,46.1458,24.3307
146,34,SIBIU,MUNICIPIUL MEDIAŞ,107,39,185,16,25,10,9,26,110,39,186,9,25,11,9,32,Universitatea Lucian Blaga,Str. Lotru nr. fn,Mediaș,46.1458,24.3307
293,34,SIBIU,MERGHINDEAL,115,3,122,18,1,1,3,8,117,4,125,15,0,5,3,6,"Clădire Remiză Merghindeal, Numarul 60",Nr. 60,Merghindeal,45.966,24.7256
299,34,SIBIU,MIHĂILENI,61,2,13,3,0,0,2,5,59,3,13,3,0,0,2,4,Școala Primară Metiș,Nr. 2,Metiș,46.0193,24.4054
295,34,SIBIU,MICĂSASA,188,19,170,6,10,10,10,26,183,19,165,6,9,12,16,34,Școala Gimnazială „Corneliu Păcurariu” Micăsasa,Str. Octavian Goga nr. 460,Micăsasa,46.0864,24.1069
190,34,SIBIU,ORAŞ MIERCUREA SIBIULUI,87,19,127,8,3,15,1,6,79,16,128,10,1,19,3,10,Primăria Orașului Miercurea Sibiului,Str. Ilie Măcelariu nr. 48,Miercurea Sibiului,45.8871,23.7948
191,34,SIBIU,ORAŞ MIERCUREA SIBIULUI,57,16,152,7,1,3,9,17,56,17,149,8,1,3,11,20,Primăria Orașului Miercurea Sibiului,Str. Ilie Măcelariu nr. 48,Miercurea Sibiului,45.8871,23.7948
298,34,SIBIU,MIHĂILENI,32,1,26,2,0,1,2,4,33,1,24,1,0,1,3,3,Primăria Comunei Mihăileni,Nr. 165,Mihăileni,45.9901,24.347
354,34,SIBIU,ŞELIMBĂR,52,49,78,7,0,9,2,11,50,53,78,6,0,8,4,11,Cămin Cultural Mohu,Nr. 313,Mohu,45.7429,24.2232
368,34,SIBIU,VALEA VIILOR,56,12,44,28,3,5,0,10,51,10,48,25,5,4,0,14,Cămin Motiș,Nr. 184,Motiș,46.0602,24.3428
277,34,SIBIU,IACOBENI,54,2,14,16,0,3,7,15,52,2,14,18,0,4,7,11,Școala Primară Movile,Nr. 75,Movile,46.023,24.7907
301,34,SIBIU,MOŞNA,186,23,46,7,3,2,1,12,191,29,41,7,2,3,3,9,Școala Gimnazială Moșna,Nr. 452,Moșna,46.0907,24.3994
302,34,SIBIU,MOŞNA,191,17,109,13,1,7,3,12,188,18,114,14,1,4,3,9,Școala Gimnazială Moșna,Nr. 452,Moșna,46.0907,24.3994
286,34,SIBIU,LOAMNEŞ,105,2,43,1,2,1,3,9,109,3,43,1,1,4,3,5,Cămin Cultural Mîndra,Nr. 66,Mândra,45.9264,24.0712
163,34,SIBIU,ORAŞ AVRIG,105,36,151,17,2,11,13,41,103,38,153,20,2,7,11,37,Școala Gimnazială Mîrșa,Str. Corneliu Coposu,Mârșa,45.6983,24.3679
164,34,SIBIU,ORAŞ AVRIG,104,38,151,11,1,4,13,32,108,43,146,11,2,6,11,27,Liceul Tehnologic Mîrșa,Str. Corneliu Coposu,Mârșa,45.6989,24.3676
281,34,SIBIU,LASLEA,141,4,75,3,2,15,5,23,142,5,81,4,2,19,9,12,Cămin Cultural Mălîncrav,Nr. 87,Mălâncrav,46.1091,24.6493
304,34,SIBIU,MOŞNA,153,9,36,1,2,4,1,5,152,8,37,1,2,5,0,4,Școala Gimnazială Nemșa,Nr. 124,Nemșa,46.0858,24.4445
275,34,SIBIU,IACOBENI,82,4,25,4,0,7,1,9,83,2,27,4,0,7,2,9,Școala Primară Netuș,Nr. 53,Netuș,46.0574,24.7853
305,34,SIBIU,NOCRICH,49,8,132,5,1,8,2,21,43,12,130,5,0,6,3,30,Caminul Cultural Nocrich,Nr. 206,Nocrich,45.8967,24.4536
276,34,SIBIU,IACOBENI,71,0,32,1,1,4,2,6,70,1,34,2,2,3,1,3,Școala Gimnazială Noiștat,Nr. 171,Noiștat,46.0519,24.7957
331,34,SIBIU,ROŞIA,60,4,97,19,0,30,2,25,60,3,92,21,1,29,2,23,Școala Gimnazială Nou,Nr. 373,Nou,45.8294,24.2838
284,34,SIBIU,LASLEA,52,3,29,3,0,7,2,19,50,5,33,5,0,9,1,8,Școala Primară Nou Săsesc,Nr. 210,Nou Săsesc,46.1123,24.6043
224,34,SIBIU,ARPAŞU DE JOS,74,4,53,3,1,2,2,3,70,4,58,3,1,2,2,3,"Grădinița, Nou Roman",Nr. 199,Noul Român,45.8037,24.5778
194,34,SIBIU,ORAŞ OCNA SIBIULUI,85,18,133,20,37,12,10,30,88,20,136,18,37,10,9,21,Școala Gimnazială Ocna Sibiului,Piața Traian nr. 2,Ocna Sibiului,45.8805,24.0567
195,34,SIBIU,ORAŞ OCNA SIBIULUI,121,17,119,26,28,18,4,10,127,19,120,23,25,19,3,9,Școala Gimnazială Ocna Sibiului,Piața Traian nr. 2,Ocna Sibiului,45.8805,24.0567
196,34,SIBIU,ORAŞ OCNA SIBIULUI,153,34,179,23,16,12,4,14,152,34,180,23,18,10,5,15,Clădirea Parohială Ortodoxă nr. 1 Ocna Sibiului,Str. Mihai Viteazu nr. 82,Ocna Sibiului,45.8804,24.0457
310,34,SIBIU,ORLAT,72,26,223,11,0,9,3,21,68,27,219,12,0,11,4,22,Grădinița cu Program Normal Orlat,Nr. 630,Orlat,45.7551,23.9672
311,34,SIBIU,ORLAT,81,23,302,19,0,12,2,18,83,27,293,17,1,12,3,25,Grădinița cu Program Normal Orlat,Nr. 630,Orlat,45.7551,23.9672
240,34,SIBIU,BÎRGHIŞ,28,5,47,7,1,9,5,8,27,4,47,7,2,8,5,10,Școala Primară Pelișor,Nr. 158,Pelișor,46.046,24.5141
347,34,SIBIU,ŞEICA MARE,5,0,14,2,1,1,2,7,5,0,15,1,1,1,2,7,Imobil Petiș,Nr. nr. 49,Petiș,46.0168,24.2858
316,34,SIBIU,POIANA SIBIULUI,55,17,124,24,0,4,7,10,54,11,127,22,0,5,9,19,Căminul Cultural Poiana Sibiului,Nr. 410,Poiana Sibiului,45.8092,23.7291
317,34,SIBIU,POIANA SIBIULUI,40,13,123,11,0,8,3,15,38,13,125,12,0,6,3,18,"Școala Gimnazială „Ioan Ban - Dascălu”, Poiana Sibiului nr. 1332",Nr. 1332,Poiana Sibiului,45.8082,23.7306
318,34,SIBIU,POPLACA,202,27,216,18,2,13,5,20,207,21,232,17,2,9,5,15,Căminul Cultural Poplaca,Nr. 571,Poplaca,45.7279,24.0525
319,34,SIBIU,PORUMBACU DE JOS,85,14,103,16,0,7,12,22,77,17,104,17,0,7,12,23,Primăria Porumbacu de Jos,Nr. 253,Porumbacu de Jos,45.7584,24.4537
320,34,SIBIU,PORUMBACU DE JOS,145,12,86,6,1,8,9,17,139,11,81,7,2,10,10,23,Căminul Cultural Porumbacu de Sus,Nr. 371A,Porumbacu de Sus,45.715,24.4736
315,34,SIBIU,PĂUCA,72,4,128,3,0,4,18,21,76,3,123,5,1,3,18,23,Școala Primară Presaca,Nr. 112.A,Presaca,45.9757,23.8904
271,34,SIBIU,HOGHILAG,48,2,23,2,2,1,5,11,46,1,26,3,1,1,4,13,Școala Primară Prod,Nr. 111,Prod,46.2601,24.6518
105,34,SIBIU,MUNICIPIUL SIBIU,5,6,8,5,2,0,0,2,5,5,9,4,2,1,0,2,Păltiniș,Str. Constantin Noica nr. 1 ap.2,Păltiniș,45.6546,23.931
312,34,SIBIU,PĂUCA,60,6,161,1,1,2,9,15,58,5,165,1,1,2,8,17,Primăria Comunei Păuca,Nr. 172,Păuca,46.01,23.8888
243,34,SIBIU,BLĂJEL,43,1,122,2,11,3,0,7,40,0,121,2,14,2,1,13,Școala Gimnazială,,Păucea,46.2181,24.3564
325,34,SIBIU,RACOVIŢA,142,45,307,18,1,28,10,27,139,42,309,19,2,30,11,27,Căminul Cultural Racovița,Str. Protopop Valeriu Florianu nr. 90,Racovița,45.6805,24.3425
251,34,SIBIU,BRĂDENI,34,4,71,7,3,10,0,3,34,3,70,6,1,9,2,7,Sala Mare fostă Primărie,,Retiș,46.044,24.8522
235,34,SIBIU,BIERTAN,38,8,190,2,1,4,2,12,34,9,186,6,1,5,4,14,Școala Primară Richis,Nr. 4,Richiș,46.0977,24.4802
283,34,SIBIU,LASLEA,30,1,19,6,2,2,1,4,30,1,19,6,3,1,1,4,Școala Primară Roandola,Nr. 17,Roandola,46.1637,24.6123
362,34,SIBIU,TILIŞCA,27,8,61,9,0,10,6,14,27,9,60,9,0,12,5,15,Școala Primară Rod,Nr. 10,Rod,45.8007,23.7837
244,34,SIBIU,BLĂJEL,12,1,27,1,2,1,1,2,11,1,28,1,2,1,1,3,Fosta Școală Generală,,Romanești,46.249,24.338
330,34,SIBIU,ROŞIA,37,13,99,3,2,18,9,18,43,15,92,3,1,19,9,18,Primăria Rosia,Nr. 22,Roșia,45.815,24.3136
156,34,SIBIU,ORAŞ AGNITA,154,1,86,4,2,4,3,16,153,3,91,4,3,5,4,13,Școala Gimnazială Ruja,Nr. 194,Ruja,46.0101,24.65
360,34,SIBIU,ŞURA MICĂ,102,9,31,3,1,14,0,12,102,9,38,4,1,14,1,12,Școala Primară Rusciori,Str. Școlii nr. 23,Rusciori,45.8156,24.0294
339,34,SIBIU,SLIMNIC,80,17,77,9,1,4,6,16,80,18,77,11,1,6,6,15,Școala Gimnazială Ruși,Nr. 157,Ruși,45.9625,24.1651
329,34,SIBIU,RÎU SADULUI,32,7,121,14,1,17,0,8,33,5,111,20,0,20,0,8,Primăria,Nr. 247,Râu Sadului,45.6241,24.059
300,34,SIBIU,MIHĂILENI,34,1,13,3,0,4,2,6,32,1,16,3,0,5,2,4,Căminul Cultural Răvășel,Nr. 53,Răvășel,46.0094,24.3708
326,34,SIBIU,RĂŞINARI,84,31,112,21,0,3,7,22,79,33,113,22,0,1,12,25,Școala Gimnazială Octavian Goga Rășinari,Str. Emil Cioran nr. 1512,Rășinari,45.7027,24.068
327,34,SIBIU,RĂŞINARI,63,23,165,42,0,9,5,12,57,17,166,41,1,8,12,23,Școala Gimnazială Sava Popovici Barcianu Rășinari,Str. Mitropolit Andrei Șaguna nr. 539,Rășinari,45.7072,24.0655
328,34,SIBIU,RĂŞINARI,111,48,151,14,2,14,9,32,102,50,152,17,1,16,12,37,Căminul Cultural Rășinari,Nr. 1527,Rășinari,45.7051,24.0698
335,34,SIBIU,SADU,84,14,224,105,0,15,7,19,65,12,189,166,1,20,3,8,Căminul Cultural al Comunei Sadu,Str. Inocențiu Micu Klein nr. 42,Sadu,45.6719,24.182
336,34,SIBIU,SADU,83,32,169,116,0,17,6,20,64,28,112,206,0,16,3,15,Căminul Cultural al Comunei Sadu,Str. Inocențiu Micu Klein nr. 42,Sadu,45.6719,24.182
321,34,SIBIU,PORUMBACU DE JOS,63,4,70,21,1,5,2,12,59,6,71,21,1,7,3,10,Căminul Cultural Scoreiu,Nr. 211,Scoreiu,45.7592,24.5318
366,34,SIBIU,TURNU ROŞU,51,26,93,8,0,38,6,18,49,28,87,12,0,39,8,18,Dispensar,Nr. 366,Sebeșu de Jos,45.6505,24.3354
324,34,SIBIU,RACOVIŢA,67,10,58,5,0,31,3,19,66,8,61,8,0,31,1,19,Căminul Cultural Sebeșu de Sus,Str. Căminului nr. 264,Sebeșu de Sus,45.654,24.3527
202,34,SIBIU,ORAŞ SĂLIŞTE,36,24,83,12,0,16,6,11,33,21,81,11,0,24,8,13,Centru de Documentare și Informare Sibiel,Nr. 298,Sibiel,45.766,23.9088
1,34,SIBIU,MUNICIPIUL SIBIU,115,97,234,30,3,18,17,61,118,93,251,26,3,18,16,50,Școala Gimnazială nr. 10 cu Structura Gradinița cu Program Prelungit nr. 20,Piața Iancu de Hunedoara (Piața 8 Martie) nr. 3-5,Sibiu,45.7858,24.1161
2,34,SIBIU,MUNICIPIUL SIBIU,124,136,197,12,2,17,16,55,110,139,208,18,4,29,16,35,Școala Gimnazială nr. 10 cu Structura Gradinița cu Program Prelungit nr. 20,Piața Iancu de Hunedoara (Piața 8 Martie) nr. 3-5,Sibiu,45.7858,24.1161
3,34,SIBIU,MUNICIPIUL SIBIU,150,137,229,33,0,23,17,73,157,132,249,30,1,27,15,49,Școala Gimnazială nr. 10,Str. Bieltz Eduard Albert (Str. C. A. P. Zorile) nr. 60,Sibiu,45.7897,24.1184
4,34,SIBIU,MUNICIPIUL SIBIU,137,269,294,21,0,20,13,80,120,268,303,23,3,35,15,69,Școala Gimnazială nr. 10,Str. Bieltz Eduard Albert (Str. C. A. P. Zorile) nr. 60,Sibiu,45.7897,24.1184
5,34,SIBIU,MUNICIPIUL SIBIU,148,177,286,33,3,36,21,78,154,180,304,30,2,38,24,56,Școala Gimnazială nr. 10,Str. Bieltz Eduard Albert (Str. C. A. P. Zorile) nr. 60,Sibiu,45.7897,24.1184
6,34,SIBIU,MUNICIPIUL SIBIU,134,140,220,30,5,26,23,70,131,138,226,31,9,31,30,61,Școala Gimnazială nr. 13 cu Structura Școala Gimnazială nr. 12,Piața Cluj nr. 1-3,Sibiu,45.802,24.138
7,34,SIBIU,MUNICIPIUL SIBIU,155,142,195,13,9,34,14,54,154,139,200,16,11,28,20,53,Școala Gimnazială nr. 13 cu Structura Școala Gimnazială nr. 12,Piața Cluj nr. 1-3,Sibiu,45.802,24.138
8,34,SIBIU,MUNICIPIUL SIBIU,135,145,230,25,10,17,11,57,134,147,237,23,11,19,12,48,Școala Gimnazială nr. 13 cu Structura Școala Gimnazială nr. 12,Piața Cluj nr. 1-3,Sibiu,45.802,24.138
9,34,SIBIU,MUNICIPIUL SIBIU,133,142,266,23,13,35,16,96,129,149,295,27,14,49,16,47,Liceul Tehnologic Construcții și Arhitectură Carol I Sibiu,Str. Pedagogilor nr. 7,Sibiu,45.7984,24.1387
10,34,SIBIU,MUNICIPIUL SIBIU,118,94,180,15,8,18,14,47,113,94,178,17,8,18,15,47,Școala Gimnazială nr. 13,Str. Lungă (Șoseaua 11 Iunie) nr. 74,Sibiu,45.8065,24.1457
11,34,SIBIU,MUNICIPIUL SIBIU,107,118,180,10,4,14,6,40,105,119,192,11,3,17,10,31,Școala Gimnazială nr. 13,Str. Lungă (Șoseaua 11 Iunie) nr. 74,Sibiu,45.8065,24.1457
12,34,SIBIU,MUNICIPIUL SIBIU,119,102,189,15,6,29,17,60,121,103,198,15,7,28,15,41,Școala Gimnazială nr. 13,Str. Lungă (Șoseaua 11 Iunie) nr. 74,Sibiu,45.8065,24.1457
13,34,SIBIU,MUNICIPIUL SIBIU,142,139,309,15,8,23,15,73,139,144,317,19,9,34,14,49,Școala Gimnazială nr. 23,Str. Țiglarilor,Sibiu,45.8138,24.1356
14,34,SIBIU,MUNICIPIUL SIBIU,106,66,163,13,0,10,13,44,98,67,172,16,1,16,14,30,Școala Gimnazială nr. 23,Str. Țiglarilor,Sibiu,45.8138,24.1356
15,34,SIBIU,MUNICIPIUL SIBIU,77,38,144,11,5,14,11,37,79,46,148,12,4,14,11,23,Școala Gimnazială nr. 23,Str. Țiglarilor,Sibiu,45.8138,24.1356
16,34,SIBIU,MUNICIPIUL SIBIU,123,97,188,14,3,13,19,63,127,100,190,15,1,17,20,51,Colegiul Tehnic Independența,Str. Gladiolelor nr. 2,Sibiu,45.8053,24.1494
17,34,SIBIU,MUNICIPIUL SIBIU,144,166,233,19,9,17,18,66,145,165,237,18,11,20,17,55,Colegiul Tehnic de Industrie Alimentară Terezianum Sibiu,Str. Postăvarilor nr. 18,Sibiu,45.8066,24.1499
18,34,SIBIU,MUNICIPIUL SIBIU,140,153,239,20,13,14,20,63,142,149,254,16,10,20,18,50,Colegiul Tehnic de Industrie Alimentară Terezianum Sibiu,Str. Postăvarilor nr. 18,Sibiu,45.8066,24.1499
19,34,SIBIU,MUNICIPIUL SIBIU,158,146,297,30,9,34,21,66,152,158,292,31,10,40,23,59,Școala Gimnazială nr. 18,Str. Lungă (Șoseaua 11 Iunie) nr. 65,Sibiu,45.8083,24.1454
20,34,SIBIU,MUNICIPIUL SIBIU,139,109,356,18,10,31,23,79,154,100,364,25,13,30,19,50,Școala Gimnazială nr. 18,Str. Lungă (Șoseaua 11 Iunie) nr. 65,Sibiu,45.8083,24.1454
21,34,SIBIU,MUNICIPIUL SIBIU,125,90,126,24,1,14,11,55,108,88,141,26,0,24,17,48,Școala Gimnazială Ioan Slavici cu Structura Școala Gimnazială nr. 11,Str. Gorunului nr. 2,Sibiu,45.8115,24.1834
22,34,SIBIU,MUNICIPIUL SIBIU,128,80,178,16,0,25,19,56,129,82,184,14,1,29,21,44,Școala Gimnazială Ioan Slavici cu Structura Școala Gimnazială nr. 11,Str. Gorunului nr. 2,Sibiu,45.8115,24.1834
23,34,SIBIU,MUNICIPIUL SIBIU,187,149,299,32,18,26,25,65,181,142,307,28,20,37,21,62,Școala Gimnazială Ioan Slavici,Str. Macaralei nr. 1,Sibiu,45.801,24.1701
24,34,SIBIU,MUNICIPIUL SIBIU,181,148,226,20,2,22,19,73,162,152,237,22,5,28,23,62,Școala Gimnazială Ioan Slavici,Str. Macaralei nr. 1,Sibiu,45.801,24.1701
25,34,SIBIU,MUNICIPIUL SIBIU,92,57,151,16,7,19,9,41,89,61,150,18,10,22,12,36,Liceul Tehnologic Henr. Coandă,Str. Henri Coandă (Str. Sevastopol) nr. 51,Sibiu,45.7967,24.1783
26,34,SIBIU,MUNICIPIUL SIBIU,102,46,196,18,12,12,15,56,94,51,196,20,15,11,18,54,Liceul Tehnologic Henr. Coandă,Str. Henri Coandă (Str. Sevastopol) nr. 51,Sibiu,45.7967,24.1783
27,34,SIBIU,MUNICIPIUL SIBIU,131,91,175,12,3,16,5,51,128,88,177,12,3,23,5,39,Liceul Tehnologic Henr. Coandă,Str. Henri Coandă (Str. Sevastopol) nr. 51,Sibiu,45.7967,24.1783
28,34,SIBIU,MUNICIPIUL SIBIU,126,123,208,24,6,17,11,38,124,117,215,20,7,19,12,37,Școala Gimnazială nr. 8,Str. Lupeni nr. 50,Sibiu,45.8039,24.1651
29,34,SIBIU,MUNICIPIUL SIBIU,126,110,237,28,15,32,20,70,114,108,249,32,17,37,25,58,Școala Gimnazială nr. 8,Str. Lupeni nr. 50,Sibiu,45.8039,24.1651
30,34,SIBIU,MUNICIPIUL SIBIU,135,100,139,20,7,31,15,55,128,107,153,19,8,42,15,30,Școala Gimnazială nr. 8,Str. Lupeni nr. 50,Sibiu,45.8039,24.1651
31,34,SIBIU,MUNICIPIUL SIBIU,151,98,206,30,5,31,12,56,147,92,224,32,5,37,9,43,Școala Gimnazială nr. 8,Str. Lupeni nr. 50,Sibiu,45.8039,24.1651
32,34,SIBIU,MUNICIPIUL SIBIU,100,72,116,15,9,10,18,41,85,75,120,17,10,15,17,37,Grădinița cu Program Prelungit nr. 17,Str. Liviu Rebreanu (Str. Reforma Agrara) nr. 7-9,Sibiu,45.8008,24.1554
33,34,SIBIU,MUNICIPIUL SIBIU,134,81,183,17,5,18,11,55,141,82,191,20,5,13,15,38,Grădinița cu Program Prelungit nr. 37,Str. Nicolae Teclu nr. 41,Sibiu,45.8019,24.1564
34,34,SIBIU,MUNICIPIUL SIBIU,148,140,182,14,7,24,20,60,130,149,185,17,9,35,22,50,Palatul Copiilor,Str. Constituției nr. 2,Sibiu,45.7998,24.1569
35,34,SIBIU,MUNICIPIUL SIBIU,182,119,226,23,8,31,18,67,180,114,252,28,9,26,18,49,Palatul Copiilor,Str. Constituției nr. 2,Sibiu,45.7998,24.1569
36,34,SIBIU,MUNICIPIUL SIBIU,135,83,156,26,3,18,15,54,128,90,155,27,3,23,21,49,Școala Gimnazială nr. 2,Str. Avram Iancu nr. 13,Sibiu,45.7983,24.1535
37,34,SIBIU,MUNICIPIUL SIBIU,126,111,148,28,6,23,20,63,117,111,165,28,7,32,18,42,Colegiul Național Gheorghe Lazăr Sibiu,Str. Lazăr Gheorghe nr. 1,Sibiu,45.7965,24.1536
38,34,SIBIU,MUNICIPIUL SIBIU,98,63,112,14,10,15,12,36,90,62,117,14,9,23,14,33,Liceul de Artă Sibiu,Str. Alexandru Odobescu nr. 2,Sibiu,45.7972,24.1488
39,34,SIBIU,MUNICIPIUL SIBIU,117,62,109,14,4,12,9,48,115,62,117,17,5,16,10,35,Liceul de Artă Sibiu,Str. Alexandru Odobescu nr. 2,Sibiu,45.7972,24.1488
40,34,SIBIU,MUNICIPIUL SIBIU,119,70,143,15,6,15,10,45,114,73,154,14,8,16,13,37,Colegiul Tehnic Independența Sibiu,Str. Ocnei (Str. Marx Karl) nr. 31,Sibiu,45.8016,24.1502
41,34,SIBIU,MUNICIPIUL SIBIU,132,81,125,15,2,23,14,47,136,77,132,16,3,25,15,35,Colegiul Național Octavian Goga Sibiu,Str. Mitropoliei (Str. 1 Mai) nr. 34,Sibiu,45.7935,24.1459
42,34,SIBIU,MUNICIPIUL SIBIU,126,113,163,25,9,27,11,69,124,106,183,25,13,32,14,49,Colegiul Național Octavian Goga cu Structură Școala cu Clasele I-VIII nr. 15,Str. Bastionului (Str. Alexandru Sahia) nr. 7,Sibiu,45.7938,24.1451
43,34,SIBIU,MUNICIPIUL SIBIU,158,186,209,28,8,30,21,78,136,182,225,27,9,43,26,71,Școala Gimnazială Regina Maria,Str. Boiu Zaharia (Str. Revoluției) nr. 1,Sibiu,45.7893,24.1466
44,34,SIBIU,MUNICIPIUL SIBIU,146,148,148,15,2,37,13,64,130,147,162,15,2,44,20,60,Școala Gimnazială Regina Maria,Str. Boiu Zaharia (Str. Revoluției) nr. 1,Sibiu,45.7893,24.1466
45,34,SIBIU,MUNICIPIUL SIBIU,141,147,185,31,7,21,12,58,133,146,195,30,7,31,12,48,Colegiul Agricol Daniil Popovici Barcianu Sibiu,Str. Banatului nr. 2,Sibiu,45.7915,24.1456
46,34,SIBIU,MUNICIPIUL SIBIU,121,163,221,26,2,28,21,74,130,150,237,24,4,31,20,57,Casa Corpului Didactic,Str. Turismului nr. 15,Sibiu,45.7939,24.1393
47,34,SIBIU,MUNICIPIUL SIBIU,154,147,241,18,8,27,13,48,141,148,242,16,10,37,18,45,Liceul Teoretic Onisifor Ghibu,Str. Bihorului nr. 3,Sibiu,45.7898,24.1351
48,34,SIBIU,MUNICIPIUL SIBIU,184,205,276,32,5,20,19,62,186,203,290,31,5,23,21,48,Școala Gimnazială nr. 1,Str. Hațegului nr. 8,Sibiu,45.7856,24.1338
49,34,SIBIU,MUNICIPIUL SIBIU,179,178,291,24,15,40,14,61,173,175,302,20,16,43,21,60,Școala Gimnazială nr. 1,Str. Hațegului nr. 8,Sibiu,45.7856,24.1338
50,34,SIBIU,MUNICIPIUL SIBIU,199,166,240,41,5,23,22,75,199,158,256,40,6,26,24,67,Școala Gimnazială nr. 1,Str. Hațegului nr. 8,Sibiu,45.7856,24.1338
51,34,SIBIU,MUNICIPIUL SIBIU,168,214,293,47,2,30,16,63,157,222,301,45,5,28,20,55,Școala Gimnazială nr. 1,Str. Hațegului nr. 8,Sibiu,45.7856,24.1338
52,34,SIBIU,MUNICIPIUL SIBIU,134,228,218,41,19,33,20,82,121,222,254,38,16,34,22,61,Grădinița cu Program Prelungit nr. 22,Calea Poplăcii nr. 11,Sibiu,45.7752,24.1311
53,34,SIBIU,MUNICIPIUL SIBIU,188,157,230,33,6,13,11,61,173,159,252,33,4,20,17,48,Grădinița cu Program Prelungit nr. 22,Calea Poplăcii nr. 11,Sibiu,45.7752,24.1311
54,34,SIBIU,MUNICIPIUL SIBIU,152,208,268,28,8,34,15,73,140,192,302,25,8,35,11,67,Grădinița cu Program Prelungit nr. 22,Calea Poplăcii nr. 11,Sibiu,45.7752,24.1311
55,34,SIBIU,MUNICIPIUL SIBIU,126,94,171,25,2,16,18,57,124,95,174,30,1,20,20,48,Grădinița cu Program Prelungit nr. 22,Calea Poplăcii nr. 11,Sibiu,45.7752,24.1311
56,34,SIBIU,MUNICIPIUL SIBIU,110,145,198,23,3,22,22,54,113,146,207,25,4,23,19,36,Școala Gimnazială nr. 25,Str. Sibiel nr. 6,Sibiu,45.7689,24.1277
57,34,SIBIU,MUNICIPIUL SIBIU,159,138,201,35,1,18,6,49,151,135,206,34,3,27,10,42,Școala Gimnazială nr. 25,Str. Sibiel nr. 6,Sibiu,45.7689,24.1277
58,34,SIBIU,MUNICIPIUL SIBIU,133,133,250,30,3,22,18,62,136,136,250,32,2,36,12,41,Școala Gimnazială nr. 25,Str. Sibiel nr. 6,Sibiu,45.7689,24.1277
59,34,SIBIU,MUNICIPIUL SIBIU,142,165,278,23,3,23,11,67,141,164,295,25,4,20,14,54,Școala Gimnazială nr. 25,Str. Sibiel nr. 6,Sibiu,45.7689,24.1277
60,34,SIBIU,MUNICIPIUL SIBIU,124,224,323,26,4,27,21,68,113,209,347,31,4,28,24,65,Școala Gimnazială Ion Luca Caragiale,Str. Vasile Alecsandri nr. 10,Sibiu,45.7766,24.1415
61,34,SIBIU,MUNICIPIUL SIBIU,123,159,199,26,3,28,13,56,113,151,218,27,3,33,13,48,Școala Gimnazială Ion Luca Caragiale,Str. Vasile Alecsandri nr. 10,Sibiu,45.7766,24.1415
62,34,SIBIU,MUNICIPIUL SIBIU,101,192,224,28,0,41,13,64,96,192,241,31,0,40,13,47,Școala Gimnazială Ion Luca Caragiale,Str. Vasile Alecsandri nr. 10,Sibiu,45.7766,24.1415
63,34,SIBIU,MUNICIPIUL SIBIU,178,142,179,22,7,30,20,56,187,129,192,17,9,31,17,50,Facultatea de Inginerie,Str. Emil Cioran nr. 4,Sibiu,45.7898,24.1465
64,34,SIBIU,MUNICIPIUL SIBIU,153,100,189,32,6,19,24,75,149,110,193,32,6,23,23,61,Colegiu Economic George Barițiu,Str. Oituz nr. 31,Sibiu,45.7841,24.1505
65,34,SIBIU,MUNICIPIUL SIBIU,170,150,169,25,5,21,20,57,169,139,180,25,4,19,23,62,Colegiu Economic George Barițiu,Str. Oituz nr. 31,Sibiu,45.7841,24.1505
66,34,SIBIU,MUNICIPIUL SIBIU,169,161,202,41,6,38,20,72,155,157,214,40,5,51,25,65,"Colegiul Economic George Barițiu, Sibiu",Str. Oituz nr. 31,Sibiu,45.7841,24.1505
67,34,SIBIU,MUNICIPIUL SIBIU,199,180,203,17,10,30,29,80,174,185,214,19,17,44,32,65,Club Sportiv Școlar Sibiu,Str. Independenței nr. 1,Sibiu,45.793,24.1557
68,34,SIBIU,MUNICIPIUL SIBIU,131,164,230,24,1,21,16,67,128,161,255,19,1,35,18,37,Școala Gimnazială nr. 4,Str. Spartacus nr. 4-6,Sibiu,45.7909,24.1616
69,34,SIBIU,MUNICIPIUL SIBIU,128,135,172,26,2,25,15,71,131,128,183,29,2,25,19,61,Școala Gimnazială nr. 4,Str. Spartacus nr. 4-6,Sibiu,45.7909,24.1616
70,34,SIBIU,MUNICIPIUL SIBIU,162,162,301,26,12,37,13,78,159,174,320,28,16,45,13,39,Școala Gimnazială nr. 4,Str. Spartacus nr. 4-6,Sibiu,45.7909,24.1616
71,34,SIBIU,MUNICIPIUL SIBIU,143,154,253,16,8,22,17,59,135,151,261,21,13,26,14,48,Colegiul Tehnic Energetic,Str. Electricienilor nr. 1,Sibiu,45.7846,24.1679
72,34,SIBIU,MUNICIPIUL SIBIU,132,95,170,11,1,17,10,35,129,96,170,12,2,19,12,33,Colegiul Tehnic Energetic,Str. Electricienilor nr. 1,Sibiu,45.7846,24.1679
73,34,SIBIU,MUNICIPIUL SIBIU,179,122,221,17,7,20,15,61,176,135,224,19,4,27,14,41,Colegiul Tehnic Energetic,Str. Electricienilor nr. 1,Sibiu,45.7846,24.1679
74,34,SIBIU,MUNICIPIUL SIBIU,167,98,184,17,2,18,22,63,157,96,196,21,2,26,26,55,Colegiul Tehnic Energetic,Str. Electricienilor nr. 1,Sibiu,45.7846,24.1679
75,34,SIBIU,MUNICIPIUL SIBIU,113,55,148,12,6,15,11,55,111,59,145,13,7,18,14,48,Școala Gimnazială Regele Ferdinand,Str. Șureanu nr. 1,Sibiu,45.7864,24.1727
76,34,SIBIU,MUNICIPIUL SIBIU,120,91,148,7,2,15,15,51,125,96,144,8,2,14,18,45,Școala Gimnazială Regele Ferdinand,Str. Șureanu nr. 1,Sibiu,45.7864,24.1727
77,34,SIBIU,MUNICIPIUL SIBIU,148,149,221,22,7,17,16,58,148,147,233,24,6,21,14,42,Școala Gimnazială Regele Ferdinand,Str. Șureanu nr. 1,Sibiu,45.7864,24.1727
78,34,SIBIU,MUNICIPIUL SIBIU,141,101,195,11,7,24,16,40,141,102,198,15,5,23,13,33,Școala Gimnazială Regele Ferdinand,Str. Șureanu nr. 1,Sibiu,45.7864,24.1727
79,34,SIBIU,MUNICIPIUL SIBIU,114,62,141,15,5,8,12,41,113,61,145,17,5,11,13,33,Școala Gimnazială Regele Ferdinand,Str. Șureanu nr. 1,Sibiu,45.7864,24.1727
80,34,SIBIU,MUNICIPIUL SIBIU,125,75,212,24,2,19,19,50,127,80,208,28,3,19,14,42,Școala Gimnazială Regele Ferdinand,Str. Șureanu nr. 1,Sibiu,45.7864,24.1727
81,34,SIBIU,MUNICIPIUL SIBIU,104,49,152,14,3,14,9,44,105,50,150,17,3,14,10,42,Școala Gimnazială Regele Ferdinand,Str. Șureanu nr. 1,Sibiu,45.7864,24.1727
82,34,SIBIU,MUNICIPIUL SIBIU,126,100,187,17,3,20,15,54,126,96,193,15,4,26,19,50,Grădinița cu Program Prelungit nr. 29,Str. Negoveanu nr. 9,Sibiu,45.7843,24.1747
83,34,SIBIU,MUNICIPIUL SIBIU,114,93,141,16,2,13,13,47,115,95,148,16,1,14,13,37,Școala Gimnazială Radu Selejan,Str. Electricienilor nr. 6,Sibiu,45.7832,24.1674
84,34,SIBIU,MUNICIPIUL SIBIU,108,68,153,12,4,12,13,39,101,71,159,13,5,15,13,32,Școala Gimnazială Radu Selejan,Str. Electricienilor nr. 6,Sibiu,45.7832,24.1674
85,34,SIBIU,MUNICIPIUL SIBIU,157,100,153,15,2,16,16,53,152,97,164,17,2,22,15,40,Grădinița cu Program Prelungit nr. 33,Aleea Artileriștilor nr. 4,Sibiu,45.7811,24.1609
86,34,SIBIU,MUNICIPIUL SIBIU,154,138,202,15,1,27,23,77,158,143,202,17,5,33,21,55,Școala Gimnazială nr. 21,Str. Luptei nr. 27,Sibiu,45.7806,24.1589
87,34,SIBIU,MUNICIPIUL SIBIU,111,80,135,22,3,17,7,31,102,79,139,22,2,22,10,32,Școala Gimnazială nr. 21,Str. Luptei nr. nr. 27,Sibiu,45.7806,24.1589
88,34,SIBIU,MUNICIPIUL SIBIU,153,128,148,21,3,20,13,42,146,133,146,18,2,21,14,49,Școala Gimnazială nr. 21,Str. Luptei nr. 27,Sibiu,45.7806,24.1589
89,34,SIBIU,MUNICIPIUL SIBIU,156,106,163,15,7,17,19,59,160,109,167,14,8,17,19,50,Școala Gimnazială nr. 21,Str. Luptei nr. 27,Sibiu,45.7806,24.1589
90,34,SIBIU,MUNICIPIUL SIBIU,154,152,213,27,9,22,26,75,149,155,214,26,10,28,31,71,Școala Gimnazială Nicolae Iorga,Str. Nicolae Iorga (Str. Vasile Kolarov) nr. 56,Sibiu,45.7785,24.1522
91,34,SIBIU,MUNICIPIUL SIBIU,180,109,211,19,7,24,16,56,170,109,218,20,11,26,23,50,Școala Gimnazială Nicolae Iorga,Str. Nicolae Iorga (Str. Vasile Kolarov) nr. 56,Sibiu,45.7785,24.1522
92,34,SIBIU,MUNICIPIUL SIBIU,114,128,184,19,6,23,15,48,109,132,194,22,6,23,16,37,Școala Gimnazială Nicolae Iorga,Str. Nicolae Iorga (Str. Vasile Kolarov) nr. 56,Sibiu,45.7785,24.1522
93,34,SIBIU,MUNICIPIUL SIBIU,114,101,122,11,3,10,10,40,111,96,135,11,3,14,11,31,Școala Gimnazială Nicolae Iorga,Str. Nicolae Iorga (Str. Vasile Kolarov) nr. 56,Sibiu,45.7785,24.1522
94,34,SIBIU,MUNICIPIUL SIBIU,173,142,155,17,8,21,25,60,158,134,168,19,9,25,36,59,Liceul Teoretic Constantin Noica,Str. Oștirii nr. 5,Sibiu,45.7774,24.1541
95,34,SIBIU,MUNICIPIUL SIBIU,153,138,214,23,8,28,29,77,146,129,226,24,8,30,35,78,Liceul Teoretic Constantin Noica,Str. Oștirii nr. 5,Sibiu,45.7774,24.1541
96,34,SIBIU,MUNICIPIUL SIBIU,165,157,202,26,4,23,13,59,151,159,211,23,4,30,19,58,Liceul Teoretic Constantin Noica,Str. Oștirii nr. 5,Sibiu,45.7774,24.1541
97,34,SIBIU,MUNICIPIUL SIBIU,171,135,181,22,6,24,11,50,168,137,192,20,6,23,11,45,Grădinița cu Program Prelungit Elefănțelul Curios,Aleea Haiducului nr. 3,Sibiu,45.7824,24.1563
98,34,SIBIU,MUNICIPIUL SIBIU,180,136,149,17,4,21,24,69,172,139,160,17,6,27,21,52,Colegiul Național Pedagogic Andrei Șaguna,Aleea Turnu Roșu nr. 2,Sibiu,45.7822,24.1543
99,34,SIBIU,MUNICIPIUL SIBIU,187,140,175,33,3,21,18,57,176,141,188,35,5,25,20,46,Colegiul Național Pedagogic Andrei Șaguna,Aleea Turnu Roșu nr. 2,Sibiu,45.7822,24.1543
100,34,SIBIU,MUNICIPIUL SIBIU,202,146,202,19,9,26,27,72,196,152,204,21,14,34,28,58,Grădinița cu Program Prelungit nr. 42,Str. Nicolae Iorga (Str. Vasile Kolarov) nr. 56A,Sibiu,45.7793,24.1505
101,34,SIBIU,MUNICIPIUL SIBIU,174,172,216,20,5,25,18,64,170,174,221,20,8,30,21,62,Grădinița cu Program Prelungit nr. 43,Aleea Streiul nr. 8,Sibiu,45.7734,24.1505
102,34,SIBIU,MUNICIPIUL SIBIU,138,125,198,12,7,22,11,41,136,126,197,10,4,24,8,44,Grădinița cu Program Prelungit nr. 43,Aleea Streiul nr. 8,Sibiu,45.7734,24.1505
103,34,SIBIU,MUNICIPIUL SIBIU,184,175,248,22,2,17,14,55,185,167,253,25,2,22,18,48,Grădinița cu Program Prelungit nr. 5,Str. Siretului nr. 6,Sibiu,45.7724,24.1414
104,34,SIBIU,MUNICIPIUL SIBIU,187,127,221,27,9,38,21,75,179,127,231,24,10,45,25,70,Grădinița cu Program Prelungit nr. 5,Str. Siretului nr. 6,Sibiu,45.7724,24.1414
337,34,SIBIU,SLIMNIC,44,9,198,17,0,6,7,16,49,10,194,17,1,5,9,15,Școala Gimnazială Slimnic,Nr. 7,Slimnic,45.9221,24.1586
338,34,SIBIU,SLIMNIC,51,19,127,13,1,8,6,12,51,18,126,12,1,10,8,14,Școala Gimnazială Slimnic,Nr. 7,Slimnic,45.9221,24.1586
349,34,SIBIU,ŞEICA MICĂ,178,3,33,3,1,3,1,2,175,2,34,3,1,8,1,3,Fostul Sediu Cap Soroștin,,Soroștin,46.0274,24.0615
274,34,SIBIU,IACOBENI,75,1,15,1,1,0,6,19,76,0,17,1,1,0,9,14,Școala Primară Stejărișu,Nr. 72,Stejărișu,46.039,24.6748
221,34,SIBIU,APOLDU DE JOS,44,2,94,1,0,2,3,6,41,4,93,1,0,3,4,6,Școala Primară - Sîngătin,Nr. 123,Sângătin,45.9143,23.8536
204,34,SIBIU,ORAŞ SĂLIŞTE,42,5,74,6,2,3,0,7,35,4,76,7,2,6,0,8,Școala Generală Săcel,Nr. 222 A,Săcel,45.7829,23.9414
166,34,SIBIU,ORAŞ AVRIG,29,15,73,10,10,2,4,8,33,16,70,8,10,4,4,6,Școala Primară Săcădate,,Săcădate,45.7595,24.3913
198,34,SIBIU,ORAŞ SĂLIŞTE,124,25,189,10,0,18,7,31,122,25,187,8,1,22,8,30,Liceul Tehnologic „Ioan Lupaș”,Nr. 24,Săliște,45.7934,23.8847
199,34,SIBIU,ORAŞ SĂLIŞTE,110,34,275,10,0,17,8,33,108,32,279,8,0,20,8,34,Liceul Tehnologic „Ioan Lupaș”,Nr. 24,Săliște,45.7934,23.8847
322,34,SIBIU,PORUMBACU DE JOS,34,1,45,9,0,3,4,6,30,2,41,9,0,5,3,9,Căminul Cultural Sarata,Nr. 202,Sărata,45.7408,24.504
258,34,SIBIU,CHIRPĂR,30,1,14,3,1,3,2,4,29,1,16,3,1,3,3,5,Căminul Cultural Săsăuș,Nr. 137,Săsăuș,45.8492,24.6014
361,34,SIBIU,TILIŞCA,101,6,243,24,0,16,5,16,96,11,244,20,1,13,8,20,Primăria Tilișca,Nr. 531,Tilișca,45.7999,23.8482
197,34,SIBIU,ORAŞ OCNA SIBIULUI,17,3,24,4,1,3,0,9,17,2,26,4,1,3,0,8,"Cladire (Fost Sediu Primarie), Topîrcea",Nr. 55,Topârcea,45.8883,23.9547
365,34,SIBIU,TURNU ROŞU,99,64,189,6,1,128,7,33,99,65,180,7,1,128,10,38,Club,Nr. 470,Turnu Roșu,45.6418,24.299
363,34,SIBIU,TÎRNAVA,119,6,147,6,2,3,10,35,122,5,152,7,2,4,11,29,Grădinița cu Orar Normal Tîrnava,Str. 1 Decembrie nr. 1,Târnava,46.1405,24.2937
364,34,SIBIU,TÎRNAVA,111,19,149,6,0,5,6,24,108,20,152,7,1,6,6,21,Grădinița cu Orar Normal Tîrnava,Str. 1 Decembrie nr. 1,Târnava,46.1405,24.2937
208,34,SIBIU,ORAŞ TĂLMACIU,144,53,156,17,1,10,13,25,143,49,153,23,1,11,12,27,Primăria Orasului Talmaciu,Str. Nicolae Bălcescu nr. 24,Tălmaciu,45.6646,24.2664
209,34,SIBIU,ORAŞ TĂLMACIU,109,44,176,9,1,14,5,19,107,38,171,14,2,19,5,21,Liceul Tehnologic / Școala Gimnazială Talmaciu,Nr. 6,Tălmaciu,45.6681,24.2659
210,34,SIBIU,ORAŞ TĂLMACIU,178,28,181,16,2,17,10,30,176,27,183,23,3,21,7,21,Liceul Tehnologic Talmaciu,Str. Mihail Eminescu nr. 30,Tălmaciu,45.6714,24.2605
211,34,SIBIU,ORAŞ TĂLMACIU,176,45,227,25,3,17,16,34,171,50,225,28,2,13,16,34,Liceul Tehnologic Talmaciu,Nr. 30,Tălmaciu,45.6714,24.2605
213,34,SIBIU,ORAŞ TĂLMACIU,110,13,143,10,0,16,3,9,105,12,136,13,1,15,4,13,Liceul Tehnologic Talmaciu/Școala Gimnazială Talmacel,Nr. 10,Tălmăcel,45.6472,24.2413
272,34,SIBIU,HOGHILAG,150,2,60,2,2,2,1,19,147,4,54,4,4,2,3,9,Cladire Ce Aparține Primariei Hoghilag,Nr. 130,Valchid,46.1684,24.5809
201,34,SIBIU,ORAŞ SĂLIŞTE,45,6,48,3,0,3,2,7,43,6,51,4,0,1,2,6,Clădirea Fostei Primării,Nr. 35,Vale,45.7815,23.8965
267,34,SIBIU,DÎRLOS,12,3,27,4,1,1,0,6,11,3,28,3,1,1,0,9,Cămin Cultural Valea Lungă,Nr. 52,Valea Lungă,46.1949,24.3644
367,34,SIBIU,VALEA VIILOR,226,23,143,47,1,11,13,29,226,28,146,48,2,13,11,24,Centru de Informare Turistica Valea Viilor,Nr. 120,Valea Viilor,46.0836,24.2755
242,34,SIBIU,BÎRGHIŞ,41,3,7,1,1,2,2,5,41,3,9,1,1,1,4,6,Dispensar Uman Vecerd,Nr. 126,Vecerd,45.9842,24.4543
233,34,SIBIU,BAZNA,65,0,61,3,1,1,1,9,61,1,56,4,2,2,2,10,Școala Primară Velț,Nr. FN,Velț,46.2389,24.2788
257,34,SIBIU,CHIRPĂR,27,0,11,3,0,1,0,1,22,0,12,3,0,1,1,2,Școala Primară Veseud,Nr. 113,Veseud,45.9294,24.641
340,34,SIBIU,SLIMNIC,19,2,31,4,0,1,2,7,17,3,28,4,0,1,2,9,Școala Gimnazială Veseud,,Veseud,45.9777,24.192
353,34,SIBIU,ŞELIMBĂR,166,30,231,8,2,14,19,48,162,28,231,8,2,19,21,49,Cămin Cultural Veștem,Nr. 149,Veștem,45.7171,24.2378
369,34,SIBIU,VURPĂR,174,9,60,7,0,10,4,15,169,6,62,10,0,9,6,17,Sala Sport,Nr. 711,Vurpăr,45.8977,24.3455
370,34,SIBIU,VURPĂR,63,10,64,8,0,9,3,11,58,13,62,10,0,9,4,12,Școala Gimnazială,Nr. 367,Vurpăr,45.8965,24.3379
256,34,SIBIU,CHIRPĂR,40,0,66,4,1,5,1,8,43,0,64,4,1,5,0,8,Căminul Cultural Vărd,Nr. 27,Vărd,45.9471,24.6005
241,34,SIBIU,BÎRGHIŞ,15,3,27,1,2,1,1,5,12,4,27,1,2,1,1,5,Școala Primară Zlagna,Nr. 89,Zlagna,46.0333,24.4695
188,34,SIBIU,ORAŞ DUMBRĂVENI,243,11,127,10,5,3,5,18,247,12,129,11,5,1,3,14,Școala Gimnazială Șaroș Pe Tîrnave,,Șaroș pe Târnave,46.2055,24.5467
341,34,SIBIU,ŞEICA MARE,48,19,156,7,1,11,6,11,50,15,153,9,1,11,8,12,Școala Gimnazială Seica Mare,Nr. 417,Șeica Mare,46.0234,24.1564
342,34,SIBIU,ŞEICA MARE,50,16,109,7,4,12,11,20,46,17,104,4,3,13,13,27,Școala Gimnazială Seica Mare,Nr. 417,Șeica Mare,46.0234,24.1564
343,34,SIBIU,ŞEICA MARE,47,9,135,7,6,9,3,17,43,8,131,8,7,8,9,27,Școala Primară Seica Mare,Nr. f.nr.,Șeica Mare,46.0194,24.1688
348,34,SIBIU,ŞEICA MICĂ,115,10,108,3,0,8,1,13,114,7,112,3,1,9,0,9,Primăria,,Șeica Mică,46.0559,24.1262
350,34,SIBIU,ŞELIMBĂR,105,142,246,18,3,31,19,47,102,147,241,23,2,36,18,45,Cămin Cultural Șelimbăr,Nr. 197,Șelimbăr,45.7672,24.1957
351,34,SIBIU,ŞELIMBĂR,170,205,308,47,8,52,28,57,161,204,324,48,5,57,32,49,Școala Gimnazială „Mihai Viteazu” Șelimbăr,Str. Mihai Viteazu nr. 234 A,Șelimbăr,45.7677,24.1956
352,34,SIBIU,ŞELIMBĂR,101,283,317,21,6,32,16,90,101,274,333,22,6,31,19,84,Grădinița cu Program Prelungit,Str. Mihai Viteazu nr. 164,Șelimbăr,45.7693,24.1887
216,34,SIBIU,ALMA,80,8,251,8,34,1,32,39,76,11,229,8,20,4,37,81,Căminul Cultural Șmig,Nr. 238,Șmig,46.2258,24.4439
228,34,SIBIU,AXENTE SEVER,19,1,45,3,2,8,14,20,20,1,44,3,2,8,15,20,Cămin Cultural,,Șoala,46.0585,24.2638
254,34,SIBIU,BRUIU,25,9,26,4,1,5,3,15,24,10,28,3,1,5,3,13,Școala Primară Șomartin,Nr. 16,Șomartin,45.8561,24.6693
346,34,SIBIU,ŞEICA MARE,16,1,24,1,1,1,0,3,19,1,23,0,1,1,0,2,Școala Primară Ștenea,Nr. f.nr.,Ștenea,45.9752,24.2371
356,34,SIBIU,ŞURA MARE,144,34,138,19,2,15,15,38,151,38,131,17,1,15,17,39,Sală Sport,Nr. 3,Șura Mare,45.8496,24.1565
357,34,SIBIU,ŞURA MARE,114,74,179,26,3,16,23,38,126,76,169,19,4,20,24,35,Sală Sport,Nr. 3,Șura Mare,45.8496,24.1565
359,34,SIBIU,ŞURA MICĂ,110,72,247,6,3,55,6,26,103,74,250,6,1,64,4,23,Școala Gimnazială Sura Mica,Str. Șoseaua Sibiului nr. 139D,Șura Mică,45.8324,24.0545
296,34,SIBIU,MICĂSASA,78,5,66,4,2,5,2,7,85,5,63,4,2,1,1,6,Școala Primară Țapu,Str. George Coșbuc nr. 187,Țapu,46.0734,24.0875
252,34,SIBIU,BRĂDENI,13,0,30,1,1,3,5,13,15,1,34,1,1,3,3,7,Fosta Școală Țeline,Nr. 142,Țeline,46.0753,24.9038
309,34,SIBIU,NOCRICH,22,0,33,2,0,3,0,0,21,0,30,2,0,4,0,1,Școala Primară Țichindeal,Nr. 30,Țichindeal,45.8697,24.3891