id,nr_circumscriptie,circumscriptie,localitate,psd_cdep,usr_cdep,pnl_cdep,pmp_cdep,udmr_cdep,alde_cdep,pru_cdep,altele_cdep,psd_senat,usr_senat,pnl_senat,pmp_senat,udmr_senat,alde_senat,pru_senat,altele_senat,name,address,city,lat,lng
198,35,SUCEAVA,ADÂNCATA,167,21,268,22,1,16,6,33,175,24,267,26,1,16,5,23,Școala Gimnazială Ioan Băncescu Adâncata - Corpul cu Clasele I-IV,,Adâncata,47.7356,26.2957
199,35,SUCEAVA,ADÂNCATA,148,19,166,10,1,14,12,25,149,20,163,12,3,10,10,18,Școala Gimnazială Ioan Băncescu Adâncata - Corpul cu Clasele V-VIII,,Adâncata,47.7438,26.2897
307,35,SUCEAVA,FORĂŞTI,73,2,26,7,1,6,14,21,72,6,28,5,1,5,13,18,Școala Antoceni,,Antoceni,47.3326,26.4748
202,35,SUCEAVA,ARBORE,257,13,125,30,0,35,8,38,258,12,134,27,1,33,12,33,"Școala Gimnazială nr. 1 „Luca Arbure”, Corp B",Nr. 687,Arbore,47.7303,25.9218
203,35,SUCEAVA,ARBORE,283,13,103,26,1,23,12,38,309,12,103,27,0,16,12,30,Școala Gimnazială nr. 2 Arbore,Nr. 207,Arbore,47.7407,25.9105
204,35,SUCEAVA,ARBORE,177,11,48,25,1,8,5,22,183,9,51,26,1,7,5,17,Școala Gimnazială nr. 3 Arbore,Nr. 1030,Arbore,47.7291,25.9466
400,35,SUCEAVA,MOLDOVIŢA,73,0,65,51,1,8,2,28,69,0,70,53,1,9,2,20,Școala Gimnazială Argel,,Argel,47.762,25.4689
429,35,SUCEAVA,PREUTEŞTI,259,4,46,20,1,7,7,19,256,7,45,21,1,8,7,21,Școala Gimnazială Arghira,,Arghira,47.4589,26.4619
344,35,SUCEAVA,HĂNŢEŞTI,86,4,36,2,1,2,3,7,84,2,36,2,1,3,4,7,Școala Primară Berești,,Arțari,47.7867,26.33
431,35,SUCEAVA,PREUTEŞTI,90,2,8,3,1,2,0,2,95,1,8,2,0,1,0,0,Școala Primară Bahna Arin,,Bahna Arin,47.488,26.4385
207,35,SUCEAVA,BAIA,403,10,36,11,1,17,17,31,403,16,34,17,0,19,14,22,Sediul Primariei Baia,Str. Nicolae Stoleru nr. 9,Baia,47.4205,26.2169
208,35,SUCEAVA,BAIA,284,4,47,9,1,7,11,26,297,5,45,7,1,7,9,19,Școala nr. 2 Baia,Nr. 9,Baia,47.4122,26.2376
209,35,SUCEAVA,BAIA,359,13,49,16,0,17,5,22,365,14,58,19,0,10,4,14,Școala nr. 3 Baia,Str. Alexandru cel Bun nr. 33,Baia,47.4187,26.2093
403,35,SUCEAVA,MUŞENIŢA,44,2,28,6,1,3,11,24,50,2,35,2,1,3,10,16,Căminul Cultural Baineț,,Baineț,47.9662,25.9405
430,35,SUCEAVA,PREUTEŞTI,393,3,87,20,0,4,13,31,385,7,96,19,0,8,14,29,Școala Gimnazială Basarabi,,Basarabi,47.4522,26.438
398,35,SUCEAVA,MOLDOVA-SULIŢA,52,3,71,13,0,3,2,8,52,4,64,17,0,7,4,9,Școala Primară Benia,,Benia,47.6643,25.2642
215,35,SUCEAVA,BERCHIŞEŞTI,570,15,163,11,3,10,11,32,569,18,160,15,2,13,13,31,Școala Gimnazială Berchișești,Str. Daniil Oniga nr. 141,Berchișești,47.5255,26.0275
217,35,SUCEAVA,BILCA,100,12,126,4,0,19,11,34,103,11,127,9,2,17,12,26,Primăria,,Bilca,47.9211,25.7645
218,35,SUCEAVA,BILCA,136,7,114,10,1,16,10,33,137,6,111,10,2,16,13,31,Școala Gimnazială nr. 2,,Bilca,47.9291,25.7896
219,35,SUCEAVA,BILCA,90,7,87,3,5,9,10,15,88,5,91,4,6,8,13,16,Școala Primară nr. 3,,Bilca,47.9143,25.724
196,35,SUCEAVA,ORAŞ VICOVU DE SUS,120,9,146,29,0,13,4,15,121,12,139,30,0,13,2,14,Școala Gimnazială Bivolăria,Str. Ștefan cel Mare (D) nr. 184,Bivolăria,47.9131,25.6729
197,35,SUCEAVA,ORAŞ VICOVU DE SUS,93,4,49,6,1,8,3,8,91,5,50,4,1,8,6,9,Grădinița Nouă Bivolărie,Str. Domnească (D) nr. 2,Bivolăria,47.9141,25.6538
370,35,SUCEAVA,IZVOARELE SUCEVEI,24,2,36,4,0,1,2,20,27,1,47,5,0,0,2,10,Școala Primară Bobeica,,Bobeica,47.7268,25.133
206,35,SUCEAVA,ARBORE,60,0,18,1,0,6,1,3,58,1,20,2,0,6,0,2,Școala Gimnazială nr. 6 Bodnareni,Nr. 20,Bodnăreni,47.7581,25.932
210,35,SUCEAVA,BAIA,366,3,32,6,0,7,1,24,377,2,31,8,0,5,3,11,Școala Bogata,,Bogata,47.41,26.1858
220,35,SUCEAVA,BOGDĂNEŞTI,353,9,221,19,0,49,16,41,343,10,235,23,0,50,16,32,Școala Gimnazială nr. 1,,Bogdănești,47.3666,26.2716
221,35,SUCEAVA,BOGDĂNEŞTI,239,8,125,14,2,7,13,29,241,10,133,14,3,5,10,28,Școala Gimnazială nr. 2,,Bogdănești,47.3601,26.2836
222,35,SUCEAVA,BOROAIA,220,8,56,9,1,9,7,20,226,12,55,9,1,11,4,9,Cămin Cultural Mihai Boleac,,Boroaia,47.3486,26.3361
223,35,SUCEAVA,BOROAIA,199,8,32,4,0,9,6,24,199,11,31,4,0,11,7,18,Școala Primară nr. 2 Boroaia,,Boroaia,47.3423,26.3214
228,35,SUCEAVA,BOSANCI,70,11,72,14,1,137,2,18,87,12,84,16,2,107,5,16,Caminul Cultural Bosanci,,Bosanci,47.5902,26.3159
229,35,SUCEAVA,BOSANCI,89,13,92,10,1,139,8,27,106,18,101,12,0,115,17,27,Căminul Cultural Bosanci,,Bosanci,47.5902,26.3159
230,35,SUCEAVA,BOSANCI,75,9,55,14,2,125,1,20,91,12,66,17,1,97,5,18,Școala Gimnazială Bosanci,,Bosanci,47.589,26.319
231,35,SUCEAVA,BOSANCI,122,22,97,12,1,185,4,24,134,28,109,14,1,137,5,27,Școala Primară Bosanci,,Bosanci,47.5824,26.3052
353,35,SUCEAVA,HORODNICENI,68,3,89,6,1,5,7,17,70,3,83,10,0,7,9,16,Școala cu Cl. I-IV Botești,,Botești,47.5133,26.1362
253,35,SUCEAVA,CIOCĂNEŞTI,44,4,84,16,0,7,2,13,40,9,71,18,0,18,2,9,Camin Cultural Botos,Str. Principală nr. 18,Botoș,47.5108,25.231
233,35,SUCEAVA,BOTOŞANA,140,2,259,22,0,6,7,14,131,4,265,21,0,7,9,12,Școala Gimnazială cu Clasele I-VIII Botosana,,Botoșana,47.6837,25.9413
234,35,SUCEAVA,BOTOŞANA,126,8,259,13,1,9,11,22,123,7,254,16,1,10,15,28,Cămin Cultural Botoșana,,Botoșana,47.6841,25.9408
250,35,SUCEAVA,CALAFINDEŞTI,88,1,16,2,2,4,1,9,90,1,24,1,3,3,3,7,Școala Primară Botoșanița Mare,,Botoșanița Mare,47.8736,26.1049
334,35,SUCEAVA,GRĂMEŞTI,91,2,8,2,0,1,0,3,89,2,9,2,0,1,0,4,Școala cu Clasele I-IV Botoșanița Mică,,Botoșanița Mică,47.8852,26.1283
329,35,SUCEAVA,FUNDU MOLDOVEI,112,7,238,23,1,5,7,17,101,5,230,39,1,5,6,21,Școala Gimnazială Botuș,,Botuș,47.5602,25.3397
312,35,SUCEAVA,FORĂŞTI,128,3,22,5,0,4,2,25,139,3,26,8,1,7,1,12,Școala Primară Boura,,Boura,47.4055,26.4785
363,35,SUCEAVA,ILIŞEŞTI,38,2,62,6,1,4,3,9,41,1,61,6,3,4,2,5,Camin Cultural Brasca,,Brașca,47.6243,26.0583
235,35,SUCEAVA,BREAZA,255,8,80,40,0,12,4,23,252,13,87,40,0,8,4,21,Caminul Cultural Sat Breaza,,Breaza,47.615,25.3183
236,35,SUCEAVA,BRODINA,178,7,92,13,0,7,6,27,183,9,96,14,0,8,7,16,Sediul Nou al Primariei Comunei Brodina,Nr. 295 A,Brodina,47.8877,25.4223
371,35,SUCEAVA,IZVOARELE SUCEVEI,44,4,55,2,0,27,0,21,44,4,64,3,0,32,1,5,Școala Gimnazială Brodina - Izvoarele Sucevei,,Brodina,47.7805,25.2704
237,35,SUCEAVA,BRODINA,73,5,48,15,0,2,5,21,77,3,53,17,1,3,6,14,Centru de Asistenta Dupa Programul Scolar Tip After School,Nr. 702 A,Brodina de Jos,47.8102,25.3901
129,35,SUCEAVA,ORAŞ BROŞTENI,152,12,71,6,1,7,26,52,152,10,72,15,2,13,30,46,Primăria Broșteni,Nr. 89,Broșteni,47.2385,25.6933
130,35,SUCEAVA,ORAŞ BROŞTENI,305,18,89,15,2,11,49,74,280,23,80,13,2,14,83,105,Liceul Tehnologic „Nicolai Nanu” Broșteni,,Broșteni,47.2395,25.6972
131,35,SUCEAVA,ORAŞ BROŞTENI,71,6,31,7,1,12,10,19,65,5,34,7,1,11,13,24,Spital Medico Social Carmen Sylva,Aleea Carmen Sylva,Broșteni,47.2358,25.7154
291,35,SUCEAVA,DRĂGUŞENI,107,2,11,1,0,2,2,5,109,0,11,1,0,0,1,4,Grădinița cu Program Normal Broșteni,,Broșteni,47.3036,26.5541
354,35,SUCEAVA,HORODNICENI,63,5,88,4,1,15,1,8,59,2,92,4,1,16,3,12,Școala cu Cl. I-IV Brădățel,,Brădățel,47.5076,26.1678
260,35,SUCEAVA,CORNU LUNCII,184,0,110,14,0,14,11,27,187,2,108,16,0,14,11,24,Școala Gimnazială Braiesti,,Brăiești,47.4962,26.0703
151,35,SUCEAVA,ORAŞ FRASIN,234,7,106,16,2,19,10,32,229,12,102,19,1,25,10,31,Școala Gimnazială Bucșoaia,Calea Bucovinei nr. 32,Bucșoaia,47.5398,25.8107
445,35,SUCEAVA,RÎŞCA,128,5,50,3,2,17,3,7,126,7,49,4,2,17,5,9,Școala Primară nr. 2 Rîșca,,Buda,47.3685,26.1384
550,35,SUCEAVA,ZVORIŞTEA,229,11,32,6,2,16,6,19,239,9,28,3,3,16,7,17,Școala Generală Buda,,Buda,47.8367,26.263
147,35,SUCEAVA,ORAŞ DOLHASCA,205,3,95,6,0,6,3,17,210,3,105,6,1,7,3,15,Școala Gimnazială Budeni,,Budeni,47.4126,26.6586
239,35,SUCEAVA,BUNEŞTI,116,2,78,7,1,5,5,24,120,2,79,6,1,6,5,18,Primăria Comunei Bunesti,,Bunești,47.5234,26.2871
243,35,SUCEAVA,BURLA,247,9,225,11,0,17,4,18,254,9,222,16,1,22,5,12,Caminul Cultural Burla - Sala Mare,,Burla,47.7901,25.9257
526,35,SUCEAVA,VEREŞTI,162,7,88,20,1,12,8,36,177,6,83,20,1,12,5,33,Școala Gimnazială Bursuceni,,Bursuceni,47.649,26.4757
173,35,SUCEAVA,ORAŞ MILIŞĂUŢI,202,4,87,16,1,24,12,36,202,8,90,16,1,20,12,33,Grădinița cu Program Normal Bădeuți,Calea Dragoș Vodă nr. 69,Bădeuți,47.803,25.9811
259,35,SUCEAVA,CORNU LUNCII,206,12,135,17,0,22,13,56,215,16,141,14,0,27,9,34,Școala Gimnazială Baisesti,,Băișești,47.4775,26.1076
212,35,SUCEAVA,BĂLCĂUŢI,173,3,94,3,0,5,6,37,172,6,108,3,1,7,2,15,Sediul Primăriei Comunei Bălcăuți,,Bălcăuți,47.8916,26.0718
333,35,SUCEAVA,GRĂMEŞTI,159,5,30,1,0,6,2,8,156,6,30,1,0,6,3,10,Școala Primară Bălinești,Nr. 48,Bălinești,47.8995,26.1762
211,35,SUCEAVA,BĂLĂCEANA,303,6,49,11,2,17,3,24,311,6,50,15,2,16,2,13,Școala Gimnazială Bălăceana,Nr. FN,Bălăceana,47.6427,26.0379
303,35,SUCEAVA,FÎNTÎNELE,133,5,156,18,0,17,12,32,137,5,160,13,1,18,17,32,Căminul Cultural Bănești,,Bănești,47.5888,26.5204
225,35,SUCEAVA,BOROAIA,298,3,18,11,2,9,14,23,294,5,14,12,1,10,15,27,Grădinița cu Program Normal Bărăști,,Bărăști,47.363,26.3527
245,35,SUCEAVA,CACICA,191,10,76,5,1,11,6,93,237,17,109,8,2,11,6,16,Școala Cacica,,Cacica,47.6381,25.8976
135,35,SUCEAVA,ORAŞ CAJVANA,214,7,98,47,1,17,6,24,217,5,111,40,1,16,5,13,Cămin Cultural Cajvana,,Cajvana,47.7028,25.9693
136,35,SUCEAVA,ORAŞ CAJVANA,177,4,82,40,0,1,3,13,174,8,85,36,0,1,2,13,Liceul Tehnologic Cajvana,Nr. 800,Cajvana,47.7082,25.9694
137,35,SUCEAVA,ORAŞ CAJVANA,110,7,84,21,4,9,5,19,110,9,82,28,3,8,2,13,Liceul Tehnologic Cajvana,,Cajvana,47.7014,25.9642
138,35,SUCEAVA,ORAŞ CAJVANA,103,7,51,30,2,2,1,11,94,7,59,29,1,3,1,12,Grădinița cu Program Normal Cajvana,,Cajvana,47.7041,25.9526
248,35,SUCEAVA,CALAFINDEŞTI,192,10,88,4,1,10,0,18,202,9,83,9,1,7,4,14,Sala de Sport Calafindesti Sala A,,Calafindești,47.8546,26.1258
249,35,SUCEAVA,CALAFINDEŞTI,181,2,97,8,1,9,7,24,183,3,98,10,1,14,6,16,Sala de Sport Calafindesti- Sala B,,Calafindești,47.8546,26.1257
416,35,SUCEAVA,PĂLTINOASA,226,3,98,6,1,9,9,34,218,5,113,8,2,14,5,15,Căminul Cultural Capu Codrului,Nr. 662A,Capu Codrului,47.5307,25.9832
417,35,SUCEAVA,PĂLTINOASA,148,11,124,12,1,11,4,28,151,12,128,14,2,14,4,16,Școala Gimnazială Bogdan Vodă Capu Codrului,Nr. 535,Capu Codrului,47.5293,25.9887
251,35,SUCEAVA,CAPU CÂMPULUI,157,6,131,13,3,533,21,63,159,2,146,11,1,532,21,50,Grădinița cu Program Normal nr. 1 Capu Câmpului,Nr. 462 A,Capu Câmpului,47.506,25.9911
492,35,SUCEAVA,UDEŞTI,224,7,59,6,1,35,0,10,234,6,59,7,0,29,2,7,Căminul Cultural Chilișeni,,Chilișeni,47.561,26.4778
269,35,SUCEAVA,CRUCEA,155,4,28,7,0,4,10,20,155,5,23,7,0,10,11,18,Cămin Cultural Chiril,Nr. 9,Chiril,47.3967,25.5643
252,35,SUCEAVA,CIOCĂNEŞTI,109,7,219,9,1,23,6,28,110,17,198,14,0,43,6,14,Casa de Cultura Ciocanesti,Str. Principală nr. 54,Ciocănești,47.4805,25.2781
544,35,SUCEAVA,ZAMOSTEA,165,1,8,2,1,4,0,7,161,1,13,2,1,3,3,5,Școala Primară Ciomîrtan,,Ciomârtan,47.8719,26.1812
254,35,SUCEAVA,CIPRIAN PORUMBESCU,412,4,47,6,0,17,6,24,420,2,52,9,1,14,4,23,Primăria Comunei Ciprian Porumbescu,Nr. 207,Ciprian Porumbescu,47.5691,26.0643
508,35,SUCEAVA,VADU MOLDOVEI,181,3,39,7,1,16,7,17,194,5,35,8,2,10,2,10,Căminul Cultural Ciumulești,Nr. 165,Ciumulești,47.3739,26.39
519,35,SUCEAVA,VATRA MOLDOVIŢEI,41,2,93,14,0,3,3,8,42,3,89,16,0,3,1,6,Sala Polivalentă Ciumârna,,Ciumârna,47.7102,25.6114
404,35,SUCEAVA,MUŞENIŢA,11,1,23,2,2,8,3,75,54,2,55,5,3,10,3,10,Căminul Cultural Climăuți,,Climăuți,47.9663,25.9257
205,35,SUCEAVA,ARBORE,228,10,80,24,1,2,10,31,233,8,83,26,2,4,9,23,Sală de Festivități Clit,Nr. 122B,Clit,47.7539,25.8561
328,35,SUCEAVA,FUNDU MOLDOVEI,153,3,167,71,2,6,6,24,145,5,157,85,3,6,5,20,Căminul Cultural Colacu,,Colacu,47.538,25.3704
256,35,SUCEAVA,COMĂNEŞTI,177,10,210,5,1,16,10,15,181,9,213,5,2,15,9,14,Școala Gimnazială cu Clasele I-VIII Comanesti,,Comănești,47.6685,25.9897
216,35,SUCEAVA,BERCHIŞEŞTI,157,1,21,3,0,2,5,12,152,2,24,3,1,4,3,9,Școala Primară Corlata,,Corlata,47.5437,26.047
169,35,SUCEAVA,ORAŞ LITENI,93,9,66,6,0,6,4,20,94,11,65,7,1,4,5,20,Școala Gimnazială Corni,,Corni,47.4739,26.56
258,35,SUCEAVA,CORNU LUNCII,253,26,76,6,1,15,5,23,260,26,77,6,1,11,3,22,Școala Gimnazială Cornu Luncii,,Cornu Luncii,47.4651,26.1447
524,35,SUCEAVA,VEREŞTI,147,1,38,35,0,10,6,17,146,3,40,34,1,12,9,15,Școala Gimnazială Corocaiesti,,Corocăiești,47.6411,26.482
525,35,SUCEAVA,VEREŞTI,190,7,63,12,0,8,8,24,200,7,55,13,0,7,9,22,Caminul Cultural Corocaiesti,,Corocăiești,47.6385,26.4848
319,35,SUCEAVA,FRĂTĂUŢII NOI,90,13,62,13,1,3,4,14,92,10,63,12,1,3,3,19,Cămin Cultural Costișa,,Costișa,47.9216,25.9062
320,35,SUCEAVA,FRĂTĂUŢII NOI,122,6,32,8,1,2,4,7,125,7,31,9,0,2,2,4,Grădinița cu Program Normal nr. 2 Costișa,,Costișa,47.9196,25.9248
487,35,SUCEAVA,TODIREŞTI,173,4,119,9,2,9,2,17,182,2,124,2,1,10,0,10,Școala Gimnazială „Vasile Bumbac” Costîna,Nr. 269,Costâna,47.6929,26.1162
298,35,SUCEAVA,FÂNTÂNA MARE,162,5,33,29,3,9,9,30,158,6,35,34,2,15,8,21,Școala cu Clasele I-IV Cotu Baii,Nr. 9,Cotu Băii,47.4198,26.28
305,35,SUCEAVA,FÎNTÎNELE,42,0,12,1,0,5,2,7,42,1,16,1,0,5,1,4,Școala din Satul Cotu Dobei,,Cotu Dobei,47.5805,26.4796
132,35,SUCEAVA,ORAŞ BROŞTENI,146,9,82,29,1,16,19,41,146,9,85,28,1,17,22,38,Școala Cotîrgași nr. 1,,Cotârgași,47.2416,25.7448
411,35,SUCEAVA,PANACI,116,5,47,25,0,2,7,19,120,2,52,28,0,2,6,11,Școala cu Clasele I-IV Coverca,,Coverca,47.232,25.3882
282,35,SUCEAVA,DORNA-ARINI,259,20,117,37,0,51,5,39,267,21,114,40,1,54,7,24,Cămin Cultural Cozănești,Nr. 5F,Cozănești,47.3429,25.427
267,35,SUCEAVA,COŞNA,310,11,131,37,2,7,9,23,306,17,125,42,1,11,6,20,Primăria Coșna,Nr. 1,Coșna,47.3694,25.1793
268,35,SUCEAVA,CRUCEA,353,26,55,9,0,36,17,50,359,22,57,12,0,42,17,34,Primăria Comunei Crucea Sală Festivități,Nr. 151,Crucea,47.3499,25.6066
232,35,SUCEAVA,BOSANCI,26,3,9,5,1,15,4,10,34,5,10,6,1,7,2,6,Școala Primară Cumpărătura,,Cumpărătura,47.5636,26.2724
64,35,SUCEAVA,MUNICIPIUL CÂMPULUNG MOLDOVENESC,189,22,211,13,0,29,16,109,204,24,239,24,0,32,22,50,Școala Gimnazială „Theodor Darie”,Calea Transilvaniei (Str. 7 Noiembrie) nr. 114,Câmpulung Moldovenesc,47.5363,25.534
65,35,SUCEAVA,MUNICIPIUL CÂMPULUNG MOLDOVENESC,133,23,97,13,0,26,9,70,140,32,115,15,0,28,12,29,Liceul Tehnologic nr. 1,Calea Transilvaniei (Str. 7 Noiembrie) nr. 55,Câmpulung Moldovenesc,47.532,25.549
66,35,SUCEAVA,MUNICIPIUL CÂMPULUNG MOLDOVENESC,200,24,138,32,1,31,8,132,219,36,179,34,0,34,15,50,Circumscripția Sanitar-Veterinară,Str. Eudoxiu Hurmuzachi nr. 8,Câmpulung Moldovenesc,47.535,25.551
67,35,SUCEAVA,MUNICIPIUL CÂMPULUNG MOLDOVENESC,115,23,83,11,0,17,7,66,126,23,93,16,1,29,9,26,Școala Gimnazială „Teodor Ștefanelli”,Calea Transilvaniei (Str. 7 Noiembrie) nr. 36,Câmpulung Moldovenesc,47.5331,25.5498
68,35,SUCEAVA,MUNICIPIUL CÂMPULUNG MOLDOVENESC,162,24,153,11,0,25,15,100,179,32,169,13,0,35,22,45,Colegiul Național „Dragoș Vodă”,Str. Liceului nr. 3,Câmpulung Moldovenesc,47.5291,25.5557
69,35,SUCEAVA,MUNICIPIUL CÂMPULUNG MOLDOVENESC,178,39,142,19,1,42,14,125,210,43,168,24,1,55,14,44,Clubul Copiilor și Elevilor,Str. I. Hălăuceanu nr. 8,Câmpulung Moldovenesc,47.5292,25.5567
70,35,SUCEAVA,MUNICIPIUL CÂMPULUNG MOLDOVENESC,233,26,168,19,0,32,21,137,252,33,198,21,0,41,29,66,Școala Gimnazială „Bogdan Vodă”,Calea Bucovinei (Str. 23 August) nr. 36,Câmpulung Moldovenesc,47.5289,25.5606
71,35,SUCEAVA,MUNICIPIUL CÂMPULUNG MOLDOVENESC,95,27,76,4,1,9,12,55,100,23,96,5,3,13,10,27,Clubul Copiilor și Elevilor - Satul de Vacanță,Piața Daciei nr. 5,Câmpulung Moldovenesc,47.5345,25.5618
72,35,SUCEAVA,MUNICIPIUL CÂMPULUNG MOLDOVENESC,166,29,208,10,1,28,10,82,179,31,217,18,0,36,13,41,Colegiul Silvic „Bucovina” (Corp A),Calea Bucovinei (Str. 23 August) nr. 56,Câmpulung Moldovenesc,47.527,25.5682
73,35,SUCEAVA,MUNICIPIUL CÂMPULUNG MOLDOVENESC,168,33,160,13,0,22,11,87,179,35,191,17,0,25,15,33,Colegiul Silvic „Bucovina” (Corp B),Calea Bucovinei (Str. 23 August) nr. 56,Câmpulung Moldovenesc,47.527,25.5682
74,35,SUCEAVA,MUNICIPIUL CÂMPULUNG MOLDOVENESC,234,18,171,11,0,20,9,117,238,29,209,25,0,26,13,43,Colegiul Silvic „Bucovina” (Corp C),Calea Bucovinei (Str. 23 August) nr. 56,Câmpulung Moldovenesc,47.527,25.5682
75,35,SUCEAVA,MUNICIPIUL CÂMPULUNG MOLDOVENESC,184,15,215,9,2,28,7,80,208,18,224,15,2,30,14,33,Grădinița nr. 4 „Valea Seacă”,Calea Bucovinei (Str. 23 August) nr. 115,Câmpulung Moldovenesc,47.5258,25.5756
76,35,SUCEAVA,MUNICIPIUL CÂMPULUNG MOLDOVENESC,136,22,136,17,1,22,5,65,149,28,155,22,2,22,11,28,Școala Gimnazială „George Voevidca” - Corp A,Calea Bucovinei (Str. 23 August) nr. 208,Câmpulung Moldovenesc,47.5183,25.5913
77,35,SUCEAVA,MUNICIPIUL CÂMPULUNG MOLDOVENESC,139,20,146,11,2,20,0,84,169,19,174,12,2,28,9,29,Școala Gimnazială „George Voevidca” - Corp B,Calea Bucovinei (Str. 23 August) nr. 208,Câmpulung Moldovenesc,47.5183,25.5913
255,35,SUCEAVA,CÎRLIBABA,181,11,265,41,4,21,10,32,181,10,262,38,5,24,14,42,Local After School,,Cârlibaba Nouă,47.5727,25.1234
273,35,SUCEAVA,DĂRMĂNEŞTI,77,4,90,3,1,7,3,15,76,6,94,2,1,7,5,10,Școala Gimnazială Călinești Enache,,Călinești,47.7753,26.1337
485,35,SUCEAVA,ŞERBĂUŢI,94,3,230,2,0,8,5,14,90,7,224,4,0,7,5,13,Camin Cultural Calinesti,,Călinești,47.8031,26.1514
274,35,SUCEAVA,DĂRMĂNEŞTI,12,1,31,1,0,6,2,4,14,2,29,2,0,5,1,2,Școala Călinești-Vasilache,,Călinești-Vasilache,47.7901,26.1201
200,35,SUCEAVA,ADÂNCATA,95,2,78,4,2,6,5,7,95,3,77,4,2,8,5,8,Școala Primară Călugăreni,,Călugăreni,47.7638,26.2872
549,35,SUCEAVA,ZVORIŞTEA,136,4,24,3,1,13,7,13,139,2,28,3,1,15,6,9,Școala Generală Buda,,Dealu,47.8367,26.263
325,35,SUCEAVA,FRUMOSU,115,4,102,18,1,25,8,18,110,6,102,15,2,26,5,15,Școala Generală cu Clasele I-IV Deia,,Deia,47.5965,25.6245
421,35,SUCEAVA,PÎRTEŞTII DE JOS,112,8,36,5,2,13,3,30,115,9,34,5,2,9,4,33,Școala Deleni,,Deleni,47.6299,25.9693
401,35,SUCEAVA,MOLDOVIŢA,118,3,88,12,1,33,3,49,104,6,81,9,0,32,2,79,Grădinița cu Program Normal Demacușa,,Demacușa,47.7018,25.4964
139,35,SUCEAVA,ORAŞ DOLHASCA,188,10,148,10,0,17,9,28,189,12,148,11,0,14,9,24,Liceul Tehnologic „Oltea Doamna”,Calea Fălticeni,Dolhasca,47.4254,26.6053
140,35,SUCEAVA,ORAŞ DOLHASCA,187,10,102,13,0,22,8,20,192,7,111,11,0,22,6,19,Școala Primară Dolhasca,,Dolhasca,47.4258,26.6115
141,35,SUCEAVA,ORAŞ DOLHASCA,115,5,106,10,0,7,7,24,114,5,112,10,0,8,7,18,Școala Primară Sândeni,,Dolhasca,47.4385,26.598
277,35,SUCEAVA,DOLHEŞTI,342,6,43,4,0,5,14,24,345,6,41,5,0,7,15,21,Școala Gimnazială Dolheștii Mici,,Dolheștii Mici,47.4361,26.5506
276,35,SUCEAVA,DOLHEŞTI,527,0,55,17,1,12,10,41,536,5,57,21,0,14,8,26,Primăria Dolhești,,Dolheștii-Mari,47.4484,26.515
279,35,SUCEAVA,DORNA CANDRENILOR,544,28,150,30,1,24,10,41,528,32,163,23,2,35,11,30,Primăria Comunei Dorna Candrenilor,Nr. 85,Dorna Candrenilor,47.3551,25.2617
281,35,SUCEAVA,DORNA-ARINI,99,12,37,19,0,15,7,17,104,11,38,15,1,14,7,19,Sediu Asociație „Obștea Gura Negrii” Dorna Arini,Nr. 112B,Dorna-Arini,47.3362,25.4036
284,35,SUCEAVA,DORNEŞTI,183,9,118,7,1,17,5,23,187,11,124,6,1,21,2,13,Școala Gimnazială Dornesti,,Dornești,47.8708,26.0041
285,35,SUCEAVA,DORNEŞTI,280,21,147,14,1,20,9,48,267,26,147,17,1,23,14,39,Caminul Cultural Dornesti,,Dornești,47.8725,26.004
424,35,SUCEAVA,POIANA STAMPEI,119,0,5,8,0,6,3,10,113,2,6,5,1,9,3,10,Complex Social Dornisoara,,Dornișoara,47.219,25.0836
152,35,SUCEAVA,ORAŞ FRASIN,108,3,50,6,1,5,12,26,105,4,52,11,2,5,12,21,Școala Gimnazială Doroteia,Str. Primăverii nr. 30,Doroteia,47.4999,25.7965
326,35,SUCEAVA,FRUMOSU,107,5,19,2,0,6,5,10,110,4,20,2,0,6,1,7,Școala Dragosa,,Dragoșa,47.6432,25.6347
288,35,SUCEAVA,DRĂGOIEŞTI,359,6,101,15,0,26,12,26,371,7,101,17,0,22,12,24,Cămin Cultural Drăgoiești,Nr. 158,Drăgoiești,47.5496,26.0797
290,35,SUCEAVA,DRĂGUŞENI,478,26,95,7,1,8,11,27,489,20,99,8,0,10,14,30,Primăria Comunei Drăgușeni,,Drăgușeni,47.2946,26.4899
261,35,SUCEAVA,CORNU LUNCII,86,4,21,2,2,16,7,21,80,4,24,3,3,16,8,20,Școala Primară Dumbrava,,Dumbrava,47.4873,26.1522
337,35,SUCEAVA,GRĂNICEŞTI,31,4,26,7,0,1,0,2,31,4,25,7,0,2,0,2,Școala Primară Dumbrava,,Dumbrava,47.7989,26.0961
292,35,SUCEAVA,DUMBRĂVENI,364,19,64,32,2,17,9,44,367,23,64,34,2,16,6,31,Ateneu Dumbraveni,Nr. 2177,Dumbrăveni,47.6616,26.4276
293,35,SUCEAVA,DUMBRĂVENI,458,8,90,26,3,16,5,23,457,8,88,33,4,18,4,18,Liceul Tehnologic Mihai Eminescu Dumbraveni,Nr. 386,Dumbrăveni,47.6607,26.4216
294,35,SUCEAVA,DUMBRĂVENI,479,6,48,23,2,4,7,27,473,7,56,24,1,9,7,21,Școala Toloaca,Nr. 1536,Dumbrăveni,47.649,26.4235
295,35,SUCEAVA,DUMBRĂVENI,366,10,69,18,1,13,6,21,355,12,71,15,3,13,10,28,Școala Deal,,Dumbrăveni,47.6606,26.4067
446,35,SUCEAVA,RÎŞCA,112,1,23,4,2,8,0,7,108,3,27,4,3,9,2,9,Școala Dumbrăveni,,Dumbrăveni,47.3552,26.186
503,35,SUCEAVA,VADU MOLDOVEI,252,4,49,5,4,13,4,25,270,8,50,5,3,10,6,20,Școala Primară Dumbrăvița,,Dumbrăvița,47.3978,26.3441
134,35,SUCEAVA,ORAŞ BROŞTENI,30,1,16,4,1,1,3,6,32,1,16,3,0,2,4,6,Școala Generală Dîrmoxa,,Dârmoxa,47.1858,25.5428
275,35,SUCEAVA,DĂRMĂNEŞTI,95,6,126,17,1,10,7,34,97,8,133,18,1,9,7,23,Școala Gimnazială Dănila,,Dănila,47.751,26.0973
270,35,SUCEAVA,DĂRMĂNEŞTI,127,6,139,9,0,16,5,63,143,8,163,17,1,16,10,20,Grădinița cu Program Normal nr. 1 Dărmănești,,Dărmănești,47.7335,26.1485
271,35,SUCEAVA,DĂRMĂNEŞTI,114,6,118,10,1,13,6,91,152,9,149,12,1,11,6,17,Școala Dărmănești nr. 2,,Dărmănești,47.7238,26.1419
238,35,SUCEAVA,BRODINA,119,10,93,20,0,6,13,35,124,10,93,24,0,5,14,30,Grădinița cu Program Normal Falcau,Nr. 125 B,Falcău,47.9068,25.4684
201,35,SUCEAVA,ADÂNCATA,81,1,122,2,1,6,1,7,86,3,121,2,1,7,2,6,Școala Gimnazială Fetești,,Fetești,47.7085,26.3402
480,35,SUCEAVA,ŞCHEIA,22,0,24,3,1,2,1,6,23,0,25,2,1,1,1,6,Camin Cultural,,Florinta,47.6454,26.1271
306,35,SUCEAVA,FORĂŞTI,95,8,41,2,0,10,9,23,97,9,42,3,0,11,11,19,Sediul Primariei Forasti,Nr. 6,Forăști,47.3491,26.465
133,35,SUCEAVA,ORAŞ BROŞTENI,93,6,38,5,1,7,6,22,88,5,45,7,1,9,9,19,"Grădinița Sat Frasin, Brosteni",,Frasin,47.2215,25.738
149,35,SUCEAVA,ORAŞ FRASIN,177,14,91,27,2,20,9,36,172,18,96,30,2,23,9,25,Primăria Orașului Frasin,Calea Bucovinei nr. 85,Frasin,47.5395,25.7961
150,35,SUCEAVA,ORAŞ FRASIN,149,6,60,9,1,7,14,41,158,8,61,12,0,10,11,27,Școala Gimnazială Frasin,Nr. 23,Frasin,47.5296,25.7971
394,35,SUCEAVA,MOARA,33,4,11,1,0,10,2,9,37,5,10,1,0,8,4,7,Școala Generală Frumoasa,,Frumoasa,47.5956,26.1915
324,35,SUCEAVA,FRUMOSU,441,16,113,31,0,41,8,53,451,16,131,25,0,38,13,41,Primăria Frumosu,,Frumosu,47.6088,25.6464
316,35,SUCEAVA,FRĂTĂUŢII NOI,191,12,66,52,1,16,11,31,196,14,66,48,1,17,10,26,Căminul Cultural Frătăuții Noi,,Frătăuții Noi,47.9281,25.8562
317,35,SUCEAVA,FRĂTĂUŢII NOI,138,1,49,17,3,6,6,22,138,2,49,21,3,5,8,21,Școala Gimnazială nr. 2 Frătăuții Noi,,Frătăuții Noi,47.9328,25.8338
318,35,SUCEAVA,FRĂTĂUŢII NOI,53,1,22,19,1,5,0,3,53,2,23,13,1,6,1,5,Grădinița cu Program Normal nr. 3 Frătăuții Noi,,Frătăuții Noi,47.9361,25.8804
321,35,SUCEAVA,FRĂTĂUŢII VECHI,158,18,60,7,1,31,7,25,156,17,54,7,1,33,9,28,Camin Cultural Fratautii Vechi,,Frătăuții Vechi,47.9087,25.8768
322,35,SUCEAVA,FRĂTĂUŢII VECHI,124,11,42,8,1,14,12,29,123,12,39,9,1,14,10,26,Școala Primară Liviu V. Ionesi Frătăuții-Vechi,,Frătăuții Vechi,47.914,25.8867
327,35,SUCEAVA,FUNDU MOLDOVEI,200,15,376,100,1,25,11,51,176,18,344,160,1,24,17,39,Școala Gimnazială „Dimitrie Gusti”,,Fundu Moldovei,47.5374,25.4077
297,35,SUCEAVA,FÂNTÂNA MARE,226,13,31,12,0,15,3,30,231,14,38,11,0,16,9,22,Școala cu Clasele I-IV Fantana Mare,Nr. 52,Fântâna Mare,47.4097,26.3027
301,35,SUCEAVA,FÎNTÎNELE,111,4,112,3,1,6,15,33,116,5,109,2,2,4,18,35,Căminul Cultural Fîntînele,,Fântânele,47.5747,26.5265
78,35,SUCEAVA,MUNICIPIUL FĂLTICENI,367,52,112,34,0,48,17,79,382,48,121,36,0,61,11,43,Colegiul Tehnic „Mihai Băcescu”,Str. Nicolae Beldiceanu,Fălticeni,47.4616,26.2965
79,35,SUCEAVA,MUNICIPIUL FĂLTICENI,378,41,80,12,0,38,12,87,416,41,87,12,1,38,18,47,Școala Gimnazială „Alexandru Ioan Cuza”,Str. Sucevei nr. 78,Fălticeni,47.4628,26.3003
80,35,SUCEAVA,MUNICIPIUL FĂLTICENI,310,43,92,12,2,39,14,92,329,50,115,16,1,35,14,49,Colegiul Național „Nicu Gane”,Str. Sucevei nr. 111,Fălticeni,47.4631,26.302
81,35,SUCEAVA,MUNICIPIUL FĂLTICENI,395,19,77,14,1,29,16,81,402,27,78,19,0,35,22,53,Colegiul Național „Nicu Gane”,Str. Sucevei nr. 111,Fălticeni,47.4631,26.302
82,35,SUCEAVA,MUNICIPIUL FĂLTICENI,309,22,54,20,0,28,6,48,322,23,66,19,1,25,7,25,Școala Gimnazială „Ioan Ciurea”,Str. 13 Decembrie nr. 19,Fălticeni,47.4582,26.3067
83,35,SUCEAVA,MUNICIPIUL FĂLTICENI,233,11,44,7,2,27,6,36,238,14,47,7,2,24,11,25,Școala Gimnazială „Ioan Ciurea”,Str. 13 Decembrie nr. 19,Fălticeni,47.4582,26.3067
84,35,SUCEAVA,MUNICIPIUL FĂLTICENI,264,19,78,8,1,30,3,30,265,21,80,9,1,30,4,24,Școala Gimnazială „Ioan Ciurea”,Str. 13 Decembrie nr. 19,Fălticeni,47.4582,26.3067
85,35,SUCEAVA,MUNICIPIUL FĂLTICENI,379,32,75,16,0,36,20,81,404,33,82,19,0,31,26,51,Școala Gimnazială „Mihail Sadoveanu”,Str. Ana Ipătescu nr. 115,Fălticeni,47.4586,26.3028
86,35,SUCEAVA,MUNICIPIUL FĂLTICENI,307,22,43,11,0,33,13,42,303,26,43,11,0,34,18,34,Școala Gimnazială „Mihail Sadoveanu”,Str. Ana Ipătescu nr. 115,Fălticeni,47.4586,26.3028
87,35,SUCEAVA,MUNICIPIUL FĂLTICENI,277,33,70,18,1,33,14,79,309,31,78,18,1,36,19,48,Școala Gimnazială „Mihail Sadoveanu”,Str. Ion Dragoslav (Str. Ioan Dragoslav) nr. 9,Fălticeni,47.4581,26.2972
88,35,SUCEAVA,MUNICIPIUL FĂLTICENI,285,23,56,12,1,26,5,51,294,20,65,12,0,33,6,31,Școala Gimnazială „Ion Irimiescu”,Str. Nicolae Beldiceanu nr. 23,Fălticeni,47.4596,26.2987
89,35,SUCEAVA,MUNICIPIUL FĂLTICENI,235,25,58,13,3,22,7,47,239,26,55,17,4,27,9,29,Școala Gimnazială „Ion Irimiescu”,Str. Nicolae Beldiceanu nr. 23,Fălticeni,47.4596,26.2987
90,35,SUCEAVA,MUNICIPIUL FĂLTICENI,220,11,52,13,0,21,11,32,222,11,54,13,0,22,13,28,Grădinița cu Program Prelungit „Dumbrava Minunată”,Str. Țărăncuței nr. 19,Fălticeni,47.4541,26.2996
91,35,SUCEAVA,MUNICIPIUL FĂLTICENI,249,13,37,11,1,26,13,61,261,14,41,11,1,20,19,50,Grădinița cu Program Prelungit „Dumbrava Minunată”,Str. Țărăncuței nr. 19,Fălticeni,47.4541,26.2996
92,35,SUCEAVA,MUNICIPIUL FĂLTICENI,214,15,57,9,0,10,18,38,221,18,59,7,0,15,17,24,Grădinița cu Program Prelungit „Dumbrava Minunată”,Str. Țărăncuței nr. 19,Fălticeni,47.4541,26.2996
93,35,SUCEAVA,MUNICIPIUL FĂLTICENI,407,20,62,16,1,28,14,61,415,21,71,13,0,30,17,43,Colegiul „Vasile Lovinescu”,Str. Maior Ioan (Str. Nicolae Ioan) nr. 16,Fălticeni,47.4667,26.2932
94,35,SUCEAVA,MUNICIPIUL FĂLTICENI,388,35,85,17,3,34,9,54,388,35,87,17,3,35,12,45,Colegiul „Vasile Lovinescu”,Str. Maior Ioan (Str. Nicolae Ioan) nr. 16,Fălticeni,47.4667,26.2932
95,35,SUCEAVA,MUNICIPIUL FĂLTICENI,324,42,101,23,1,42,19,80,321,46,117,28,1,42,12,51,Colegiul „Vasile Lovinescu”,Str. Maior Ioan (Str. Nicolae Ioan) nr. 16,Fălticeni,47.4675,26.2814
96,35,SUCEAVA,MUNICIPIUL FĂLTICENI,411,21,51,19,1,25,9,40,412,24,53,21,1,28,11,30,Școala Gimnazială „Ioan Ciurea” - Clădire Gheorghe Gafencu,Str. Armatei (Str. 6 Martie) nr. 17,Fălticeni,47.4549,26.3245
97,35,SUCEAVA,MUNICIPIUL FĂLTICENI,83,5,28,7,0,8,6,18,87,5,32,8,0,8,6,11,Grădinița cu Program Normal Țarna Mare,Str. Spicului,Fălticeni,47.4748,26.3201
98,35,SUCEAVA,MUNICIPIUL FĂLTICENI,115,0,13,1,1,1,1,6,116,0,14,2,1,2,1,2,Grădinița cu Program Normal Țarna Mică,Str. Nufărului,Fălticeni,47.463,26.3442
470,35,SUCEAVA,STULPICANI,140,2,31,11,0,22,9,19,143,3,33,16,0,19,10,14,Școala Gimnazială Gemenea,,Gemenea,47.4426,25.7042
224,35,SUCEAVA,BOROAIA,114,3,24,8,0,4,6,18,120,4,23,9,0,3,6,13,Cămin Cultural Giulești,,Giulești,47.3472,26.378
538,35,SUCEAVA,VULTUREŞTI,123,2,29,14,1,4,6,22,127,3,27,20,1,3,9,16,Școala Gimnazială Giurgești,Nr. 34,Giurgești,47.5041,26.421
413,35,SUCEAVA,PANACI,66,2,12,9,0,3,1,6,68,3,11,8,0,3,1,5,Camin Cultural Glodu,,Glodu,47.1648,25.4732
455,35,SUCEAVA,SIMINICEA,49,2,33,5,1,5,5,12,52,1,34,6,1,4,0,7,Școala Primară Grigoresti,,Grigorești,47.7175,26.3863
214,35,SUCEAVA,BĂLCĂUŢI,77,3,31,1,1,4,2,11,74,5,40,0,1,6,1,6,Școala Primară Gropeni,,Gropeni,47.8973,26.0999
332,35,SUCEAVA,GRĂMEŞTI,362,4,140,20,1,17,8,36,369,4,146,20,2,21,6,31,Cămin Cultural Grămești,,Grămești,47.9152,26.1494
335,35,SUCEAVA,GRĂNICEŞTI,99,5,82,10,0,5,7,17,98,5,81,10,0,6,7,15,Școala Gimnazială „Mihail Sadoveanu” Grănicești,,Grănicești,47.8119,26.0556
336,35,SUCEAVA,GRĂNICEŞTI,93,2,56,18,0,9,6,17,84,2,54,22,0,9,4,16,Școala Gimnazială Mihail Sadoveanu Granicesti,,Grănicești,47.8121,26.0552
143,35,SUCEAVA,ORAŞ DOLHASCA,340,10,187,7,0,16,6,63,385,8,199,8,1,10,6,29,Școala Gimnazială Gulia,,Gulia,47.4117,26.6072
476,35,SUCEAVA,ŞARU DORNEI,86,4,52,23,0,8,5,14,87,4,52,21,0,9,5,12,Școala cu Clasele I-IV Gura Haitii,,Gura Haitii,47.2175,25.288
154,35,SUCEAVA,ORAŞ GURA HUMORULUI,275,23,285,16,2,42,27,81,281,24,290,15,2,47,27,65,Muzeul Obiceiurilor Populare Gura Humorului,,Gura Humorului,47.5541,25.8891
155,35,SUCEAVA,ORAŞ GURA HUMORULUI,234,27,180,12,1,20,25,56,230,30,189,15,1,18,17,45,Grădinița cu Program Normal „Pinochio”,,Gura Humorului,47.5523,25.8829
156,35,SUCEAVA,ORAŞ GURA HUMORULUI,296,34,202,23,2,35,29,74,295,31,210,23,3,33,29,66,Colegiul „Alexandru Cel Bun” Corpul B,,Gura Humorului,47.5556,25.8934
157,35,SUCEAVA,ORAŞ GURA HUMORULUI,305,38,213,25,1,68,17,74,299,35,230,28,2,71,20,55,Școala Gimnazială nr. 1,,Gura Humorului,47.5538,25.8925
158,35,SUCEAVA,ORAŞ GURA HUMORULUI,258,37,222,15,2,57,26,90,263,35,237,20,4,64,23,58,Școala Gimnazială „Petru Comarnescu”,,Gura Humorului,47.5535,25.8948
159,35,SUCEAVA,ORAŞ GURA HUMORULUI,317,21,197,9,2,33,24,94,330,26,217,12,2,39,18,53,Colegiul „Alexandru Cel Bun” Corpul A,,Gura Humorului,47.5535,25.8998
160,35,SUCEAVA,ORAŞ GURA HUMORULUI,285,36,213,27,1,44,26,101,279,32,237,31,1,52,34,75,Școala Gimnazială „Teodor Balan”,,Gura Humorului,47.5548,25.8956
161,35,SUCEAVA,ORAŞ GURA HUMORULUI,94,5,73,6,1,11,3,17,96,5,76,3,1,15,3,15,Școala Primară Boureni,,Gura Humorului,47.5689,25.8751
437,35,SUCEAVA,PUTNA,140,7,138,16,0,12,11,18,135,5,142,13,0,13,12,22,Căminul Cultural Gura Putnei,Nr. 192,Gura Putnei,47.8993,25.5915
338,35,SUCEAVA,GRĂNICEŞTI,120,0,10,11,0,2,2,7,116,3,14,10,0,2,2,5,Școala Gimnazială Gura Solcii,,Gura Solcii,47.7421,26.0457
458,35,SUCEAVA,SLATINA,607,3,64,6,2,9,5,15,607,6,71,6,1,12,6,13,Căminul Cultural Găinești,,Găinești,47.42,25.9175
330,35,SUCEAVA,GĂLĂNEŞTI,245,12,49,8,1,15,9,29,247,11,50,8,0,13,13,31,Școala Primară din Satul Gălănești,,Gălănești,47.9116,25.8039
523,35,SUCEAVA,VEREŞTI,183,1,44,19,1,35,6,27,192,5,34,21,1,33,2,25,Sala de Sedinte a Consiliului Local Veresti,,Hancea,47.605,26.4413
457,35,SUCEAVA,SLATINA,284,4,67,4,1,3,5,14,278,3,72,5,3,2,4,16,Căminul Cultural Herla,Nr. 112A,Herla,47.4458,26.0016
128,35,SUCEAVA,ORAŞ BROŞTENI,157,18,65,18,1,64,22,59,151,19,69,19,1,72,25,51,Cămin Cultural Holda,,Holda,47.259,25.6816
347,35,SUCEAVA,HORODNIC DE JOS,183,7,192,19,0,20,10,33,183,9,197,19,0,19,11,32,Căminul Cultural Horodnic de Jos,,Horodnic de Jos,47.8607,25.8315
348,35,SUCEAVA,HORODNIC DE JOS,118,8,72,7,0,9,3,16,124,9,69,8,0,9,2,10,Școala Primară Vasile Țigănescu,,Horodnic de Jos,47.8594,25.8088
349,35,SUCEAVA,HORODNIC DE SUS,90,4,196,16,0,9,8,20,97,5,194,17,1,6,9,21,Școala Gimnazială nr. 2,,Horodnic de Sus,47.8318,25.812
350,35,SUCEAVA,HORODNIC DE SUS,159,8,357,10,0,25,13,58,178,8,352,13,1,24,12,45,Sala de Sport,,Horodnic de Sus,47.8332,25.8361
351,35,SUCEAVA,HORODNIC DE SUS,151,5,144,7,0,6,3,30,159,6,147,6,0,7,2,22,Școala Gimnazială nr. 3,,Horodnic de Sus,47.8477,25.8002
352,35,SUCEAVA,HORODNICENI,214,8,217,10,1,12,6,22,215,7,217,11,1,13,7,23,Primăria Comunei Horodniceni,,Horodniceni,47.5255,26.1634
539,35,SUCEAVA,VULTUREŞTI,82,2,18,7,1,5,5,7,85,1,17,7,1,3,5,6,Localul Fostei Școli Hreațca (Imobil Proprietatea Societății Cooperative „Vulturul Pleșuv” Vulturești),Nr. 129,Hreațca,47.5267,26.352
257,35,SUCEAVA,COMĂNEŞTI,125,4,190,3,2,15,8,38,130,5,192,4,2,16,10,29,Școala Gimnazială cu Clasele I-VIII Humoreni,,Humoreni,47.6539,25.99
331,35,SUCEAVA,GĂLĂNEŞTI,134,1,36,4,0,8,3,11,131,2,37,2,0,9,4,14,Școala Primară din Satul Hurjuieni,,Hurjuieni,47.9136,25.8364
433,35,SUCEAVA,PREUTEŞTI,184,11,37,12,1,9,3,14,180,9,33,16,1,10,9,19,Școala Primară Huși,,Huși,47.4469,26.3874
345,35,SUCEAVA,HÂRTOP,269,8,75,4,0,8,8,29,273,7,82,4,0,10,8,21,Clădire Administrativă,Str. Principală nr. 121,Hârtop,47.476,26.3626
346,35,SUCEAVA,HÂRTOP,232,2,62,2,0,8,6,27,235,3,60,2,0,6,9,21,Clădire Administrativă,Str. Principală nr. 121,Hârtop,47.476,26.3626
342,35,SUCEAVA,HĂNŢEŞTI,423,2,60,14,1,9,3,19,430,3,63,14,1,13,5,13,Școala Gimnazială „Mihai Halunga” Hantesti,,Hănțești,47.7539,26.3707
343,35,SUCEAVA,HĂNŢEŞTI,290,1,48,8,1,3,1,14,283,2,54,6,1,3,4,7,Școala Primară nr. 2 Hantesti Vale,,Hănțești,47.7556,26.343
357,35,SUCEAVA,IACOBENI,123,2,245,11,0,21,8,20,157,4,182,16,1,27,12,34,Casa Națională Iacobeni,Str. Republicii nr. 77,Iacobeni,47.4188,25.3098
359,35,SUCEAVA,IACOBENI,97,1,117,6,0,20,4,16,118,2,94,10,0,19,7,16,Liceul Tehnologic Liviu Suhar Iacobeni Corp a Str. Minelor nr. 17 Comuna Iacobeni Judetul Suceava,Str. Minelor nr. 17,Iacobeni,47.431,25.3056
339,35,SUCEAVA,GRĂNICEŞTI,60,1,39,6,0,3,3,15,56,3,36,7,0,4,8,17,Școala Primară Iacobești,,Iacobești,47.7646,26.0842
360,35,SUCEAVA,IASLOVĂŢ,287,8,80,17,1,13,13,46,282,11,77,23,1,15,9,41,Sala Mică a Căminului Cultural Iaslovăț,,Iaslovăț,47.7582,25.9756
361,35,SUCEAVA,IASLOVĂŢ,264,2,69,8,1,17,4,23,267,2,63,9,0,18,4,26,Școala Gimnazială nr. 2 Iaslovat,,Iaslovăț,47.758,25.9761
286,35,SUCEAVA,DORNEŞTI,19,2,33,2,0,2,1,3,22,2,31,1,0,3,1,2,Școala Primară Iaz,,Iaz,47.9074,25.9809
362,35,SUCEAVA,ILIŞEŞTI,287,12,213,11,0,16,11,31,299,12,212,14,1,14,9,25,Primăria Ilisesti,,Ilișești,47.6101,26.0484
507,35,SUCEAVA,VADU MOLDOVEI,91,5,31,7,0,5,2,13,88,6,33,8,0,5,1,9,Școala Primară Ioneasa,,Ioneasa,47.3727,26.4352
364,35,SUCEAVA,IPOTEŞTI,116,20,214,21,1,72,13,38,125,20,227,24,2,52,17,32,Școala Gimnazială Ipotești,Nr. 605,Ipotești,47.6251,26.292
365,35,SUCEAVA,IPOTEŞTI,116,43,255,18,3,34,6,43,128,48,257,21,2,29,3,25,Școala Gimnazială Ipotești,,Ipotești,47.6251,26.292
366,35,SUCEAVA,IPOTEŞTI,80,9,201,8,1,15,3,13,79,8,206,9,1,12,2,11,Școala Primară Ipotești,Nr. 81,Ipotești,47.6176,26.2788
369,35,SUCEAVA,IZVOARELE SUCEVEI,111,0,40,8,0,1,4,34,113,7,55,11,0,1,4,9,Primăria Izvoarele Sucevei,,Izvoarele Sucevei,47.769,25.1728
541,35,SUCEAVA,VULTUREŞTI,31,2,3,2,1,3,1,2,32,1,4,2,1,2,1,2,Localul Fostei Școli Jacota,Nr. 12,Jacota,47.5076,26.3874
444,35,SUCEAVA,RÎŞCA,48,0,28,1,1,5,0,6,48,2,29,0,1,4,1,5,Școala Jahalia,,Jahalia,47.375,26.2441
434,35,SUCEAVA,PREUTEŞTI,297,2,37,9,0,4,6,31,289,9,38,12,0,8,6,19,Școala Gimnazială Leucușești,,Leucușești,47.4277,26.3718
390,35,SUCEAVA,MITOCU DRAGOMIRNEI,27,1,18,2,2,2,2,120,87,0,57,6,4,6,3,15,Școala Primară Lipoveni,,Lipoveni,47.7227,26.2238
368,35,SUCEAVA,IPOTEŞTI,162,22,140,14,1,21,4,31,156,24,145,16,1,19,4,28,Școala Primară Lisaura,Nr. 50,Lisaura,47.6363,26.2945
163,35,SUCEAVA,ORAŞ LITENI,236,7,229,26,4,17,10,25,242,7,223,26,0,17,12,24,Casa de Cultură Liteni,Str. Primăriei nr. 3,Liteni,47.5209,26.5262
164,35,SUCEAVA,ORAŞ LITENI,182,12,155,11,2,10,9,30,184,10,154,13,2,15,12,29,Corpul Iii Liceul Tehnologic Iorgu Vârnav Liteanu Liteni,Str. Iorgu Vârnav Liteanu nr. 22,Liteni,47.5161,26.5269
165,35,SUCEAVA,ORAŞ LITENI,105,2,120,12,2,5,8,22,107,3,114,14,1,7,9,15,Corpul a Liceul Tehnologic Iorgu Vârnav Liteanu Liteni,Str. Mihail Sadoveanu nr. 2,Liteni,47.5204,26.5278
395,35,SUCEAVA,MOARA,142,11,60,6,0,8,2,16,142,9,58,7,0,10,2,14,Școala Generală Liteni,Nr. 48,Liteni,47.5681,26.1906
289,35,SUCEAVA,DRĂGOIEŞTI,53,2,22,6,0,7,4,15,52,2,22,8,0,8,6,13,Cămin Cultural Lucăcești,Nr. 193,Lucăcești,47.5311,26.1039
545,35,SUCEAVA,ZAMOSTEA,46,0,11,2,1,13,1,5,51,0,10,1,1,13,0,4,Școala Primară Lunca,,Lunca,47.8841,26.2137
496,35,SUCEAVA,UDEŞTI,91,3,70,6,0,15,2,12,96,6,68,9,0,8,4,14,Școala Primară Luncușoara,,Luncușoara,47.5963,26.3562
500,35,SUCEAVA,ULMA,89,2,45,11,0,2,2,89,127,5,67,22,1,2,4,16,Școala Gimnazială Lupcina,,Lupcina,47.8306,25.2476
440,35,SUCEAVA,RĂDĂŞENI,138,14,177,6,2,5,6,23,139,16,188,5,1,9,2,14,"Școala Mihai Niculăiasa, Sat Lămășeni",Str. Ștefan cel Mare nr. 59,Lămășeni,47.4956,26.2245
313,35,SUCEAVA,FORĂŞTI,85,2,7,2,1,15,4,82,136,5,21,5,1,23,6,13,Sediul Fostei Primarii Manolea,,Manolea,47.3988,26.4742
315,35,SUCEAVA,FORĂŞTI,40,4,12,2,0,3,2,20,47,7,15,2,0,3,4,8,"Școala Viisoara, Catun Viisoara",,Manolea,47.4095,26.4378
372,35,SUCEAVA,MARGINEA,105,11,213,47,1,28,4,27,113,12,209,45,0,25,5,34,Școala cu Clasele I-VIII nr. 2 Marginea,Nr. 271,Marginea,47.8189,25.8068
373,35,SUCEAVA,MARGINEA,138,15,186,27,3,23,17,46,144,11,179,37,1,24,16,41,Liceul Tehnologic Vasile Gherasim Marginea,Nr. 918,Marginea,47.8101,25.8209
374,35,SUCEAVA,MARGINEA,125,2,189,29,1,15,10,27,134,1,179,40,1,14,7,21,Liceul Tehnologic Vasile Gherasim Marginea,Nr. 918,Marginea,47.8101,25.8209
375,35,SUCEAVA,MARGINEA,169,11,207,27,0,15,18,44,155,10,207,43,1,17,16,40,Liceul Tehnologic Vasile Gherasim Marginea,Nr. 918,Marginea,47.8101,25.8209
376,35,SUCEAVA,MARGINEA,223,5,149,32,0,17,20,44,213,4,153,41,0,22,24,38,Școala cu Clasele I-VIII nr. 3 Marginea,Nr. 1243,Marginea,47.8019,25.7968
177,35,SUCEAVA,ORAŞ SALCEA,153,14,113,3,1,21,7,32,157,17,114,2,1,20,6,27,Școala Mereni,,Mereni,47.6619,26.3224
540,35,SUCEAVA,VULTUREŞTI,102,0,5,3,1,2,5,17,108,0,6,3,1,2,7,13,Școala cu Clasele I-IV,Nr. 16,Merești,47.5444,26.402
506,35,SUCEAVA,VADU MOLDOVEI,27,2,17,4,0,6,4,13,29,1,16,5,0,6,3,9,Școala Primară Mesteceni,,Mesteceni,47.4013,26.4183
358,35,SUCEAVA,IACOBENI,33,3,63,3,1,21,1,6,35,4,50,5,1,26,4,10,Clubul Fermierilor Mestecanis Str Fermierilor nr. 14 Sat Mestecanis Comuna Iacobeni Judetul Suceava,,Mestecăniș,47.4545,25.3339
483,35,SUCEAVA,ŞCHEIA,234,26,138,22,1,39,13,45,244,31,138,23,1,43,11,33,Școala Gimnazială,Str. Principală,Mihoveni,47.6792,26.1819
355,35,SUCEAVA,HORODNICENI,140,3,168,12,2,3,3,6,139,4,169,12,1,2,3,6,Școala cu Cl.I-VIII Mihăiești,,Mihăiești,47.516,26.215
171,35,SUCEAVA,ORAŞ MILIŞĂUŢI,169,22,151,32,1,23,12,43,192,24,159,30,2,22,12,32,Sediul Primăriei Milișăuți,Calea Bogdan Vodă nr. 4,Milișăuți,47.7944,25.9936
172,35,SUCEAVA,ORAŞ MILIŞĂUŢI,187,26,129,20,2,17,6,23,190,25,130,20,2,23,5,20,"Școala Gimnazială Milișăuți, Corp A",Calea Ștefan cel Mare nr. 64,Milișăuți,47.7898,25.9984
511,35,SUCEAVA,VALEA MOLDOVEI,198,3,325,4,0,14,7,36,202,4,342,6,1,14,7,30,Școala Primară Mironu,,Mironu,47.485,26.0139
389,35,SUCEAVA,MITOCU DRAGOMIRNEI,122,7,58,25,2,28,9,26,121,7,60,21,2,28,9,30,Școala Primară „Ion Creangă” Mitocași,,Mitocași,47.7315,26.2612
387,35,SUCEAVA,MITOCU DRAGOMIRNEI,163,20,171,44,0,31,9,26,163,22,174,46,0,28,7,19,Caminul Cultural al Comunei Mitocu Dragomirnei,,Mitocu Dragomirnei,47.7272,26.2526
388,35,SUCEAVA,MITOCU DRAGOMIRNEI,234,8,207,46,1,25,11,42,242,8,209,53,1,24,16,42,Grădinița cu Program Normal nr. 1,,Mitocu Dragomirnei,47.7226,26.2438
393,35,SUCEAVA,MOARA,128,3,31,3,0,17,3,16,130,4,27,3,0,17,4,16,Școala Generală Moara Carp,,Moara Carp,47.5669,26.2353
391,35,SUCEAVA,MOARA,197,17,118,15,1,52,9,41,199,20,128,17,0,57,12,29,Primarie,Nr. 226,Moara Nica,47.6001,26.2219
392,35,SUCEAVA,MOARA,143,20,79,14,0,27,6,73,189,25,82,15,0,34,8,19,Școala Generală Moara Nica,,Moara Nica,47.6008,26.221
227,35,SUCEAVA,BOROAIA,167,3,32,3,0,3,4,11,169,5,32,3,0,3,3,9,Școala Gimnazială Moișa,,Moișa,47.3344,26.2996
397,35,SUCEAVA,MOLDOVA-SULIŢA,138,8,89,14,1,4,4,16,133,8,84,18,2,3,5,19,Primăria Com Moldova Sulița,,Moldova-Sulița,47.6915,25.241
399,35,SUCEAVA,MOLDOVIŢA,240,15,212,60,1,33,8,165,232,14,167,55,3,24,13,236,Sala de Spectacole,,Moldovița,47.6872,25.5386
515,35,SUCEAVA,VAMA,64,2,61,25,1,12,6,27,67,3,64,28,1,17,5,17,Școala Gimnazială „Iorgu G. Toma” Localul din Satul Molid,Str. Ștefan cel Mare nr. 85,Molid,47.5714,25.7269
505,35,SUCEAVA,VADU MOLDOVEI,59,0,10,2,0,8,0,11,70,1,10,2,0,7,1,5,Școala Primară Movileni,,Movileni,47.3949,26.4125
406,35,SUCEAVA,MUŞENIŢA,60,1,66,0,0,5,5,12,63,1,64,0,0,6,4,10,Școala cu Cl. I-IV Mușenița,,Mușenița,47.9672,25.9926
377,35,SUCEAVA,MĂLINI,225,15,219,9,1,12,12,40,237,17,221,8,1,12,12,32,Primăria Malini,Str. Principală nr. 979,Mălini,47.4503,26.0844
378,35,SUCEAVA,MĂLINI,299,7,242,10,2,11,4,22,300,7,249,9,1,10,5,14,Școala Gimnazială Suha,,Mălini,47.4305,26.0671
323,35,SUCEAVA,FRĂTĂUŢII VECHI,207,5,55,12,0,6,7,25,197,5,54,18,0,7,12,32,Camin Cultural Măneuți,,Măneuți,47.8994,25.9263
382,35,SUCEAVA,MĂNĂSTIREA HUMORULUI,101,12,128,11,2,39,11,39,98,12,140,12,2,41,6,24,Școala Gimnazială Mănăstirea Humorului,Str. Ștefan cel Mare nr. 153,Mănăstirea Humorului,47.5951,25.8565
383,35,SUCEAVA,MĂNĂSTIREA HUMORULUI,85,8,148,7,1,6,8,22,84,8,153,8,1,7,9,20,Școala Gimnazială Mănăstirea Humorului,Str. Ștefan cel Mare nr. 153,Mănăstirea Humorului,47.5951,25.8565
272,35,SUCEAVA,DĂRMĂNEŞTI,162,10,290,7,0,12,4,66,191,9,311,5,0,18,8,19,Școala Gimnazială Măriței,,Măriței,47.7481,26.1277
287,35,SUCEAVA,DRĂGOIEŞTI,125,5,18,3,0,7,2,11,121,7,20,4,1,7,3,11,Primăria Comunei Drăgoiești,Nr. 97,Măzănăești,47.5277,26.083
474,35,SUCEAVA,ŞARU DORNEI,231,14,213,52,1,22,18,36,239,14,212,47,1,22,17,31,Școala Gimnazială Neagra Sarului,,Neagra Șarului,47.2398,25.3294
213,35,SUCEAVA,BĂLCĂUŢI,175,6,264,5,1,21,2,25,186,5,273,6,0,19,4,12,Școala Gimnazială Negostina,,Negostina,47.9215,26.0792
468,35,SUCEAVA,STULPICANI,110,2,67,40,0,5,6,26,115,4,71,43,0,6,5,17,Căminul Cultural Negrilesa,,Negrileasa,47.4234,25.8143
546,35,SUCEAVA,ZAMOSTEA,94,1,17,6,1,12,0,10,94,1,19,7,1,12,0,8,Școala Primară Nicani,,Nicani,47.868,26.2264
504,35,SUCEAVA,VADU MOLDOVEI,107,1,22,3,1,10,4,15,111,1,22,1,1,13,7,15,Școala Gimnazială Nigotești,,Nigotești,47.3827,26.4332
501,35,SUCEAVA,ULMA,53,1,17,4,0,4,1,23,63,1,22,5,0,3,2,9,Sala de Ședințe a Consiliului Local Ulma,,Nisipitu,47.8726,25.3279
308,35,SUCEAVA,FORĂŞTI,204,7,39,9,1,10,5,26,205,8,37,8,0,12,8,23,Școala Gimnazială Oniceni,,Oniceni,47.3237,26.4604
542,35,SUCEAVA,VULTUREŞTI,69,2,12,7,1,9,2,8,71,4,10,6,1,11,2,5,Școala Primară Osoi,Nr. 152,Osoi,47.5202,26.4604
408,35,SUCEAVA,OSTRA,530,9,84,17,1,19,19,37,529,14,86,16,1,15,17,34,Căminul Cultural Nou,Nr. 251,Ostra,47.3958,25.7519
409,35,SUCEAVA,OSTRA,199,1,28,6,1,7,2,14,200,3,29,5,1,6,0,8,Casa de Tip Familial „Cireșarii”,Nr. 446,Ostra,47.403,25.7585
520,35,SUCEAVA,VATRA MOLDOVIŢEI,76,2,146,8,0,3,2,35,84,2,153,10,0,4,5,19,Școala Gimnazială Paltinu,,Paltinu,47.6317,25.54
521,35,SUCEAVA,VATRA MOLDOVIŢEI,103,2,209,11,0,1,2,15,103,2,215,12,0,2,1,9,Școala Primară Spărturi,,Paltinu,47.6386,25.5189
410,35,SUCEAVA,PANACI,166,8,72,20,1,12,13,21,169,11,69,19,1,15,14,17,Căminul Cultural Panaci,,Panaci,47.2476,25.379
241,35,SUCEAVA,BUNEŞTI,116,6,55,6,1,7,2,26,124,11,55,8,1,6,6,15,Școala Gimnazială Petia,,Petia,47.5129,26.3173
384,35,SUCEAVA,MĂNĂSTIREA HUMORULUI,2,0,7,0,1,2,2,52,8,2,45,0,1,5,2,3,Casa Polonă „Dom Polski”,Nr. 45,Pleșa,47.6312,25.8364
536,35,SUCEAVA,VULTUREŞTI,116,1,7,18,2,7,11,17,114,2,8,22,1,8,15,18,Școala Gimnazială „Constantin Tomescu” Pleșești,Nr. 47,Pleșești,47.5222,26.3732
176,35,SUCEAVA,ORAŞ SALCEA,266,23,138,31,3,32,14,43,270,29,134,35,2,34,14,30,Camin Cultural Plopeni,,Plopeni,47.6576,26.3338
153,35,SUCEAVA,ORAŞ FRASIN,134,6,62,6,0,8,11,21,132,3,61,6,0,5,12,21,Cămin Cultural Plutonița,Calea Transilvaniei nr. 89,Plutonița,47.4936,25.7834
498,35,SUCEAVA,UDEŞTI,167,1,55,5,1,32,4,26,173,4,57,5,1,27,3,16,Grădinița cu Program Normal Plăvălari,,Plăvălari,47.5667,26.3567
441,35,SUCEAVA,RĂDĂŞENI,28,2,19,0,0,4,1,5,27,2,21,0,0,5,1,3,Școala Pocoleni,Str. George Coșbuc,Pocoleni,47.5007,26.2647
240,35,SUCEAVA,BUNEŞTI,84,3,37,8,0,15,5,13,89,3,34,12,0,11,6,13,Grădinița cu Program Normal Podeni,,Podeni,47.5146,26.2783
142,35,SUCEAVA,ORAŞ DOLHASCA,66,1,64,4,1,3,2,7,66,3,69,4,1,2,1,6,Școala Primară Poiana,,Poiana,47.4602,26.57
553,35,SUCEAVA,ZVORIŞTEA,111,6,20,4,0,7,4,11,109,6,23,4,0,7,3,11,Școala Generală Poiana,,Poiana,47.7919,26.2713
385,35,SUCEAVA,MĂNĂSTIREA HUMORULUI,7,4,24,1,1,6,1,145,20,4,137,4,1,10,4,16,Școala Gimnazială „Krystina Bochenek” Poiana Micului,,Poiana Micului,47.6512,25.7702
386,35,SUCEAVA,MĂNĂSTIREA HUMORULUI,38,1,37,2,1,1,3,17,39,1,47,2,1,1,3,8,Fosta „Școală Primară nr. 1 Poiana Micului”,,Poiana Micului,47.6881,25.7461
380,35,SUCEAVA,MĂLINI,179,15,187,5,0,6,10,23,183,10,197,6,0,8,13,18,Școala Gimnazială Poiana Marului,,Poiana Mărului,47.4103,26.0371
280,35,SUCEAVA,DORNA CANDRENILOR,305,4,59,15,1,18,4,23,305,9,59,14,1,15,3,17,Căminul Cultural Poiana Negrii,,Poiana Negrii,47.3138,25.2143
423,35,SUCEAVA,POIANA STAMPEI,580,34,158,29,1,18,20,54,583,48,152,26,1,15,19,48,Casa de Cultură Poiana Stampei,Nr. 101,Poiana Stampei,47.3239,25.1389
145,35,SUCEAVA,ORAŞ DOLHASCA,42,2,54,4,1,3,3,16,48,0,53,6,1,4,1,6,Școala Primară Poienari,,Poienari,47.3877,26.5986
425,35,SUCEAVA,POIENI-SOLCA,295,7,141,25,0,24,11,34,306,7,130,25,0,28,11,29,Primăria Poieni-Solca,,Poieni-Solca,47.6856,25.8927
491,35,SUCEAVA,UDEŞTI,114,3,26,4,1,34,0,6,112,3,35,4,2,21,0,9,Căminul Cultural Poieni - Suceava,,Poieni-Suceava,47.5744,26.4612
426,35,SUCEAVA,POJORÎTA,133,10,76,37,1,9,12,51,132,15,90,53,0,8,8,18,Școala cu Clasele I-IV Pojorîta,,Pojorâta,47.5264,25.4759
427,35,SUCEAVA,POJORÎTA,267,21,112,95,1,23,16,90,283,24,119,118,1,23,18,39,Școala Gimnazială Pojorîta,,Pojorâta,47.5236,25.4632
299,35,SUCEAVA,FÂNTÂNA MARE,28,1,12,0,0,5,3,7,30,1,12,1,0,4,3,5,Școala cu Clasele I-IV Praxia,Str. Principală nr. 14,Praxia,47.38,26.3175
179,35,SUCEAVA,ORAŞ SALCEA,150,4,155,11,0,17,5,18,151,6,144,13,0,14,6,17,Școala Gimnazială Mandache Leocov - Prelipca,Str. 22 Decembrie nr. 101A,Prelipca,47.6107,26.3527
432,35,SUCEAVA,PREUTEŞTI,436,8,89,44,0,13,13,29,442,10,92,38,0,11,17,27,Căminul Cultural Preutești,,Preutești,47.4574,26.4127
516,35,SUCEAVA,VAMA,86,8,34,3,0,28,9,35,87,11,39,5,0,28,11,25,Școala Gimnazială „Iorgu G. Toma” Localul din Satul Prisaca Dornei,Str. Teilor nr. 15,Prisaca Dornei,47.5416,25.6587
144,35,SUCEAVA,ORAŞ DOLHASCA,268,8,228,17,2,20,9,43,273,8,240,19,2,13,9,28,Școala Gimnazială Probota,,Probota,47.3755,26.6244
435,35,SUCEAVA,PUTNA,233,9,205,4,0,26,15,43,233,10,198,8,0,27,16,39,Căminul Cultural Putna- Sala Căsătoriilor,Nr. 168,Putna,47.8708,25.6124
436,35,SUCEAVA,PUTNA,116,2,186,7,0,18,20,39,122,2,189,10,1,22,18,32,Căminul Cultural Putna- Sala de Ședințe,Nr. 168,Putna,47.8707,25.6126
379,35,SUCEAVA,MĂLINI,194,3,290,11,0,9,11,39,208,5,286,12,1,8,11,30,Școala Gimnazială Piraie,,Pâraie,47.4576,26.0754
420,35,SUCEAVA,PÎRTEŞTII DE JOS,311,12,165,28,2,18,14,97,312,14,174,28,2,24,17,76,Liceul Tehnologic „Nicanor Moroșan” Pîrteștii de Jos,Nr. 159,Pârteștii de Jos,47.6407,25.9556
244,35,SUCEAVA,CACICA,348,13,229,13,0,36,16,129,377,17,265,15,1,49,20,44,Centrul de Afaceri Multicultural Cacica,,Pârteștii de Sus,47.6449,25.9167
266,35,SUCEAVA,CORNU LUNCII,212,9,27,1,1,3,3,8,203,9,30,1,1,4,6,10,Școala Paiseni,,Păiseni,47.4293,26.1087
412,35,SUCEAVA,PANACI,31,1,70,2,0,2,2,5,28,4,69,3,0,2,1,5,Școala cu Clasele I-IV Păltiniș,,Păltiniș,47.1933,25.4285
414,35,SUCEAVA,PĂLTINOASA,137,1,279,2,0,10,8,40,148,0,290,0,0,9,9,22,Căminul Cultural Păltinoasa,Nr. 422,Păltinoasa,47.5507,25.9542
415,35,SUCEAVA,PĂLTINOASA,171,3,273,1,3,12,11,65,179,3,309,1,2,13,11,22,Școala Gimnazială Păltinoasa,Nr. 751,Păltinoasa,47.5507,25.9536
488,35,SUCEAVA,TODIREŞTI,184,6,145,26,4,6,4,18,186,4,153,26,7,6,6,12,Școala Gimnazială Părhăuți,Nr. 91,Părhăuți,47.7073,26.0942
418,35,SUCEAVA,PĂTRĂUŢI,333,0,151,18,1,30,16,62,330,19,163,19,2,27,16,30,Primăria Comunei Patrauti,,Pătrăuți,47.7171,26.1902
419,35,SUCEAVA,PĂTRĂUŢI,440,6,66,12,1,9,9,27,457,5,67,12,1,9,6,16,Caminul Cultural Vechi Patrauti,,Pătrăuți,47.7259,26.1925
494,35,SUCEAVA,UDEŞTI,98,2,17,2,0,2,1,4,96,3,17,1,1,2,1,5,Căminul Cultural Racova,,Racova,47.5508,26.4429
402,35,SUCEAVA,MOLDOVIŢA,98,4,137,13,0,6,3,16,91,2,138,15,0,5,6,24,Grădinița cu Program Normal Rașca,,Rașca,47.7315,25.5189
497,35,SUCEAVA,UDEŞTI,116,11,52,7,2,12,8,19,119,8,50,8,2,18,8,13,Școala Gimnazială Reuseni,,Reuseni,47.5828,26.3621
340,35,SUCEAVA,GRĂNICEŞTI,120,4,44,1,1,6,6,14,122,4,46,2,0,6,4,8,Școala Gimnazială Românești,,Românești,47.7752,26.076
356,35,SUCEAVA,HORODNICENI,112,1,51,9,1,6,3,7,111,2,52,9,1,6,2,9,Punct Documentar Nicoale Istrati,,Rotopănești,47.5134,26.1979
166,35,SUCEAVA,ORAŞ LITENI,152,6,125,1,0,12,2,16,155,5,123,2,0,14,4,9,Școala Gimnazială nr. 1 Rotunda,,Rotunda,47.4879,26.5313
167,35,SUCEAVA,ORAŞ LITENI,114,0,82,2,0,13,2,9,121,0,86,3,0,9,2,2,Școala Primară nr. 2 Rotunda,,Rotunda,47.4915,26.5039
168,35,SUCEAVA,ORAŞ LITENI,147,9,134,20,0,6,7,29,141,11,139,18,1,6,10,28,Școala Gimnazială Roșcani,,Roșcani,47.5319,26.5469
309,35,SUCEAVA,FORĂŞTI,103,1,22,2,1,2,2,9,99,2,19,3,1,5,4,12,Școala Rosiori,,Roșiori,47.3508,26.4134
247,35,SUCEAVA,CACICA,36,0,17,2,0,1,1,29,47,4,29,4,0,1,0,4,Școala Runcu,,Runcu,47.6781,25.8603
283,35,SUCEAVA,DORNA-ARINI,138,5,77,17,0,16,7,26,138,7,76,19,1,19,8,21,"Grădinița cu Program Normal Rusca, Sat Rusca nr. 59a",Nr. 59A,Rusca,47.3698,25.4531
310,35,SUCEAVA,FORĂŞTI,95,2,12,4,0,6,3,20,93,1,14,6,0,5,4,20,Școala Primară Rusi,,Ruși,47.352,26.4356
495,35,SUCEAVA,UDEŞTI,78,3,41,10,1,10,6,16,86,3,47,8,1,8,5,13,Școala Primară Rușii - Mănăstioara,,Rușii-Mănăstioara,47.5909,26.3706
442,35,SUCEAVA,RÎŞCA,321,8,114,4,1,39,14,34,333,9,116,3,2,45,13,24,Școala Gimnazială nr. 1,Nr. 106,Râșca,47.3569,26.2316
443,35,SUCEAVA,RÎŞCA,144,10,65,2,3,27,4,20,148,15,62,3,2,29,4,15,Școala Generală Risca 3,,Râșca,47.3511,26.219
99,35,SUCEAVA,MUNICIPIUL RĂDĂUŢI,248,47,115,55,1,45,23,82,256,55,119,76,2,34,21,55,Primăria Radauti,Piața Unirii (Piața Republicii) nr. 2,Rădăuți,47.8438,25.9184
100,35,SUCEAVA,MUNICIPIUL RĂDĂUŢI,309,65,111,45,0,74,27,83,327,65,108,65,0,64,25,55,Casa de Cultura,Str. Bogdan Vodă nr. 12,Rădăuți,47.8397,25.918
101,35,SUCEAVA,MUNICIPIUL RĂDĂUŢI,270,52,164,32,2,82,17,73,278,57,155,52,3,62,21,65,Galeriile de Arta,Piața Unirii (Piața Republicii) nr. 67,Rădăuți,47.8441,25.9153
102,35,SUCEAVA,MUNICIPIUL RĂDĂUŢI,258,43,144,38,2,55,9,78,269,45,144,56,2,42,13,66,Școala Gimnazială Regina Elisabeta nr. 4,Str. Ștefan cel Mare nr. 18,Rădăuți,47.8428,25.9125
103,35,SUCEAVA,MUNICIPIUL RĂDĂUŢI,244,64,128,30,1,46,15,63,253,66,120,45,1,40,15,52,Colegiul Tehnic,Str. Tudor Vladimirescu nr. 12,Rădăuți,47.8392,25.9162
104,35,SUCEAVA,MUNICIPIUL RĂDĂUŢI,286,41,130,28,0,58,18,52,296,48,133,36,0,43,12,41,Colegiul Eudoxiu Hurmuzachi,Str. Calea Bucovinei (Str. V. I. Lenin) nr. 7,Rădăuți,47.8416,25.9237
105,35,SUCEAVA,MUNICIPIUL RĂDĂUŢI,313,38,94,38,1,50,18,68,328,47,83,54,0,45,18,47,Școala Gimnazială nr. 5 Bogdan Voda,Str. Eudoxiu Hurmuzachi nr. 7,Rădăuți,47.8428,25.9232
106,35,SUCEAVA,MUNICIPIUL RĂDĂUŢI,223,42,186,29,1,58,20,56,227,46,175,42,1,54,19,54,Grădinița nr. 8,Str. Mihai Viteazul (Str. Mihai Viteazu) (D) nr. 52,Rădăuți,47.834,25.9158
107,35,SUCEAVA,MUNICIPIUL RĂDĂUŢI,234,54,130,37,1,48,13,76,241,57,123,68,2,34,16,54,Caminul de Persoane Varstnice,Str. Volovățului nr. 50,Rădăuți,47.8397,25.9133
108,35,SUCEAVA,MUNICIPIUL RĂDĂUŢI,286,54,169,31,0,42,20,76,310,61,157,39,0,34,20,61,Policlinica,Str. Calea Bucovinei (Str. V. I. Lenin) nr. 37,Rădăuți,47.8382,25.9262
109,35,SUCEAVA,MUNICIPIUL RĂDĂUŢI,253,32,134,32,0,61,23,65,259,37,131,42,1,54,24,52,Școala Gimnazială nr. 3 Mihai Eminescu,Str. Iancu Flondor (Str. Iancu Cavaler de Flondor) nr. 3,Rădăuți,47.8384,25.9225
110,35,SUCEAVA,MUNICIPIUL RĂDĂUŢI,272,37,154,32,0,64,18,65,279,44,158,37,1,53,13,48,Cresa Hipodrom,Str. Mihai Viteazul (Str. Mihai Viteazu) (D) nr. 3,Rădăuți,47.8359,25.9253
111,35,SUCEAVA,MUNICIPIUL RĂDĂUŢI,227,40,167,35,1,41,10,65,229,37,164,51,1,42,15,51,Școala Gimnazială nr. 2,Str. Horea (Str. Horia) nr. 44,Rădăuți,47.85,25.9082
112,35,SUCEAVA,MUNICIPIUL RĂDĂUŢI,167,14,89,45,3,24,20,50,159,19,81,57,2,21,21,49,Școala Gimnazială Gheorghe Popadiuc nr. 1,Str. Dobrogeanu Gherea (Str. Constantin Dobrogeanu Gherea) nr. 12,Rădăuți,47.8492,25.925
113,35,SUCEAVA,MUNICIPIUL RĂDĂUŢI,252,26,119,40,2,55,10,53,247,29,116,67,1,49,19,41,Grădinița cu Program Prelungit Pinochio,Str. Dimitrie Dan (Str. Speranței) nr. 8A,Rădăuți,47.8485,25.9154
438,35,SUCEAVA,RĂDĂŞENI,88,4,182,3,0,5,3,24,92,5,184,5,1,4,4,18,Primăria Comunei Rădășeni,Str. Principală nr. 29,Rădășeni,47.4664,26.2519
439,35,SUCEAVA,RĂDĂŞENI,121,17,183,4,0,15,4,40,124,16,185,9,0,14,6,37,Primăria Comunei Rădășeni,Str. Principală nr. 29,Rădășeni,47.4664,26.2519
448,35,SUCEAVA,SADOVA,130,16,191,21,2,13,6,49,123,15,203,31,4,16,12,28,Căminul Cultural Sadova,,Sadova,47.5499,25.4963
449,35,SUCEAVA,SADOVA,144,11,143,12,1,21,7,48,144,13,151,23,3,20,6,24,Școala Generală Fundu Sadovei,,Sadova,47.5654,25.4756
174,35,SUCEAVA,ORAŞ SALCEA,175,8,73,8,1,25,4,27,166,11,73,11,1,21,12,32,Căminul Cultural Salcea,Str. Victoriei,Salcea,47.649,26.3719
175,35,SUCEAVA,ORAŞ SALCEA,247,18,109,18,1,30,5,35,246,18,116,20,2,36,3,22,Căminul Cultural Salcea,Str. Victoriei,Salcea,47.649,26.3719
265,35,SUCEAVA,CORNU LUNCII,213,9,15,1,0,6,4,14,220,8,15,2,0,5,5,10,Școala Sasca Mare,,Sasca Mare,47.4337,26.1422
263,35,SUCEAVA,CORNU LUNCII,168,7,19,6,1,9,7,27,162,6,20,8,1,8,7,28,Școala Primară Sasca Mica,,Sasca Mică,47.4385,26.1752
262,35,SUCEAVA,CORNU LUNCII,52,1,32,2,0,4,4,14,55,2,31,1,0,4,2,9,Școala Sasca Noua,,Sasca Nouă,47.4594,26.1883
450,35,SUCEAVA,SATU MARE,120,9,91,16,0,54,2,10,117,8,98,17,0,54,1,9,Camin Cultural,,Satu Mare,47.8321,26.0015
451,35,SUCEAVA,SATU MARE,143,2,84,15,0,26,2,15,141,3,88,17,0,23,2,16,Școala Gimnazială Satu Mare,,Satu Mare,47.8301,26.0005
478,35,SUCEAVA,ŞCHEIA,228,74,179,34,1,56,16,113,244,81,193,32,3,57,23,78,Camin Cultural,Str. Mănăstirii,Sfântu Ilie,47.636,26.2102
479,35,SUCEAVA,ŞCHEIA,217,33,118,21,3,25,16,70,228,34,119,23,3,31,12,45,Camin Cultural,Str. Mănăstirii,Sfântu Ilie,47.636,26.2102
170,35,SUCEAVA,ORAŞ LITENI,77,0,70,7,0,1,4,10,74,1,77,8,0,3,2,5,Școala Gimnazială Siliștea,,Siliștea,47.529,26.4831
146,35,SUCEAVA,ORAŞ DOLHASCA,145,1,61,5,0,8,1,6,146,1,62,7,0,5,1,7,Școala Primară Siliștea,,Siliștea Nouă,47.4498,26.6349
453,35,SUCEAVA,SIMINICEA,235,7,96,6,1,17,15,42,218,7,94,11,1,18,20,45,Căminul Cultural Siminicea,,Siminicea,47.6976,26.4014
454,35,SUCEAVA,SIMINICEA,219,3,52,6,1,7,8,23,208,6,54,6,0,7,10,25,Școala Gimnazială Siminicea,,Siminicea,47.7014,26.3988
180,35,SUCEAVA,ORAŞ SIRET,245,9,159,5,2,32,13,57,254,10,168,5,2,33,16,39,Centrul Cultural „Mihai Teliman”,Str. Lațcu Vodă (Str. 8 Mai),Siret,47.9506,26.0647
181,35,SUCEAVA,ORAŞ SIRET,225,16,186,11,2,25,4,45,242,17,187,13,3,27,8,26,Colegiul Latcu Voda,Str. Lațcu Vodă (Str. 8 Mai) nr. 7,Siret,47.9499,26.0646
182,35,SUCEAVA,ORAŞ SIRET,212,20,116,8,1,37,3,24,213,19,116,7,2,37,7,20,Școala Gimnazială Petru Mușat Grădinița,Str. Mihai Teliman (Str. Zorilor) nr. 16A,Siret,47.9498,26.0615
183,35,SUCEAVA,ORAŞ SIRET,108,10,69,4,2,21,12,34,110,8,75,4,3,23,9,23,Colegiul Lațcu Vodă Școala Profesională,Str. 28 Noiembrie (Str. Arcașilor) nr. 43,Siret,47.9509,26.0564
184,35,SUCEAVA,ORAŞ SIRET,181,23,149,7,2,15,8,34,196,19,153,8,2,12,8,19,Școala Gimnazială Petru Mușat Corp Ii,Str. Alexandru cel Bun nr. 25,Siret,47.9522,26.0676
185,35,SUCEAVA,ORAŞ SIRET,175,9,210,9,2,23,13,46,189,6,215,13,5,23,11,28,Școala Gimnazială Petru Mușat Corp I,Str. Simion Florea Marian (Aleea Trandafirilor) nr. 2,Siret,47.9504,26.068
186,35,SUCEAVA,ORAŞ SIRET,121,1,44,4,1,2,0,4,118,1,46,3,2,4,1,2,Școala Gimnazială Pădureni,Str. Moldovei (Str. 30 Decembrie) nr. 18,Siret,47.9503,26.1026
187,35,SUCEAVA,ORAŞ SIRET,100,0,66,1,2,8,0,11,96,0,73,3,2,8,3,7,Școala Gimnazială Manastioara,Str. Ștefan Petriceicu Vodă (Str. Livezilor) (D) nr. 23,Siret,47.9411,26.0331
456,35,SUCEAVA,SLATINA,374,3,88,13,2,6,8,19,378,4,78,24,2,10,5,12,Primăria Comunei Slatina,,Slatina,47.4434,25.9927
302,35,SUCEAVA,FÎNTÎNELE,45,0,17,5,0,2,2,8,49,0,19,5,0,2,1,4,Școala din Satul Slobozia,,Slobozia,47.5671,26.5533
555,35,SUCEAVA,ZVORIŞTEA,85,4,25,3,2,6,3,15,91,2,28,5,3,5,2,9,Școala Generală Slobozia,,Slobozia,47.7932,26.32
341,35,SUCEAVA,GRĂNICEŞTI,60,4,40,8,0,6,4,20,61,4,40,8,0,6,5,19,Școala Primară Slobozia Sucevei,,Slobozia Sucevei,47.7629,26.0468
447,35,SUCEAVA,RÎŞCA,150,4,40,0,1,28,6,16,142,3,45,2,1,35,4,16,Școala Slătioara,,Slătioara,47.3786,26.1157
471,35,SUCEAVA,STULPICANI,126,0,51,5,0,5,5,15,126,3,54,6,0,5,5,10,Căminul Cultural Slătioara,,Slătioara,47.4611,25.6602
188,35,SUCEAVA,ORAŞ SOLCA,196,5,114,17,2,13,10,19,196,5,112,16,2,15,11,19,Primăria Orașului Solca,Str. Tomșa Vodă (Str. 7 Noiembrie) nr. 8A,Solca,47.6988,25.8291
189,35,SUCEAVA,ORAŞ SOLCA,196,10,105,14,3,8,17,38,204,9,109,14,2,6,17,36,Liceul Tehnologic Tomșa Vodă Solca,Str. Tomșa Vodă (Str. 7 Noiembrie) nr. 33,Solca,47.7014,25.8348
489,35,SUCEAVA,TODIREŞTI,150,11,156,13,1,32,3,21,159,8,158,11,1,32,5,17,Școala Gimnazială „I.V.Rachieru” Soloneț,Nr. 99,Soloneț,47.6864,26.0305
246,35,SUCEAVA,CACICA,36,1,28,5,1,5,5,231,108,7,161,13,1,7,14,27,Școala Solonețu Nou,,Solonețu Nou,47.6577,25.8529
300,35,SUCEAVA,FÂNTÂNA MARE,101,4,24,8,0,5,7,19,98,4,24,10,0,7,6,15,Școala cu Clasele I-IV Spătărești,Str. Matei Millo nr. 86,Spătărești,47.4294,26.3051
304,35,SUCEAVA,FÎNTÎNELE,197,4,126,34,0,13,30,45,198,3,129,33,0,12,26,35,Căminul Cultural Stamate,,Stamate,47.6032,26.5143
459,35,SUCEAVA,STRAJA,213,11,184,8,0,4,8,25,215,6,191,8,0,4,9,19,Grădinița de Copii nr. 1 Straja,,Straja,47.9192,25.5683
460,35,SUCEAVA,STRAJA,193,3,169,9,0,6,4,21,190,3,166,11,1,6,2,17,Grădinița de Copii nr. 3 Straja,,Straja,47.9174,25.5479
461,35,SUCEAVA,STRAJA,176,5,143,11,0,6,1,12,175,3,147,16,0,4,2,9,Primăria Comunei Straja,,Straja,47.9173,25.5449
462,35,SUCEAVA,STRAJA,125,7,102,28,0,3,2,16,127,8,106,29,0,3,3,16,Grădinița de Copii nr. 2 Straja,,Straja,47.9132,25.5155
463,35,SUCEAVA,STROIEŞTI,271,13,84,18,0,41,2,21,271,8,89,20,0,47,3,12,Caminul Cultural Stroiesti,,Stroiești,47.6169,26.1281
464,35,SUCEAVA,STROIEŞTI,196,10,62,7,1,13,4,16,198,10,66,8,0,14,2,12,Caminul Cultural Stroiesti,,Stroiești,47.6169,26.1281
514,35,SUCEAVA,VAMA,101,17,153,15,1,18,13,54,104,17,163,24,2,18,12,30,Școala Gimnazială „Iorgu G. Toma” Localul din Satul Strâmtura,Str. Petru Rareș nr. 81,Strâmtura,47.5805,25.6802
466,35,SUCEAVA,STULPICANI,222,2,69,12,0,5,20,35,225,3,72,12,0,8,21,30,Caminul Cultural Stulpicani,,Stulpicani,47.4577,25.7631
467,35,SUCEAVA,STULPICANI,288,6,54,3,0,9,17,39,295,9,59,6,1,8,13,29,Grădinița cu Program Normal Stulpicani,,Stulpicani,47.4585,25.7629
551,35,SUCEAVA,ZVORIŞTEA,131,2,31,1,2,9,1,7,133,2,30,0,2,5,0,8,Școala Generală Stînca,,Stânca,47.8239,26.2814
552,35,SUCEAVA,ZVORIŞTEA,56,0,3,2,1,1,1,4,60,0,2,1,1,1,2,3,Școala Generală Stîncuța,,Stâncuța,47.8088,26.2714
1,35,SUCEAVA,MUNICIPIUL SUCEAVA,296,92,183,42,3,70,38,134,324,94,187,46,3,60,36,99,Primăria Municipiului Suceava,Bulevardul 1 Mai nr. 5A,Suceava,47.6402,26.2478
2,35,SUCEAVA,MUNICIPIUL SUCEAVA,310,93,217,47,1,74,26,127,333,110,220,48,1,63,32,98,Colegiul Național „Petru Rareș” Sala A,Str. Mihai Viteazul nr. 24,Suceava,47.6428,26.2527
3,35,SUCEAVA,MUNICIPIUL SUCEAVA,346,78,151,48,0,76,18,83,348,87,159,45,1,82,19,61,Colegiul Național „Petru Rareș” Sala B,Str. Mihai Viteazul nr. 24,Suceava,47.6428,26.2527
4,35,SUCEAVA,MUNICIPIUL SUCEAVA,223,102,193,45,1,54,10,111,229,118,211,41,1,67,13,59,Colegiul Național „Ștefan Cel Mare”,Str. Vasile Alecsandri nr. 3,Suceava,47.6466,26.2574
5,35,SUCEAVA,MUNICIPIUL SUCEAVA,336,86,158,38,0,59,15,116,362,91,167,38,0,51,12,85,Centrul Cultural Bucovina,Str. Vasile Alecsandri nr. 1,Suceava,47.645,26.2588
6,35,SUCEAVA,MUNICIPIUL SUCEAVA,244,67,114,33,0,37,19,100,255,83,122,32,0,49,25,56,Școala Gimnazială nr. 1,Str. Tudor Vladimirescu nr. 5,Suceava,47.6404,26.2606
7,35,SUCEAVA,MUNICIPIUL SUCEAVA,211,69,128,41,1,64,16,94,233,75,139,39,1,58,18,62,Colegiul Tehnic „Samuil Isopescu”,Str. Samoil Isopescu nr. 19,Suceava,47.6388,26.2606
8,35,SUCEAVA,MUNICIPIUL SUCEAVA,151,48,69,27,0,31,7,57,151,57,71,24,0,32,10,45,Colegiul de Artă „Ciprian Porumbescu” Sala A,Str. Petru Rareș nr. 8,Suceava,47.6468,26.2629
9,35,SUCEAVA,MUNICIPIUL SUCEAVA,178,40,116,41,0,40,11,91,192,45,129,47,0,39,15,58,Colegiul de Artă „Ciprian Porumbescu” Sala B,Str. Petru Rareș nr. 8,Suceava,47.6468,26.2629
10,35,SUCEAVA,MUNICIPIUL SUCEAVA,186,51,124,33,0,47,19,77,205,62,125,30,0,51,19,43,Școala Gimnazială nr. 3 Sala A,Str. Mărășești nr. 38,Suceava,47.6453,26.2503
11,35,SUCEAVA,MUNICIPIUL SUCEAVA,232,74,98,32,0,56,9,89,257,81,107,27,3,49,12,55,Școala Gimnazială nr. 3 Sala B,Str. Mărășești nr. 38,Suceava,47.6453,26.2503
12,35,SUCEAVA,MUNICIPIUL SUCEAVA,197,73,100,24,0,56,15,56,209,68,116,25,0,45,18,43,Colegiul Economic „Dimitrie Cantemir”,Str. prof. Leca Morariu (Aleea Mărășești) nr. 17A,Suceava,47.645,26.2457
13,35,SUCEAVA,MUNICIPIUL SUCEAVA,249,58,125,31,2,65,21,95,259,70,129,31,3,68,23,67,Centrul Pentru Susținerea Tradițiilor Bucovinene,Str. Universității (Bulevardul Universității) nr. 48A,Suceava,47.6439,26.2449
14,35,SUCEAVA,MUNICIPIUL SUCEAVA,192,60,123,32,0,43,8,60,206,63,124,32,1,40,7,46,Universitatea „Ștefan Cel Mare”,Str. Universității (Bulevardul Universității) nr. 13,Suceava,47.6409,26.245
15,35,SUCEAVA,MUNICIPIUL SUCEAVA,275,51,142,18,3,49,11,62,280,51,151,21,2,48,10,47,Direcția Silvică Suceava,Bulevardul 1 Mai nr. 6,Suceava,47.6397,26.2447
16,35,SUCEAVA,MUNICIPIUL SUCEAVA,256,38,126,36,0,43,15,75,260,42,135,38,0,41,15,51,"Colegiul Național de Informatică „Spiru Haret”, Sala A",Str. Zorilor nr. 17,Suceava,47.6401,26.2386
17,35,SUCEAVA,MUNICIPIUL SUCEAVA,265,40,113,21,1,37,12,54,265,36,121,22,2,39,13,40,"Colegiul Național de Informatică „Spiru Haret”, Sala B",Str. Zorilor nr. 17,Suceava,47.6401,26.2386
18,35,SUCEAVA,MUNICIPIUL SUCEAVA,290,53,131,24,0,54,17,70,296,58,144,28,1,49,14,43,Grădinița cu Program Prelungit nr. 7 „Abc”,Str. Zorilor nr. 10A,Suceava,47.641,26.2379
19,35,SUCEAVA,MUNICIPIUL SUCEAVA,320,48,155,35,0,57,14,74,329,56,162,31,2,52,16,50,Școala Gimnazială nr. 4 Sala A,Str. Zorilor nr. 10,Suceava,47.6412,26.2389
20,35,SUCEAVA,MUNICIPIUL SUCEAVA,268,46,133,28,0,48,12,66,287,57,128,33,0,43,16,44,"Școala Gimnazială nr. 4, Sala B",Str. Zorilor nr. 10,Suceava,47.6412,26.2389
21,35,SUCEAVA,MUNICIPIUL SUCEAVA,327,83,173,30,1,40,21,109,332,88,181,29,1,54,26,77,Școala Gimnazială nr. 8,Aleea Jupiter nr. 12,Suceava,47.643,26.2354
22,35,SUCEAVA,MUNICIPIUL SUCEAVA,330,66,182,34,1,42,18,84,349,62,188,34,1,47,17,54,Gradinița cu Program Normal nr. 5,Aleea Jupiter nr. 16,Suceava,47.6427,26.2347
23,35,SUCEAVA,MUNICIPIUL SUCEAVA,252,55,132,29,1,39,12,69,265,58,140,25,2,38,11,50,Gradinița cu Program Prelungit nr. 1 „Guliver”,Aleea Lalelelor nr. 10A,Suceava,47.6423,26.2349
24,35,SUCEAVA,MUNICIPIUL SUCEAVA,288,65,147,25,1,49,12,73,296,62,151,23,1,64,13,50,Liceul cu Program Sportiv Sala A,Bulevardul George Enescu nr. 26A,Suceava,47.6464,26.2407
25,35,SUCEAVA,MUNICIPIUL SUCEAVA,322,61,141,23,0,50,21,84,321,66,159,23,3,51,23,66,Liceul cu Program Sportiv Sala B,Bulevardul George Enescu nr. 26A,Suceava,47.6464,26.2407
26,35,SUCEAVA,MUNICIPIUL SUCEAVA,221,53,141,38,3,43,25,86,234,66,150,33,3,38,22,57,Colegiul Național „Mihai Eminescu” Sala A,Str. Mărășești nr. 57,Suceava,47.6491,26.2499
27,35,SUCEAVA,MUNICIPIUL SUCEAVA,308,77,191,57,2,79,23,125,337,80,213,52,2,79,21,76,Colegiul Național „Mihai Eminescu” Sala B,Str. Mărășești nr. 57,Suceava,47.6491,26.2499
28,35,SUCEAVA,MUNICIPIUL SUCEAVA,307,66,196,33,0,63,24,87,312,67,207,34,0,64,23,69,Colegiul Național „Mihai Eminescu” Sala C,Str. Mărășești nr. 57,Suceava,47.6491,26.2499
29,35,SUCEAVA,MUNICIPIUL SUCEAVA,315,74,183,38,1,80,13,87,329,74,184,42,1,79,14,66,"Colegiul Tehnic de Industrie Alimentară, Sala A",Str. Dimitrie Cantemir nr. 5,Suceava,47.6482,26.2438
30,35,SUCEAVA,MUNICIPIUL SUCEAVA,296,89,174,43,0,84,17,92,313,93,176,46,1,84,21,61,"Colegiul Tehnic de Industrie Alimentară, Sala B",Str. Dimitrie Cantemir nr. 5,Suceava,47.6482,26.2438
31,35,SUCEAVA,MUNICIPIUL SUCEAVA,102,41,57,10,1,42,14,57,102,45,67,11,1,39,18,44,Grădinița cu Program Prelungit nr. 3 „Dumbrava Minunată”,Str. Constantin Dobrogeanu Gherea nr. 35,Suceava,47.6488,26.2549
32,35,SUCEAVA,MUNICIPIUL SUCEAVA,71,12,79,10,1,27,11,36,77,12,85,9,1,31,12,23,Colegiul Tehnic „Petru Mușat”,Calea Unirii nr. 15,Suceava,47.6541,26.2594
33,35,SUCEAVA,MUNICIPIUL SUCEAVA,252,67,210,28,0,49,19,94,265,80,218,23,0,56,20,65,S.C. Romtelecom S.A.,Str. Bistriței nr. 11B,Suceava,47.6381,26.2308
34,35,SUCEAVA,MUNICIPIUL SUCEAVA,266,87,144,35,1,55,15,90,274,89,147,36,1,53,24,79,Inspectoratul Teritorial de Muncă,Str. Bistriței nr. 11,Suceava,47.6378,26.2313
35,35,SUCEAVA,MUNICIPIUL SUCEAVA,280,91,188,37,2,75,19,116,312,104,185,41,2,60,22,78,Agenția Pentru Protecția Mediului,Str. Bistriței nr. 1A,Suceava,47.6359,26.2332
36,35,SUCEAVA,MUNICIPIUL SUCEAVA,243,93,182,39,2,82,18,115,262,98,180,48,3,75,24,84,Școala Gimnazialăală nr. 9 „Ion Creangă” Sala A,Bulevardul Prefect Gavril Tudoraș (Str. Dornelor) nr. 13,Suceava,47.6354,26.2321
37,35,SUCEAVA,MUNICIPIUL SUCEAVA,261,82,189,54,1,61,20,103,284,84,195,51,2,57,21,72,Școala Gimnazialăală nr. 9 „Ion Creangă” Sala B,Bulevardul Prefect Gavril Tudoraș (Str. Dornelor) nr. 13,Suceava,47.6354,26.2321
38,35,SUCEAVA,MUNICIPIUL SUCEAVA,203,91,195,41,1,50,17,63,217,100,197,38,2,50,20,47,"Școala Gimnazialăală nr. 9 „Ion Creangă”, Sala C",Bulevardul Prefect Gavril Tudoraș (Str. Dornelor) nr. 13,Suceava,47.6354,26.2321
39,35,SUCEAVA,MUNICIPIUL SUCEAVA,256,93,186,44,1,78,18,113,274,90,209,49,2,71,20,78,"Școala Gimnazială nr. 9 „Ion Creanga”, Sala D",Bulevardul Prefect Gavril Tudoraș (Str. Dornelor) nr. 13,Suceava,47.6354,26.2321
40,35,SUCEAVA,MUNICIPIUL SUCEAVA,177,26,119,24,2,27,14,45,183,32,120,28,1,25,12,35,Grădinița cu Program Normal nr. 9 „Norocel” Sala A,Str. Jean Bart nr. 14,Suceava,47.6719,26.2669
41,35,SUCEAVA,MUNICIPIUL SUCEAVA,144,44,158,24,0,25,9,51,157,49,149,26,0,32,11,34,Grădinița cu Program Normal nr. 9 „Norocel” Sala B,Str. Jean Bart nr. 14,Suceava,47.6719,26.2669
42,35,SUCEAVA,MUNICIPIUL SUCEAVA,167,15,91,20,1,33,10,49,172,16,96,21,1,29,13,39,Atelier Zonă C.F.R.,Str. Nicolae Iorga nr. 9,Suceava,47.6717,26.2643
43,35,SUCEAVA,MUNICIPIUL SUCEAVA,163,16,109,16,3,22,11,43,165,12,114,19,3,22,10,40,Gara Burdujeni,Str. Nicolae Iorga nr. 7,Suceava,47.6707,26.2659
44,35,SUCEAVA,MUNICIPIUL SUCEAVA,303,58,171,41,1,31,13,62,315,58,167,41,1,28,17,52,"Școala Gimnazială nr. 10, Sala A",Str. Baladei nr. 6,Suceava,47.6726,26.2762
45,35,SUCEAVA,MUNICIPIUL SUCEAVA,293,43,207,31,0,41,22,75,287,43,214,30,0,45,22,72,"Școala Gimnazială nr. 10, Sala B",Str. Baladei nr. 6,Suceava,47.6726,26.2762
46,35,SUCEAVA,MUNICIPIUL SUCEAVA,235,42,179,35,2,37,18,68,253,45,173,40,1,42,17,48,"Colegiul Tehnic „A.I.Cuza” Sala A, Calea Unirii nr. 49",Calea Unirii nr. 49,Suceava,47.6731,26.2806
47,35,SUCEAVA,MUNICIPIUL SUCEAVA,251,41,156,34,0,29,12,51,263,45,152,34,1,29,14,41,"Colegiul Tehnic „A.I.Cuza” Sala B, Calea Unirii nr. 49",Calea Unirii nr. 49,Suceava,47.6731,26.2806
48,35,SUCEAVA,MUNICIPIUL SUCEAVA,181,30,133,24,0,31,16,49,190,29,129,23,1,34,19,45,Colegiul Tehnic „Al. I. Cuza” Sala C,Calea Unirii nr. 49,Suceava,47.6731,26.2806
49,35,SUCEAVA,MUNICIPIUL SUCEAVA,234,52,126,30,2,42,16,72,238,60,131,37,1,36,15,50,Școala Gimnazială nr. 5 „Jean Bart”,Calea Unirii nr. 53,Suceava,47.6737,26.2816
50,35,SUCEAVA,MUNICIPIUL SUCEAVA,228,45,204,31,1,55,18,81,236,46,205,37,1,60,17,54,"Centrul Școlar Pentru Educație Incluzivă Suceava, Corp A",Calea Unirii nr. 82,Suceava,47.6723,26.2823
51,35,SUCEAVA,MUNICIPIUL SUCEAVA,217,40,140,28,0,24,13,47,220,41,137,37,1,24,10,39,Centrul Școlar Pentru Educație Incluzivă Suceava- Corp B,Calea Unirii nr. 82,Suceava,47.6723,26.2823
52,35,SUCEAVA,MUNICIPIUL SUCEAVA,219,40,177,31,0,44,22,79,228,45,182,31,1,40,20,61,Grădinița cu Program Normal nr. 12 „Țăndărică”,Str. Muncii nr. 4,Suceava,47.6691,26.2814
53,35,SUCEAVA,MUNICIPIUL SUCEAVA,253,42,158,33,1,30,9,61,258,43,151,32,1,31,14,55,"Școala Gimnazială nr. 11, „Miron Costin”, Sala A",Str. Păcii nr. 8,Suceava,47.6681,26.282
54,35,SUCEAVA,MUNICIPIUL SUCEAVA,226,36,162,22,0,35,16,57,234,38,160,28,0,35,14,40,"Școala Gimnazială nr. 11, „Miron Costin”, Sala B",Str. Păcii nr. 8,Suceava,47.6681,26.282
55,35,SUCEAVA,MUNICIPIUL SUCEAVA,241,48,186,53,0,34,21,76,255,45,183,49,1,36,20,71,"Școala Gimnazială nr. 11, „Miron Costin”, Sala C",Str. Păcii nr. 8,Suceava,47.6681,26.282
56,35,SUCEAVA,MUNICIPIUL SUCEAVA,210,45,163,28,1,48,15,59,222,44,164,29,0,42,18,49,"Școala Gimnazială nr. 11, „Miron Costin”, Sala D",Str. Păcii nr. 8,Suceava,47.6681,26.282
57,35,SUCEAVA,MUNICIPIUL SUCEAVA,188,32,123,19,1,31,18,55,191,35,133,18,1,32,16,41,"Școala Gimnazială nr. 11 „Miron Costin”, Sala E",Str. Păcii nr. 8,Suceava,47.6681,26.282
58,35,SUCEAVA,MUNICIPIUL SUCEAVA,166,36,126,18,1,28,3,33,168,37,128,18,1,24,3,28,Primăria Burdujeni,Str. 22 Decembrie (Str. 23 August) nr. 2,Suceava,47.6756,26.2849
59,35,SUCEAVA,MUNICIPIUL SUCEAVA,155,10,99,27,1,19,13,43,163,9,94,30,1,24,15,38,"Școala Gimnazială nr. 6, Sala A",Str. 22 Decembrie (Str. 23 August) nr. 189,Suceava,47.6854,26.2903
60,35,SUCEAVA,MUNICIPIUL SUCEAVA,140,11,118,26,1,13,12,51,137,16,113,28,2,17,8,43,Școala Gimnazială nr. 6 Sala B,Str. 22 Decembrie (Str. 23 August) nr. 189,Suceava,47.6854,26.2903
61,35,SUCEAVA,MUNICIPIUL SUCEAVA,278,19,105,16,1,28,10,50,268,19,105,27,1,34,12,40,Grădinița cu Program Normal nr. 7,Str. Gării nr. 8,Suceava,47.6756,26.2354
62,35,SUCEAVA,MUNICIPIUL SUCEAVA,204,25,199,13,1,21,12,51,207,23,206,12,2,23,14,39,Grădinița cu Program Normal nr. 8,Str. Grigore Alex. Ghica nr. 73,Suceava,47.6832,26.2326
63,35,SUCEAVA,MUNICIPIUL SUCEAVA,260,49,165,48,2,44,9,61,276,55,165,54,2,33,6,48,Școala Generală nr. 7 „Grigore Ghica Voievod”,Str. Epaminonda Bucevschi nr. 5,Suceava,47.6773,26.2452
472,35,SUCEAVA,SUCEVIŢA,184,14,159,19,0,27,10,58,189,15,154,18,1,26,12,55,Școala Gimnazială Dimitrie Vatamaniuc,,Sucevița,47.7797,25.7192
226,35,SUCEAVA,BOROAIA,134,2,10,1,1,1,3,12,135,3,12,2,2,1,4,10,Școala Primară Săcuța,,Săcuța,47.322,26.2971
296,35,SUCEAVA,DUMBRĂVENI,75,10,7,2,1,4,5,15,79,10,7,3,2,2,5,14,Școala Salageni,Nr. 53,Sălăgeni,47.675,26.395
477,35,SUCEAVA,ŞARU DORNEI,72,3,36,63,0,2,5,17,84,2,44,46,0,5,3,14,Școala cu Clasele I-IV Sarisoru Mare,,Sărișoru Mare,47.27,25.3308
367,35,SUCEAVA,IPOTEŞTI,129,20,95,17,1,46,8,48,139,23,101,15,1,32,9,46,Școala Primară Tișăuți,Nr. 108,Tișăuți,47.6256,26.3122
486,35,SUCEAVA,TODIREŞTI,337,4,96,13,6,12,6,31,326,5,107,15,7,7,7,20,Școala Gimnazială Todirești,Nr. 173,Todirești,47.7036,26.0622
547,35,SUCEAVA,ZAMOSTEA,57,0,13,0,1,6,4,13,58,1,15,0,1,8,5,10,Școala Primară Tăutești,,Tăutești,47.8471,26.2243
490,35,SUCEAVA,UDEŞTI,387,15,127,37,1,50,9,33,384,13,127,46,1,39,10,35,Primăria Comunei Udești,,Udești,47.5763,26.4103
314,35,SUCEAVA,FORĂŞTI,60,0,9,1,0,1,1,4,58,1,6,1,0,1,1,5,Școala Primară Uidesti,,Uidești,47.3781,26.467
499,35,SUCEAVA,ULMA,38,1,45,11,1,4,4,11,41,1,45,11,1,4,5,11,Școala Gimnazială Ulma,,Ulma,47.8866,25.2945
242,35,SUCEAVA,BUNEŞTI,78,1,78,0,2,6,16,23,79,2,76,0,2,5,16,25,Școala Uncesti,,Uncești,47.5291,26.3251
502,35,SUCEAVA,VADU MOLDOVEI,221,5,92,10,0,35,5,31,221,5,90,11,0,37,8,28,Școala Gimnazială nr. 1 Vadu Moldovei,,Vadu Moldovei,47.3775,26.3685
509,35,SUCEAVA,VADU MOLDOVEI,93,1,24,3,0,12,0,4,94,0,23,3,0,13,1,5,Școala Gimnazială nr. 2 Vadu Moldovei,,Vadu Moldovei,47.3881,26.3387
469,35,SUCEAVA,STULPICANI,84,1,29,1,0,8,7,16,81,3,29,1,0,10,9,17,Școala Primară Vadu Negrilesei,,Vadu Negrilesei,47.3886,25.8365
278,35,SUCEAVA,DOLHEŞTI,219,2,24,9,1,9,3,11,226,2,24,8,0,8,4,12,Școala Primară Valea Bourei,,Valea Bourei,47.4244,26.5049
537,35,SUCEAVA,VULTUREŞTI,167,0,51,13,4,9,5,15,169,2,55,19,5,9,4,9,Școala Gimnazială Valea Glodului,Nr. 152,Valea Glodului,47.513,26.4504
510,35,SUCEAVA,VALEA MOLDOVEI,330,1,193,9,1,17,12,28,324,3,189,12,0,17,14,27,"Primăria Comunei Valea Moldovei, Județul Suceava",,Valea Moldovei,47.4723,26.0251
148,35,SUCEAVA,ORAŞ DOLHASCA,54,3,95,5,0,9,3,10,55,2,91,5,0,12,2,9,Școala Primară Valea Poienii,,Valea Poienei,47.4164,26.5698
428,35,SUCEAVA,POJORÎTA,28,3,40,11,0,5,2,13,26,4,39,15,0,6,4,11,Căminul Cultural Valea Putnei,,Valea Putnei,47.4847,25.3757
512,35,SUCEAVA,VAMA,113,30,94,22,0,18,8,47,112,30,104,26,0,18,7,34,Cămin Cultural Vama,Str. Victoriei nr. 79,Vama,47.5656,25.6892
513,35,SUCEAVA,VAMA,202,18,154,24,2,75,9,84,212,28,167,34,1,79,5,33,Școala Gimnazială „Iorgu G. Toma” Localul nr. 2,Str. Victoriei nr. 38,Vama,47.5627,25.6875
114,35,SUCEAVA,MUNICIPIUL VATRA DORNEI,257,45,132,52,1,19,24,71,265,51,133,49,3,25,28,50,Casa de Cultura „Platon Pardau”,Str. Gării nr. 2,Vatra Dornei,47.3467,25.3565
115,35,SUCEAVA,MUNICIPIUL VATRA DORNEI,216,26,101,42,1,25,13,50,232,27,101,35,1,29,10,36,Hotel Bradul,,Vatra Dornei,47.3434,25.354
116,35,SUCEAVA,MUNICIPIUL VATRA DORNEI,197,27,103,36,0,24,14,31,205,28,94,31,0,27,13,31,Hotel Intus,Str. Republicii nr. 5,Vatra Dornei,47.3446,25.3535
117,35,SUCEAVA,MUNICIPIUL VATRA DORNEI,174,28,136,37,1,30,12,45,176,37,136,33,1,35,11,37,Școala Gimnazială nr. 1,Str. Republicii (D) nr. 53,Vatra Dornei,47.3455,25.3484
118,35,SUCEAVA,MUNICIPIUL VATRA DORNEI,249,34,147,63,3,24,18,58,246,38,145,49,2,39,21,58,Școala Gimnazială nr. 1,,Vatra Dornei,47.3455,25.3484
119,35,SUCEAVA,MUNICIPIUL VATRA DORNEI,105,7,42,14,1,9,9,15,104,10,44,12,1,10,10,14,"Centrul de Primire, Asistare și Îngrijire a Persoanelor Vârstnice",Str. Roșu nr. 103,Vatra Dornei,47.3484,25.314
120,35,SUCEAVA,MUNICIPIUL VATRA DORNEI,170,15,84,28,0,9,20,34,174,13,83,25,0,14,19,32,Școala Gimnazială nr. 2,Str. Unirii nr. 52,Vatra Dornei,47.3422,25.3625
121,35,SUCEAVA,MUNICIPIUL VATRA DORNEI,250,21,100,49,0,27,18,48,260,22,98,37,1,36,15,37,Școala Gimnazială nr. 2,Nr. 52,Vatra Dornei,47.3422,25.3625
122,35,SUCEAVA,MUNICIPIUL VATRA DORNEI,256,31,112,35,4,36,9,33,263,33,104,31,4,39,9,27,Grădinița cu Program Prelungit nr. 3 „Scufița Roșie”,Str. Unirii nr. 35,Vatra Dornei,47.3433,25.3608
123,35,SUCEAVA,MUNICIPIUL VATRA DORNEI,187,12,81,37,1,18,20,41,189,15,79,30,2,23,16,39,Grădinița cu Program Normal nr. 5,Str. Azurului nr. 5,Vatra Dornei,47.3413,25.3657
124,35,SUCEAVA,MUNICIPIUL VATRA DORNEI,169,30,117,23,1,15,14,49,158,36,128,25,1,17,14,35,Școala Primară nr. 3,Str. Chiliei nr. 11 B,Vatra Dornei,47.3479,25.369
125,35,SUCEAVA,MUNICIPIUL VATRA DORNEI,187,15,65,30,1,27,13,35,185,15,70,25,1,28,10,28,Școala Primară nr. 3,Nr. 11 B,Vatra Dornei,47.3479,25.369
126,35,SUCEAVA,MUNICIPIUL VATRA DORNEI,141,23,113,22,0,16,14,49,145,25,117,23,0,14,12,42,Complex C.F.R. Gara Mare,Str. Podu Verde nr. 15,Vatra Dornei,47.3521,25.3588
127,35,SUCEAVA,MUNICIPIUL VATRA DORNEI,89,13,59,21,1,5,6,20,89,17,56,16,1,3,8,25,Școala Generală Argestru,Str. Argestru nr. f.nr.,Vatra Dornei,47.3815,25.3229
517,35,SUCEAVA,VATRA MOLDOVIŢEI,167,8,238,20,0,7,7,47,167,7,246,23,2,9,6,29,Căminul Cultural Vatra Moldoviței,,Vatra Moldoviței,47.649,25.5794
518,35,SUCEAVA,VATRA MOLDOVIŢEI,91,6,125,10,0,9,5,18,91,4,128,12,0,8,4,11,Școala Primară Valea Stânii,,Vatra Moldoviței,47.6406,25.5903
522,35,SUCEAVA,VEREŞTI,221,15,59,29,1,19,21,57,226,19,59,35,0,23,21,43,Caminul Cultural Veresti,,Verești,47.6055,26.4419
527,35,SUCEAVA,VICOVU DE JOS,250,24,65,18,0,11,7,20,253,24,60,18,0,11,6,25,Școala cu Clasele I-VIII Ioan Vicoveanu,,Vicovu de Jos,47.9037,25.7292
528,35,SUCEAVA,VICOVU DE JOS,235,9,47,27,0,6,5,26,235,9,48,29,0,6,5,22,Școala cu Clasele I-VIII nr. 2 Remezau,,Vicovu de Jos,47.89,25.7035
529,35,SUCEAVA,VICOVU DE JOS,182,8,31,6,0,8,2,14,181,7,30,7,0,8,2,10,Școala cu Clasele I-IV Margine,,Vicovu de Jos,47.9058,25.7593
530,35,SUCEAVA,VICOVU DE JOS,130,8,54,11,0,14,7,16,132,12,53,14,0,14,4,11,Grădinița „Pod Dabîca”,,Vicovu de Jos,47.9092,25.7093
190,35,SUCEAVA,ORAŞ VICOVU DE SUS,162,6,74,13,0,13,4,13,172,6,69,15,0,10,6,10,Căminul Cultural Vicovu de Sus-Est,Str. Calea Cernăuți nr. 58,Vicovu de Sus,47.9183,25.7023
191,35,SUCEAVA,ORAŞ VICOVU DE SUS,163,5,74,11,0,10,3,17,161,5,76,11,0,13,5,17,Grădinița cu Program Normal nr. 1-Est,Str. Calea Cernăuți nr. 155,Vicovu de Sus,47.9212,25.6864
192,35,SUCEAVA,ORAŞ VICOVU DE SUS,220,19,89,32,1,12,6,14,228,20,88,27,1,9,9,16,Liceul Tehhnologic „Ion Nistor” Vicovu de Sus-Corpul 4,Str. Calea Cernăuți nr. 297,Vicovu de Sus,47.9243,25.6664
193,35,SUCEAVA,ORAŞ VICOVU DE SUS,131,10,75,10,0,2,2,13,145,9,77,11,0,2,2,5,Școala Gimnazială nr. 3 Vicovu de Sus,Str. Calea Cernăuți nr. 564,Vicovu de Sus,47.9359,25.6387
194,35,SUCEAVA,ORAŞ VICOVU DE SUS,195,5,56,3,1,3,4,15,199,6,55,4,0,4,5,16,Școala Gimnazială nr. 2 Vicovu de Sus,Str. Calea Bucovinei nr. 250,Vicovu de Sus,47.9266,25.6205
195,35,SUCEAVA,ORAŞ VICOVU DE SUS,242,4,64,17,0,9,5,15,242,3,69,11,0,13,8,14,Școala Gimnazială nr. 2 Vicovu de Sus,Nr. 250,Vicovu de Sus,47.9266,25.6205
405,35,SUCEAVA,MUŞENIŢA,28,0,30,2,2,4,4,23,38,0,35,3,1,6,3,7,Clădirea „Dom Polski” Vicșani,,Vicșani,47.9374,25.9823
473,35,SUCEAVA,SUCEVIŢA,155,5,134,13,0,9,11,31,152,3,140,12,0,8,13,29,Căminul Cultural Voievodeasa,Str. Voievodului nr. 101,Voievodeasa,47.7981,25.7497
531,35,SUCEAVA,VOITINEL,551,1,42,12,0,4,1,14,569,1,40,8,1,2,0,13,Căminul Cultural Voitinel,Nr. 210,Voitinel,47.8829,25.753
532,35,SUCEAVA,VOITINEL,389,4,65,24,1,11,7,24,387,3,65,24,0,11,6,23,Școala cu Clasele I-VIII Voitinel,Nr. 219,Voitinel,47.8845,25.7591
533,35,SUCEAVA,VOLOVĂŢ,368,7,92,30,0,6,13,35,375,8,87,33,2,6,9,26,Căminul Cultural,,Volovăț,47.8064,25.8939
534,35,SUCEAVA,VOLOVĂŢ,396,4,110,28,0,7,6,18,389,5,113,32,0,7,4,19,Căminul Cultural,,Volovăț,47.8064,25.8939
535,35,SUCEAVA,VOLOVĂŢ,209,5,54,11,0,7,5,13,214,5,51,14,0,4,3,10,Primăria Comunei Volovăț,,Volovăț,47.8067,25.8942
396,35,SUCEAVA,MOARA,60,1,23,2,0,4,2,8,57,1,22,3,0,7,4,6,Școala Generală Vornicenii Mari,,Vornicenii Mari,47.558,26.1261
162,35,SUCEAVA,ORAŞ GURA HUMORULUI,109,8,165,2,1,9,6,35,107,7,171,2,1,11,5,24,Grădinița cu Program Normal Voronet,,Voroneț,47.5299,25.8636
422,35,SUCEAVA,PÎRTEŞTII DE JOS,29,2,23,5,1,7,1,10,32,2,22,6,1,5,1,10,Școala Vârfu Dealului,,Vârfu Dealului,47.6078,25.9381
381,35,SUCEAVA,MĂLINI,125,0,171,1,0,7,2,14,123,0,182,1,0,7,3,9,Școala Gimnazială Valeni-Stanisoara,Nr. 17,Văleni-Stânișoara,47.387,26.0005
178,35,SUCEAVA,ORAŞ SALCEA,229,10,101,14,1,19,5,30,232,13,95,17,1,18,9,31,Cămin Cultural Văratec,,Văratec,47.6395,26.4019
407,35,SUCEAVA,MUŞENIŢA,49,0,132,0,1,7,2,14,51,1,133,1,1,7,2,11,Căminul Cultural Vășcăuți,,Vășcăuți,47.9673,26.0243
465,35,SUCEAVA,STROIEŞTI,141,6,56,4,0,17,3,19,150,3,58,8,0,16,3,10,Școala cu Clasele I-IV „Ilie Gramada”,,Zaharești,47.591,26.1502
543,35,SUCEAVA,ZAMOSTEA,314,10,46,9,1,38,6,27,323,11,40,12,2,35,6,25,Căminul Cultural Zamostea,,Zamostea,47.866,26.2043
548,35,SUCEAVA,ZVORIŞTEA,178,4,71,14,6,8,7,22,186,5,72,15,6,11,7,15,Școala Generală Zvoriștea,,Zvoriștea,47.8354,26.2925
475,35,SUCEAVA,ŞARU DORNEI,166,14,90,48,1,8,13,31,172,15,95,41,1,10,13,27,Școala cu Clasele I-VIII Saru Dornei,,Șaru Dornei,47.2912,25.3684
481,35,SUCEAVA,ŞCHEIA,208,44,178,31,2,50,13,80,215,45,187,36,1,51,13,63,Primăria Comunei Șcheia,Str. Mihoveni,Șcheia,47.6562,26.229
482,35,SUCEAVA,ŞCHEIA,209,26,152,18,2,29,3,49,229,33,146,16,1,24,4,37,Primăria Comunei Șcheia,Str. Mihoveni,Șcheia,47.6562,26.229
554,35,SUCEAVA,ZVORIŞTEA,143,2,25,13,1,16,5,17,139,4,28,11,1,17,6,15,Școala Generală Șerbănești,,Șerbănești,47.8089,26.3168
484,35,SUCEAVA,ŞERBĂUŢI,164,6,221,18,3,23,8,23,158,9,220,19,3,26,9,21,Camin Cultural Serbauti,,Șerbăuți,47.8265,26.1382
264,35,SUCEAVA,CORNU LUNCII,52,1,6,1,0,1,2,12,48,2,7,1,0,1,2,12,Școala Sinca,,Șinca,47.4271,26.1574
493,35,SUCEAVA,UDEŞTI,145,0,37,12,1,16,5,14,143,1,38,13,1,18,6,14,Căminul Cultural Știrbăț,,Știrbăț,47.5553,26.4911
452,35,SUCEAVA,SATU MARE,175,8,78,7,0,87,4,15,186,11,83,10,0,78,2,8,Școala Gimnazială Sat Tibeni,,Țibeni,47.816,26.0241
311,35,SUCEAVA,FORĂŞTI,94,1,13,2,0,3,3,8,94,1,15,2,0,3,3,6,Școala Tolesti,,Țolești,47.3777,26.4849