id,nr_circumscriptie,circumscriptie,localitate,psd_cdep,usr_cdep,pnl_cdep,pmp_cdep,udmr_cdep,alde_cdep,pru_cdep,altele_cdep,psd_senat,usr_senat,pnl_senat,pmp_senat,udmr_senat,alde_senat,pru_senat,altele_senat,name,address,city,lat,lng
146,33,SĂLAJ,DRAGU,13,4,10,10,0,3,4,7,12,2,10,14,1,2,3,6,Școala cu Clasele I-IV nr. 100,Nr. 100,Adalin,47.0158,23.4327
226,33,SĂLAJ,MESEŞENII DE JOS,92,18,92,59,155,14,6,9,93,14,93,62,151,17,6,6,Centrul After School,Nr. 163/B,Aghireș,47.1623,23.0125
65,33,SĂLAJ,AGRIJ,126,9,93,10,1,14,6,42,146,10,117,8,1,19,8,10,Cămin Cultural Agrij,Nr. 348,Agrij,47.068,23.0973
168,33,SĂLAJ,HALMĂŞD,47,0,33,3,2,1,5,8,48,0,29,5,3,1,5,6,Școală,Nr. 52,Aleuș,47.1463,22.6289
67,33,SĂLAJ,ALMAŞU,62,5,127,10,54,10,6,35,66,8,141,14,59,12,7,12,Primăria Comunei Almașu,Nr. 144,Almașu,46.9462,23.1306
87,33,SĂLAJ,BENESAT,86,2,56,22,3,5,6,7,89,2,54,17,3,6,7,7,Școala Gimnazială „Avram Iancu”,Nr. 138,Aluniș,47.385,23.2748
112,33,SĂLAJ,COŞEIU,5,3,3,1,239,1,1,4,6,4,3,1,238,1,1,1,Școala Gimnazială Archid,Nr. 115,Archid,47.3471,23.0132
172,33,SĂLAJ,HERECLEAN,91,15,152,8,8,31,19,25,92,14,158,9,8,29,19,22,Școala Primară Badon,Nr. 63,Badon,47.2497,22.9748
177,33,SĂLAJ,HIDA,24,1,13,4,1,4,2,6,27,2,11,5,1,1,4,5,Căminul Cultural,Nr. 58,Baica,47.0746,23.2995
84,33,SĂLAJ,BĂNIŞOR,75,4,61,2,1,6,4,10,77,5,57,4,1,6,5,9,Școala Ban nr. 30,Nr. 30,Ban,47.0944,22.8067
86,33,SĂLAJ,BENESAT,38,2,58,3,10,4,1,3,37,3,59,4,11,4,2,2,Școala Primară Benesat,Nr. 112,Benesat,47.412,23.2913
270,33,SĂLAJ,SÎNMIHAIU ALMAŞULUI,34,2,3,2,1,8,3,3,34,2,3,2,1,8,3,3,Școala cu Clasele I-IV Bercea,Nr. 30,Bercea,47.0253,23.1846
165,33,SĂLAJ,GÎRBOU,28,1,14,3,0,4,2,5,26,1,15,3,0,3,4,5,Căminul Cultural,Nr. 145,Bezded,47.1563,23.4773
238,33,SĂLAJ,NUŞFALĂU,3,3,5,1,176,1,1,1,3,3,5,0,181,1,1,1,Căminul Cultural,Nr. 82,Bilghez,47.2298,22.7105
88,33,SĂLAJ,BENESAT,36,7,21,4,158,2,3,4,41,7,17,4,152,2,3,4,Școala Primară Biușa,Nr. 139,Biușa,47.423,23.2437
89,33,SĂLAJ,BOBOTA,181,17,130,61,6,18,14,18,184,19,127,58,8,21,16,17,Grădinița Bobota,Nr. 277/A,Bobota,47.382,22.7653
92,33,SĂLAJ,BOCŞA,94,10,156,5,1,16,7,12,97,15,150,7,1,14,9,12,Școala Gimnazială „Simion Bărnuțiu” Bocșa,Nr. 74,Bocșa,47.2981,22.919
173,33,SĂLAJ,HERECLEAN,25,3,29,1,6,1,1,2,21,4,28,2,6,3,1,4,Căminul Cultural Bocșița,Nr. 64,Bocșița,47.306,23.0502
98,33,SĂLAJ,BUCIUMI,48,3,41,7,1,3,8,10,51,3,42,8,1,4,8,8,Școala cu Clasele I-IV,Nr. 67/A,Bodia,47.0588,23.0649
99,33,SĂLAJ,BUCIUMI,111,5,50,8,3,11,4,8,113,7,50,7,4,11,7,8,Școala cu Clasele I-IV,Nr. 253/A,Bogdana,47.0215,23.0022
96,33,SĂLAJ,BOGHIŞ,16,3,21,1,606,3,16,21,16,5,23,4,604,4,17,18,Primăria Comunei Boghiș,Nr. 152,Boghiș,47.1554,22.7368
93,33,SĂLAJ,BOCŞA,11,0,11,2,615,2,1,6,9,1,12,1,619,1,2,4,Școala Gimnazială nr. 1 Borla,Nr. 239,Borla,47.2801,22.9373
124,33,SĂLAJ,CREACA,31,7,12,1,1,5,3,6,29,6,14,1,1,6,3,5,Școala Generală Borza,Nr. 69/A,Borza,47.2198,23.2713
97,33,SĂLAJ,BOGHIŞ,6,1,11,2,118,1,2,4,6,1,10,3,114,1,2,2,Căminul Cultural Bozieș,Nr. 105,Bozieș,47.1566,22.7135
296,33,SĂLAJ,TREZNEA,23,3,52,2,1,12,10,11,24,2,51,2,1,10,10,10,Școala Generală Bozna,Nr. 92,Bozna,47.0835,23.0934
120,33,SĂLAJ,CREACA,43,6,43,4,2,28,2,3,45,6,46,5,2,27,1,2,Școala Generală Brebi,Nr. 187/A,Brebi,47.2073,23.1948
122,33,SĂLAJ,CREACA,40,5,10,10,3,5,1,3,37,7,8,10,3,7,2,3,Școala Generală Brusturi,Nr. 31/B,Brusturi,47.1606,23.224
278,33,SĂLAJ,SURDUC,65,7,59,4,1,21,8,11,62,6,58,6,1,24,11,11,Căminul Cultural Brîglez,Nr. 115,Brâglez,47.2206,23.377
102,33,SĂLAJ,BUCIUMI,200,17,171,6,3,24,18,31,206,19,157,9,4,36,14,26,Primăria Buciumi,Nr. 124,Buciumi,47.0436,23.0486
260,33,SĂLAJ,SĂLĂŢIG,39,3,56,2,2,6,5,6,42,3,46,3,3,5,10,11,Școala Primară Bulgari,Nr. 102,Bulgari,47.3399,23.1411
258,33,SĂLAJ,RUS,18,9,12,10,1,20,2,3,16,9,14,11,2,19,2,2,Școala Primară Buzaș,Nr. 66,Buzaș,47.3068,23.5788
275,33,SĂLAJ,SOMEŞ-ODORHEI,22,4,4,1,1,7,5,5,23,2,4,1,1,6,7,7,Școala Primară Bîrsa,Nr. 54,Bârsa,47.3257,23.2062
153,33,SĂLAJ,GÎLGĂU,31,4,29,2,0,5,7,8,30,4,28,2,0,4,10,10,Școala cu Clasele I-IV,Nr. 71,Bârsău Mare,47.2718,23.6626
73,33,SĂLAJ,BĂBENI,77,7,55,45,2,25,15,19,83,7,56,39,2,20,21,21,"Corp B, Biblioteca Comunală",Nr. 268,Băbeni,47.3033,23.402
243,33,SĂLAJ,PERICEI,29,13,188,6,4,11,3,6,28,13,185,9,4,9,4,7,Școala Generală Bădăcin,Nr. 20,Bădăcin,47.2541,22.846
78,33,SĂLAJ,BĂLAN,99,11,99,8,3,16,8,13,104,9,94,5,6,17,11,12,Școala Gimnazială Bălan,Nr. 66,Bălan,47.1529,23.3065
83,33,SĂLAJ,BĂNIŞOR,125,8,94,8,1,6,8,12,133,10,83,9,2,5,8,10,Primăria Bănișor nr. 29,Nr. 29,Bănișor,47.1047,22.8377
103,33,SĂLAJ,CAMĂR,38,0,20,2,731,1,2,10,33,1,23,4,735,2,3,3,Primăria Comunei Camăr,Nr. 1,Camăr,47.2976,22.618
105,33,SĂLAJ,CARASTELEC,16,2,15,3,454,3,3,13,13,3,15,3,463,2,3,4,Căminul Cultural,Nr. 462,Carastelec,47.2993,22.6944
305,33,SĂLAJ,ZALHA,25,2,19,3,2,51,5,7,25,4,20,6,2,47,6,6,Școala cu Clasele I-IV Ceaca,Nr. 83,Ceaca,47.1967,23.5591
63,33,SĂLAJ,ORAŞ ŞIMLEU SILVANIEI,98,14,156,5,5,20,10,17,109,13,157,8,3,16,8,13,Școala Primară,Nr. 50,Cehei,47.2567,22.7731
40,33,SĂLAJ,ORAŞ CEHU SILVANIEI,87,27,65,9,399,8,9,13,85,25,63,6,405,13,12,12,Liceul Tehnologic „Gheorghe Pop de Băsești”,Str. Libertății nr. 8,Cehu Silvaniei,47.4114,23.1752
41,33,SĂLAJ,ORAŞ CEHU SILVANIEI,96,22,70,19,351,9,22,31,95,21,71,14,357,11,22,25,Școala Gimnazială „Andrei Mureșanu”,Piața Trandafirilor (Piața Gheorghe Pop de Băsești) nr. 39,Cehu Silvaniei,47.4112,23.1788
42,33,SĂLAJ,ORAŞ CEHU SILVANIEI,121,14,69,20,328,9,10,14,124,13,76,13,327,9,10,12,Piața Trandafirilor nr. 29 Clubul Copiilor,Piața Trandafirilor (Piața Gheorghe Pop de Băsești) nr. 29,Cehu Silvaniei,47.4116,23.1789
169,33,SĂLAJ,HALMĂŞD,48,4,48,3,2,4,14,17,57,6,47,2,1,5,8,11,Școala Veche,Nr. 93,Cerișa,47.1822,22.5668
164,33,SĂLAJ,GÎRBOU,40,1,13,1,0,0,1,3,41,1,14,0,0,1,1,1,Căminul Cultural Cernuc,Nr. 40,Cernuc,47.1349,23.4719
79,33,SĂLAJ,BĂLAN,148,5,72,5,0,7,3,6,145,9,71,5,0,12,3,3,Școala Primară Chechiș,Nr. 111,Chechiș,47.1742,23.3077
80,33,SĂLAJ,BĂLAN,190,2,107,0,1,13,9,11,193,4,102,0,0,14,9,10,Școala Primară „Ioanichie Druhora” Chendrea,Nr. 237,Chendrea,47.1222,23.2978
234,33,SĂLAJ,NĂPRADEA,121,10,42,12,3,13,10,15,130,8,45,11,3,12,10,10,Școala Gimnazială „Petre Hossu”,Nr. 41,Cheud,47.3833,23.3147
251,33,SĂLAJ,ROMÂNAŞI,38,3,25,1,1,5,2,4,38,4,26,1,1,6,2,2,Școala cu Clasele I-IV Chichișa,Nr. 60/A,Chichișa,47.1356,23.1947
106,33,SĂLAJ,CHIEŞD,278,4,80,3,31,19,8,15,277,6,78,6,31,20,8,9,Sala de Sport Chieșd,Nr. 600 A,Chieșd,47.3821,22.8849
113,33,SĂLAJ,COŞEIU,45,5,85,5,1,6,8,8,55,6,80,4,1,6,6,6,Școala cu Clasele I-IV Chilioara,Nr. 239,Chilioara,47.3309,23.0295
155,33,SĂLAJ,GÎLGĂU,30,4,12,4,0,3,4,5,28,3,11,7,0,4,3,3,Școala cu Clasele I-IV,Nr. 13,Chizeni,47.276,23.6386
126,33,SĂLAJ,CREACA,19,1,2,2,1,8,1,1,20,1,2,1,1,6,2,2,Școala Generală Ciglean,Nr. 59/A,Ciglean,47.2232,23.2435
74,33,SĂLAJ,BĂBENI,103,17,108,11,1,6,10,12,105,18,109,9,2,3,10,12,Școala Veche Ciocmani,Nr. 169,Ciocmani,47.2897,23.3468
204,33,SĂLAJ,LETCA,31,3,6,3,0,4,2,4,29,2,8,6,0,6,1,1,Clădirea Fostului Consiliu Ciula,Nr. 92,Ciula,47.3415,23.4137
252,33,SĂLAJ,ROMÂNAŞI,57,13,61,3,1,18,3,6,61,10,63,4,2,16,3,5,Școala cu Clasele I-IV Ciumărna,Nr. 38,Ciumărna,47.1244,23.1301
307,33,SĂLAJ,ZALHA,17,3,23,3,1,11,4,7,18,2,27,3,0,10,5,5,Școala cu Clasele I-IV Ciureni,Nr. 49,Ciureni,47.2021,23.5369
108,33,SĂLAJ,CIZER,147,18,203,10,3,14,13,28,150,19,197,10,4,17,13,17,Școala Gimnazială Cizer,Nr. 292,Cizer,47.0659,22.8587
75,33,SĂLAJ,BĂBENI,46,4,32,13,2,6,3,6,46,7,30,13,2,11,2,3,Școala Cliț,Nr. 40,Cliț,47.2995,23.4261
212,33,SĂLAJ,LOZNA,17,1,82,7,2,9,1,3,18,3,82,5,2,9,1,2,Școala cu Clasele I-IV Cormeniș,Nr. 130,Cormeniș,47.3517,23.5152
200,33,SĂLAJ,IP,87,5,69,12,2,13,10,19,89,6,64,15,1,16,8,12,Școala Gimazială Cosniciu de Jos,Nr. 214,Cosniciu de Jos,47.208,22.6124
201,33,SĂLAJ,IP,51,1,49,2,2,3,8,12,55,2,49,3,2,5,6,6,Căminul Cultural,Nr. 51,Cosniciu de Sus,47.1937,22.5905
205,33,SĂLAJ,LETCA,45,3,12,7,0,5,3,4,43,3,16,6,0,4,3,4,Școala Cozla,Nr. 36,Cozla,47.3488,23.3828
111,33,SĂLAJ,COŞEIU,47,2,27,5,63,9,8,11,47,3,32,3,64,11,6,6,Primăria Comunei Coșeiu,Nr. 134,Coșeiu,47.3207,22.9904
114,33,SĂLAJ,CRASNA,32,10,29,15,862,6,8,13,36,12,31,10,866,7,6,7,Căminul Cultural „Petőfi Sándor”,Nr. 559,Crasna,47.1616,22.8735
115,33,SĂLAJ,CRASNA,32,8,16,11,784,2,5,15,28,11,14,11,798,2,5,7,Muzeul Satului,Nr. 582,Crasna,47.1615,22.869
119,33,SĂLAJ,CREACA,69,10,22,10,2,14,2,4,68,11,25,10,2,17,1,2,Școala Gimnazială Marcus Aurelius Creaca,Nr. 179/C,Creaca,47.1966,23.2325
127,33,SĂLAJ,CRISTOLŢ,71,3,52,37,2,20,10,14,80,8,43,35,2,18,13,13,Căminul Cultural Cristolț,Nr. 71,Cristolț,47.2087,23.4364
279,33,SĂLAJ,SURDUC,64,6,80,0,0,10,2,4,66,3,81,1,0,9,2,2,Școala Primară Clasele I-IV Cristolțel,Nr. 55,Cristolțel,47.2443,23.4023
132,33,SĂLAJ,CRIŞENI,9,0,33,15,153,2,7,7,7,0,34,13,160,1,2,2,Școala Primară Cristur-Crișeni,Nr. 191,Cristur-Crișeni,47.2587,23.0914
131,33,SĂLAJ,CRIŞENI,198,46,499,27,21,31,18,30,208,48,500,20,19,40,9,19,Școala Gimnazială „Vasile Breban” Crișeni,Nr. 276,Crișeni,47.2346,23.0492
221,33,SĂLAJ,MĂERIŞTE,68,7,97,4,1,4,7,7,68,9,93,5,1,5,8,9,Școala cu Clasele I-IV Criștelec,Nr. 114,Criștelec,47.2642,22.722
52,33,SĂLAJ,ORAŞ JIBOU,29,8,12,29,1,112,5,13,37,10,12,29,1,106,6,7,Grădiniță,Nr. 60,Cuceu,47.2659,23.1948
206,33,SĂLAJ,LETCA,49,3,13,7,0,6,3,4,52,3,11,7,0,3,4,4,Școala Cuciulat,Nr. 45,Cuciulat,47.3247,23.4212
134,33,SĂLAJ,CUZĂPLAC,133,3,17,2,40,2,3,10,135,5,21,3,38,5,2,3,Școala Gimnazială Cuzăplac nr. 242,Nr. 242,Cuzăplac,46.9656,23.1899
95,33,SĂLAJ,BOCŞA,54,4,44,5,3,6,4,15,54,9,46,5,2,9,5,5,Școala cu Clasele I-IV Cîmpia,Nr. 123,Câmpia,47.3141,22.8872
162,33,SĂLAJ,GÎRBOU,50,2,32,2,1,3,2,5,53,4,31,4,1,2,2,2,Școala Primară,Nr. 191,Călacea,47.1178,23.4483
154,33,SĂLAJ,GÎLGĂU,29,2,115,6,1,2,20,21,28,3,114,7,1,1,21,21,Școala cu Clasele I-IV,Nr. 58,Căpâlna,47.2525,23.7337
261,33,SĂLAJ,SĂLĂŢIG,6,1,7,2,575,1,0,4,5,1,8,3,578,2,0,0,Școala Gimnazială Deja,Nr. 138,Deja,47.3546,23.1815
90,33,SĂLAJ,BOBOTA,188,27,115,75,2,6,12,18,195,26,118,62,2,6,14,17,Școala Derșida,Nr. 58/A,Derșida,47.3877,22.7985
174,33,SĂLAJ,HERECLEAN,7,1,3,0,419,2,1,7,6,3,4,0,417,2,3,4,Școala Primară Dioșod,Nr. 465,Dioșod,47.2909,23.0187
141,33,SĂLAJ,DOBRIN,1,2,2,5,170,2,1,3,1,3,1,2,175,2,2,2,Școala Elementară,Nr. 27,Doba,47.2898,23.0951
142,33,SĂLAJ,DOBRIN,1,1,1,1,116,3,2,4,1,2,1,1,117,4,1,1,Centrul de Zi Doba,Nr. 279,Doba,47.2905,23.082
140,33,SĂLAJ,DOBRIN,27,3,7,16,78,42,4,5,27,4,6,12,78,47,5,5,Căminul Cultural,Nr. 24/A,Dobrin,47.2955,23.1297
158,33,SĂLAJ,GÎLGĂU,24,2,50,1,1,5,5,7,26,3,44,2,1,5,5,7,Căminul Cultural,Nr. 38,Dobrocina,47.2619,23.7166
222,33,SĂLAJ,MĂERIŞTE,33,3,40,1,2,6,1,4,33,4,45,3,1,3,2,3,Școala cu Clasele I-IV Doh,Nr. 42,Doh,47.3294,22.7159
197,33,SĂLAJ,ILEANDA,15,2,17,14,0,2,4,4,10,2,21,11,0,3,6,6,Școala Generală Dolheni,Nr. 43,Dolheni,47.361,23.6557
309,33,SĂLAJ,ZIMBOR,4,6,20,1,0,2,1,1,3,6,20,1,0,2,2,2,Căminul Cultural Dolu,Nr. 86,Dolu,46.9866,23.3279
276,33,SĂLAJ,SOMEŞ-ODORHEI,55,1,46,9,1,4,2,4,58,1,43,10,1,5,2,2,Școala Primară Domnin,Nr. 52,Domnin,47.3335,23.1873
145,33,SĂLAJ,DRAGU,76,2,85,26,1,4,5,8,72,3,93,27,2,5,3,4,Primăria Dragu nr. 120,Nr. 120,Dragu,47.0361,23.3971
170,33,SĂLAJ,HALMĂŞD,32,2,56,6,2,4,11,13,35,2,53,9,2,3,7,7,Școala Nouă Drighiu,Nr. 22,Drighiu,47.1624,22.6491
104,33,SĂLAJ,CARASTELEC,8,0,10,1,5,0,1,1,6,0,8,1,5,0,2,2,Școala Primară,Nr. 37,Dumuslău,47.3434,22.6738
189,33,SĂLAJ,ILEANDA,44,1,16,15,0,18,2,2,45,1,14,16,0,19,2,2,Școala Generală,Nr. 31,Dăbâceni,47.3019,23.5984
166,33,SĂLAJ,GÎRBOU,25,0,12,1,1,2,1,1,25,0,13,1,1,1,1,1,Școala Primară,Nr. 29,Fabrica,47.1961,23.3951
227,33,SĂLAJ,MESEŞENII DE JOS,17,2,40,5,1,4,11,12,18,3,38,7,1,3,11,11,Școala Gimnazială Fetindia,Nr. 47,Fetindia,47.1409,23.0141
149,33,SĂLAJ,FILDU DE JOS,29,2,35,4,1,5,7,10,30,2,33,4,1,6,8,10,Școala Primară Fildu de Jos,Nr. 123,Fildu de Jos,46.92,23.0575
150,33,SĂLAJ,FILDU DE JOS,86,7,56,3,1,6,6,8,85,10,53,2,1,5,7,9,Căminul Cultural Fildu de Mijloc,Nr. 31,Fildu de Mijloc,46.9236,22.9947
151,33,SĂLAJ,FILDU DE JOS,110,5,46,2,2,3,0,7,114,7,45,3,1,3,2,3,Căminul Cultural Fildu de Sus,Nr. 135,Fildu de Sus,46.9323,22.9624
230,33,SĂLAJ,MIRŞID,37,2,24,2,1,11,4,4,37,1,28,2,1,7,4,5,Școala cu Clase I-IV,Nr. 46,Firminiș,47.246,23.1349
265,33,SĂLAJ,SÎG,55,3,39,3,1,5,3,10,55,3,39,6,1,6,6,9,Căminul Cultural Fizeș,Nr. 136,Fizeș,47.0946,22.7626
159,33,SĂLAJ,GÎLGĂU,35,2,69,2,2,10,2,2,31,3,66,2,3,8,5,8,Școala Gimnazială,Nr. 32,Fodora,47.2643,23.6727
257,33,SĂLAJ,RUS,40,2,19,8,1,4,4,8,41,2,19,12,1,3,7,7,Școala Primară Fîntînele-Rus,Nr. 29,Fântânele-Rus,47.2519,23.5578
247,33,SĂLAJ,PLOPIŞ,13,1,22,1,1,2,1,109,39,3,94,2,8,4,2,2,Căminul Cultural Făgetu,Nr. 65,Făgetu,47.0923,22.5814
220,33,SĂLAJ,MĂERIŞTE,102,4,167,6,2,5,6,9,98,7,171,6,3,8,6,6,Școala Gimnazială Giurtelecu Șimleului,Nr. 167,Giurtelecu Șimleului,47.2991,22.7951
156,33,SĂLAJ,GÎLGĂU,33,2,71,5,0,16,13,13,33,4,72,5,0,16,12,13,Școala cu Clasele I-IV,Nr. 192,Glod,47.2888,23.6488
249,33,SĂLAJ,POIANA BLENCHII,65,5,47,5,2,8,5,7,62,5,49,6,1,4,7,8,Școala cu Clasele I-IV Gostila,Nr. 175,Gostila,47.3238,23.802
175,33,SĂLAJ,HERECLEAN,14,4,16,3,246,2,3,6,12,5,17,2,246,3,4,4,Școala Gimnazială Guruslău,Nr. 49,Guruslău,47.2777,22.9817
157,33,SĂLAJ,GÎLGĂU,94,7,122,5,0,19,3,5,90,9,125,6,1,17,2,4,Liceul Tehnologic,Nr. 28,Gâlgău,47.2817,23.7014
82,33,SĂLAJ,BĂLAN,153,5,119,7,0,7,8,14,153,7,116,6,2,10,8,9,Școala Gimnazială Gîlgău Almașului,Nr. 402,Gâlgău Almașului,47.1983,23.3195
160,33,SĂLAJ,GÎRBOU,89,7,38,9,2,4,4,7,87,9,36,11,2,5,7,7,Primăria Gîrbou,Nr. 272/A,Gârbou,47.1608,23.4135
133,33,SĂLAJ,CRIŞENI,53,3,96,29,73,14,32,39,56,6,104,19,76,16,32,33,Școala Primară Gîrceiu,Nr. 290,Gârceiu,47.2568,23.0618
81,33,SĂLAJ,BĂLAN,97,6,44,3,0,6,6,6,100,5,42,3,0,6,6,6,Școala Primară Gălpîia,Nr. 81,Gălpâia,47.1314,23.2468
135,33,SĂLAJ,CUZĂPLAC,21,1,9,3,1,1,3,4,21,1,9,4,1,1,2,2,Căminul Cultural Gălășeni nr. 50,Nr. 50,Gălășeni,46.8948,23.178
167,33,SĂLAJ,HALMĂŞD,141,12,122,10,1,7,13,19,154,14,122,12,1,9,5,6,Căminul Cultural,Nr. 329,Halmășd,47.157,22.5886
171,33,SĂLAJ,HERECLEAN,67,34,90,10,17,14,6,15,66,40,84,16,17,12,6,8,Căminul Cultural Hereclean,Nr. 96/a,Hereclean,47.2461,23.0148
179,33,SĂLAJ,HIDA,103,11,137,25,3,9,9,13,115,14,124,24,4,15,9,11,Primăria,Nr. 1,Hida,47.0628,23.3075
43,33,SĂLAJ,ORAŞ CEHU SILVANIEI,30,1,27,6,2,3,2,5,31,2,31,3,2,3,3,4,Horoatu Cehului nr. 23 Școala Primară,Nr. 23,Horoatu Cehului,47.4039,23.2431
187,33,SĂLAJ,HOROATU CRASNEI,124,15,41,14,114,8,11,11,127,18,37,10,111,8,15,15,Grădinița Horoatu Crasnei,Nr. 276,Horoatu Crasnei,47.1264,22.8984
188,33,SĂLAJ,HOROATU CRASNEI,36,5,33,8,2,8,5,6,35,5,38,5,3,8,5,5,Școala Hurez,Nr. 143,Hurez,47.0652,22.913
116,33,SĂLAJ,CRASNA,47,17,36,17,63,5,7,12,46,18,34,17,65,4,6,7,Centrul de Zi Pentru Copii,Nr. 37,Huseni,47.182,22.8072
53,33,SĂLAJ,ORAŞ JIBOU,31,4,13,4,3,4,4,6,30,3,15,4,2,4,5,7,Școala cu Clasele I-IV,Nr. 57,Husia,47.2855,23.2943
294,33,SĂLAJ,ŞIMIŞNA,94,4,21,5,1,4,2,2,88,3,21,4,1,5,2,2,Căminul Cultural Hășmaș,Nr. 151A,Hășmaș,47.192,23.6042
246,33,SĂLAJ,PLOPIŞ,33,2,160,1,2,1,2,12,43,5,148,4,2,1,2,5,Centrul Cultural Iaz,Nr. 144/A,Iaz,47.119,22.6862
196,33,SĂLAJ,ILEANDA,98,12,92,45,0,43,69,95,109,14,93,48,1,47,76,78,Căminul Cultural Ileanda,Nr. 43,Ileanda,47.3261,23.6175
290,33,SĂLAJ,ŞĂRMĂŞAG,7,0,6,1,282,1,2,3,9,1,6,1,284,1,2,2,Școala Generală „Selymes Peter” Ilișua,Nr. 54/A,Ilișua,47.2942,22.8373
273,33,SĂLAJ,SOMEŞ-ODORHEI,186,5,38,3,3,2,6,12,184,5,41,6,3,4,7,10,Căminul Cultural Inău,Nr. 40,Inău,47.3605,23.2591
199,33,SĂLAJ,IP,89,3,62,9,324,11,24,62,100,9,70,13,328,13,25,29,Cercul Gospodarilor,Nr. 227,Ip,47.2303,22.6025
121,33,SĂLAJ,CREACA,120,19,32,2,3,40,4,7,134,17,47,0,2,19,4,5,Școala Gimnazială Jac,Nr. 253/A,Jac,47.1665,23.1989
68,33,SĂLAJ,ALMAŞU,4,1,4,1,180,2,1,8,4,1,4,3,180,2,1,3,Căminul Cultural Jebucu,Nr. 77,Jebucu,46.8833,23.1036
47,33,SĂLAJ,ORAŞ JIBOU,293,39,138,55,49,23,51,59,296,40,153,39,50,24,49,53,Casa de Cultură,Piața 1 Decembrie 1918 (Piața Florilor) nr. 8,Jibou,47.2614,23.2568
48,33,SĂLAJ,ORAŞ JIBOU,263,33,103,31,33,31,27,32,271,29,110,28,32,26,30,30,Liceul Tehnologic „Octavian Goga”,Str. Wesselenyi Miklos (Str. Parcului) nr. 5,Jibou,47.2607,23.2546
49,33,SĂLAJ,ORAŞ JIBOU,168,31,111,27,85,35,24,29,169,28,131,20,85,31,21,24,"Liceul Tehnologic „Octaviasn Goga” Parter, Sala de Clasa nr. 2",Str. Wesselenyi Miklos (Str. Parcului) nr. 5,Jibou,47.2607,23.2546
50,33,SĂLAJ,ORAŞ JIBOU,338,45,111,38,40,40,30,33,339,49,124,23,36,40,31,32,"Școală Gimnazială „Lucian Blaga” Parter Sală de Clasă nr. 1, Str.Garoafelor nr. 7",Nr. 7,Jibou,47.2605,23.2582
51,33,SĂLAJ,ORAŞ JIBOU,142,14,67,24,131,41,36,43,151,17,66,23,130,37,41,43,Liceul Teoretic „Ion Agârbiceanu”,Str. Tudor Vladimirescu nr. 7,Jibou,47.2628,23.2563
300,33,SĂLAJ,VALCĂU DE JOS,21,4,74,0,1,5,7,7,28,4,66,0,1,7,8,8,Grădinița,Nr. 41,Lazuri,47.0997,22.7497
207,33,SĂLAJ,LETCA,114,4,41,3,0,11,13,13,115,5,40,3,0,14,8,8,Școala Lemniu,Nr. 76,Lemniu,47.3528,23.4839
203,33,SĂLAJ,LETCA,111,3,72,19,0,23,9,11,103,3,73,22,2,18,10,11,Primăria Comunei Letca,Nr. 272,Letca,47.3355,23.4577
217,33,SĂLAJ,MARCA,3,0,11,1,120,1,1,2,3,0,12,1,116,1,2,2,Școala Primară Leșmir,Nr. 130,Leșmir,47.2584,22.5724
291,33,SĂLAJ,ŞĂRMĂŞAG,27,1,10,2,284,2,5,8,29,1,12,3,284,1,4,4,Școala Generală „Ady Endre” Lompirt,Nr. 51,Lompirt,47.3224,22.843
214,33,SĂLAJ,LOZNA,70,11,120,12,3,21,9,13,79,10,114,13,3,22,9,11,Primăria Comunei Lozna,Nr. 108,Lozna,47.3211,23.4686
198,33,SĂLAJ,ILEANDA,17,2,37,7,0,4,2,2,18,1,36,8,0,4,1,1,Școala Generală Luminișu,Nr. 15,Luminișu,47.3622,23.6088
123,33,SĂLAJ,CREACA,41,10,20,1,1,4,3,8,39,7,24,1,2,4,2,5,Școala Generală Lupoaia,Nr. 145/A,Lupoaia,47.1929,23.2498
266,33,SĂLAJ,SÎG,278,10,60,7,1,5,6,11,280,11,60,8,0,5,4,5,Căminul Cultural Mal,Nr. 93,Mal,47.0711,22.8115
215,33,SĂLAJ,MARCA,87,23,227,3,4,17,26,37,88,28,220,4,4,25,24,26,Căminul Cultural Marca,Nr. 136,Marca,47.2175,22.55
117,33,SĂLAJ,CRASNA,46,14,84,10,20,7,9,37,49,16,85,10,17,9,10,33,Centrul de Zi Pentru Copii,Nr. 213/a,Marin,47.1268,22.8054
225,33,SĂLAJ,MESEŞENII DE JOS,110,4,17,3,179,2,4,7,112,5,17,7,175,2,4,5,Primăria Comunei Meseșenii de Jos,Nr. 41,Meseșenii de Jos,47.1543,22.9514
228,33,SĂLAJ,MESEŞENII DE JOS,102,6,61,6,3,6,8,11,104,5,62,9,2,7,6,8,Centrul de Zi,Nr. 53,Meseșenii de Sus,47.1308,22.9783
69,33,SĂLAJ,ALMAŞU,62,4,56,5,3,1,1,3,66,3,59,4,3,1,1,1,Căminul Cultural Mesteacănu,Nr. 77,Mesteacănu,46.9665,23.0222
136,33,SĂLAJ,CUZĂPLAC,37,2,10,0,1,8,1,3,36,2,11,1,1,8,0,0,Școala cu Clasele I-IV Mierța nr. 97,Nr. 97,Mierța,46.9952,23.1794
178,33,SĂLAJ,HIDA,5,2,6,1,1,1,2,2,4,2,7,1,1,1,2,2,Căminul Cultural,Nr. 57,Miluani,47.014,23.3298
262,33,SĂLAJ,SĂLĂŢIG,24,2,22,5,37,2,0,1,27,2,23,3,35,2,0,0,Școala Primară Mineu,Nr. 107,Mineu,47.3444,23.0951
229,33,SĂLAJ,MIRŞID,89,10,42,19,14,21,20,24,96,9,43,15,15,15,24,26,Sala de Ședințe a Primăriei,Nr. 90,Mirșid,47.2294,23.1195
292,33,SĂLAJ,ŞĂRMĂŞAG,38,6,33,4,5,6,3,4,43,7,30,3,6,5,2,2,Căminul Cultural Moiad,Nr. 53/A,Moiad,47.3461,22.8028
231,33,SĂLAJ,MIRŞID,73,10,53,6,2,12,9,10,71,11,52,5,2,12,10,11,Școala cu Clase I-IV,Nr. 98,Moigrad-Porolissum,47.1957,23.1414
44,33,SĂLAJ,ORAŞ CEHU SILVANIEI,112,4,69,5,2,10,7,14,119,2,70,5,3,10,5,6,Sat Motiș nr. 228 Școala Gimnazială „Gheorghe Șincai”,Nr. 228,Motiș,47.4238,23.1399
128,33,SĂLAJ,CRISTOLŢ,31,9,13,5,3,2,1,3,32,11,13,5,2,2,2,3,Școala Primară Muncel,Nr. 20,Muncel,47.224,23.3932
219,33,SĂLAJ,MĂERIŞTE,125,4,107,5,2,18,7,7,119,5,103,6,4,21,5,7,Școala Gimnazială Măeriște,Nr. 192,Măeriște,47.321,22.7904
223,33,SĂLAJ,MĂERIŞTE,13,1,26,2,1,1,8,9,12,2,23,3,1,2,8,12,Școala cu Clasele I-IV Mălădia,Nr. 69,Mălădia,47.2993,22.7381
45,33,SĂLAJ,ORAŞ CEHU SILVANIEI,85,6,111,7,2,20,6,9,94,3,111,5,2,20,6,6,Sat Nadiș nr. 127 Școala Primară,Nr. 127,Nadiș,47.3775,23.1776
143,33,SĂLAJ,DOBRIN,5,0,7,1,34,5,2,3,5,0,7,1,35,4,2,3,Căminul Cultural Naimon,Nr. 26,Naimon,47.327,23.1163
190,33,SĂLAJ,ILEANDA,15,2,10,5,0,5,2,5,15,1,10,5,0,5,3,4,Școala Generală,Nr. 18,Negreni,47.3467,23.5577
263,33,SĂLAJ,SĂLĂŢIG,38,2,94,1,2,6,1,1,38,1,92,3,2,8,1,2,Școala Primară Noțig,Nr. 242,Noțig,47.3649,23.2157
239,33,SĂLAJ,NUŞFALĂU,66,8,68,9,259,5,10,25,73,11,71,7,265,6,11,12,Centrul de Informare Turistică,Str. Petőfi Sándor nr. 1,Nușfalău,47.1995,22.7099
240,33,SĂLAJ,NUŞFALĂU,38,6,27,4,628,12,7,14,43,6,29,8,617,11,4,4,Primăria Nușfalău - Sala de Ședințe,Piața Arany János nr. 1,Nușfalău,47.1974,22.7032
233,33,SĂLAJ,NĂPRADEA,74,9,64,6,2,8,5,6,75,10,59,6,1,10,10,10,Primăria Năpradea,Nr. 23,Năpradea,47.3643,23.3164
176,33,SĂLAJ,HERECLEAN,16,4,40,5,344,10,1,9,15,4,43,6,348,11,2,2,Școala Gimnazială Panic,Nr. 100,Panic,47.2048,22.991
85,33,SĂLAJ,BĂNIŞOR,104,20,156,11,1,13,7,17,110,23,158,8,1,10,7,14,Școala Peceiu nr. 137,Nr. 137,Peceiu,47.124,22.861
241,33,SĂLAJ,PERICEI,21,4,38,2,412,4,3,9,25,4,40,1,412,2,2,3,Grădinița cu Program Prelungit nr. 1 Pericei,Nr. 417,Pericei,47.2315,22.866
242,33,SĂLAJ,PERICEI,24,5,67,3,588,4,2,5,28,6,63,5,584,4,2,3,Primăria Comunei Pericei,Nr. 239,Pericei,47.2318,22.8628
191,33,SĂLAJ,ILEANDA,11,1,16,3,2,4,2,4,11,1,16,3,2,3,3,5,Școala Generală,Nr. 15,Perii Vadului,47.3497,23.5648
137,33,SĂLAJ,CUZĂPLAC,100,2,16,6,20,2,5,8,100,3,18,8,22,1,5,5,Centrul de Zi Petrindu nr. 78,Nr. 78,Petrindu,46.9192,23.1834
70,33,SĂLAJ,ALMAŞU,3,4,4,2,47,1,1,2,3,2,7,2,48,1,1,2,Căminul Cultural Petrinzel,Nr. 59,Petrinzel,46.9091,23.1432
76,33,SĂLAJ,BĂBENI,12,1,27,6,2,7,1,1,12,2,29,5,2,5,2,2,Clădire Multifuncțională,Nr. 12,Piroșa,47.3167,23.3849
109,33,SĂLAJ,CIZER,23,7,51,1,1,1,4,6,21,7,49,1,1,2,5,7,Școala Gimnazială Plesca,Nr. 97,Plesca,47.0821,22.8883
245,33,SĂLAJ,PLOPIŞ,57,3,161,14,2,15,11,20,62,5,164,16,1,15,15,17,Căminul Cultural Plopiș,Nr. 132,Plopiș,47.128,22.6531
254,33,SĂLAJ,ROMÂNAŞI,53,8,84,3,2,1,3,5,55,9,86,3,2,2,3,3,Școala cu Clasele I-IV Poarta Sălajului,Nr. 112,Poarta Sălajului,47.0873,23.1902
192,33,SĂLAJ,ILEANDA,21,0,17,18,0,4,2,4,26,0,14,20,0,3,3,3,Școala Generală,Nr. 77,Podișu,47.3189,23.5958
248,33,SĂLAJ,POIANA BLENCHII,157,5,48,11,3,10,7,9,158,5,49,10,3,10,7,7,Școala Gimnazială Poiana Blenchii,Nr. 106,Poiana Blenchii,47.3091,23.7478
129,33,SĂLAJ,CRISTOLŢ,16,1,7,5,3,3,1,1,17,1,4,5,2,4,1,1,Școala Primară Poiana Onții,Nr. 50,Poiana Onții,47.1875,23.4691
77,33,SĂLAJ,BĂBENI,48,2,49,2,2,1,3,4,47,3,48,3,2,1,4,4,Școala Poienița,Nr. 195,Poienița,47.3105,23.3514
232,33,SĂLAJ,MIRŞID,195,10,52,10,2,16,11,11,194,12,56,9,2,15,14,14,Școala cu Clase I-IV,Nr. 224,Popeni,47.2505,23.1726
163,33,SĂLAJ,GÎRBOU,47,2,57,2,1,1,1,6,48,3,55,5,1,2,2,5,Școala Primară,Nr. 60,Popteleac,47.1316,23.4125
216,33,SĂLAJ,MARCA,34,5,67,3,2,8,5,9,32,6,64,3,2,7,11,14,Școala Primară Porț,Nr. 27,Porț,47.234,22.5525
299,33,SĂLAJ,VALCĂU DE JOS,81,7,145,1,1,12,2,5,98,7,130,3,1,10,2,2,Școala Gimnazială,Nr. 66,Preoteasa,47.078,22.7304
110,33,SĂLAJ,CIZER,69,3,60,3,3,6,4,6,77,3,60,1,3,6,4,6,Căminul Cultural,Nr. 118,Pria,47.0484,22.8881
125,33,SĂLAJ,CREACA,38,2,16,3,5,8,2,3,42,1,16,4,5,4,2,3,Școala Generală Prodănești,Nr. 90/A,Prodănești,47.2197,23.2642
208,33,SĂLAJ,LETCA,10,0,7,22,0,3,1,5,9,0,11,23,0,3,2,3,Școala Purcăreț,Nr. 33,Purcăreț,47.3731,23.4384
64,33,SĂLAJ,ORAŞ ŞIMLEU SILVANIEI,86,2,335,3,4,4,7,25,74,6,347,5,7,4,17,17,Școala Gimnazială nr. 1,Nr. 128,Pusta,47.2459,22.744
184,33,SĂLAJ,HIDA,12,1,9,1,1,2,1,2,12,1,8,2,1,3,1,1,Școala Generală,Nr. 34,Păduriș,47.0971,23.4104
253,33,SĂLAJ,ROMÂNAŞI,68,7,59,1,1,58,4,12,71,6,60,4,2,61,4,6,Școala cu Clasele I-IV Păușa,Nr. 105,Păușa,47.0851,23.145
180,33,SĂLAJ,HIDA,68,12,29,2,0,5,6,8,74,10,23,3,0,6,4,6,Școala Generală,Nr. 171,Racâș,47.1049,23.2942
118,33,SĂLAJ,CRASNA,30,9,19,2,109,1,13,17,34,10,21,4,104,1,16,16,Centrul de Zi Pentru Copii,Nr. 47,Ratin,47.1739,22.8325
303,33,SĂLAJ,VÎRŞOLŢ,59,6,39,10,32,13,37,49,57,8,40,13,32,13,38,41,Căminul Cultural Recea,Nr. 220,Recea,47.1948,22.9462
194,33,SĂLAJ,ILEANDA,16,1,4,3,1,6,1,4,16,1,5,3,1,7,2,2,Școala Generală,Nr. 3,Rogna,47.3368,23.5917
255,33,SĂLAJ,ROMÂNAŞI,14,3,24,7,2,16,10,12,19,3,23,7,1,15,10,11,Școala cu Clasele I-IV Romita,Nr. 31,Romita,47.1473,23.2007
250,33,SĂLAJ,ROMÂNAŞI,92,15,123,15,2,13,7,13,91,14,129,19,1,14,5,6,Școala cu Clasele I-VIII Românași,Nr. 49,Românași,47.1118,23.1823
54,33,SĂLAJ,ORAŞ JIBOU,87,4,18,2,1,8,5,6,84,7,22,5,1,4,4,5,Școala cu Clasele I-IV,Nr. 115/a,Rona,47.2682,23.2831
138,33,SĂLAJ,CUZĂPLAC,22,3,3,4,1,1,1,4,20,3,5,8,1,1,1,1,Căminul Cultural Ruginoasa nr. 22,Nr. 22,Ruginoasa,46.9341,23.2692
256,33,SĂLAJ,RUS,111,12,41,21,7,18,21,26,121,12,38,24,8,16,15,15,Școala Gimnazială Rus,Nr. 333,Rus,47.2735,23.5937
193,33,SĂLAJ,ILEANDA,35,6,19,2,0,9,3,3,34,6,19,2,0,10,3,3,Școala Generală,Nr. 45,Răstoci,47.3604,23.5287
100,33,SĂLAJ,BUCIUMI,45,4,29,6,0,16,1,4,44,4,29,7,0,17,1,3,Școala cu Clasele I-IV,Nr. 39,Răstolț,47.0301,23.076
66,33,SĂLAJ,AGRIJ,75,1,54,2,1,12,1,7,84,1,51,3,1,12,1,2,Școala cu Clasele I-IV,Nr. 91,Răstolțu-Deșert,47.0472,23.1354
244,33,SĂLAJ,PERICEI,32,7,12,3,4,1,2,4,33,7,13,1,4,2,2,3,Centru de Informare și Marketing Turistic,Nr. 63,Sici,47.2545,22.8752
107,33,SĂLAJ,CHIEŞD,82,6,35,1,2,14,15,16,83,5,33,3,1,15,14,15,Școala Primară Sighetu Silvaniei,Nr. 25,Sighetu Silvaniei,47.3468,22.8753
161,33,SĂLAJ,GÎRBOU,61,4,34,6,1,1,4,8,63,4,33,6,1,2,5,8,Căminul Cultural,Nr. 141,Solomon,47.1718,23.4224
280,33,SĂLAJ,SURDUC,64,2,34,1,2,14,11,15,65,1,32,3,2,11,14,17,Căminul Cultural Solona,Nr. 89/a,Solona,47.2658,23.4034
235,33,SĂLAJ,NĂPRADEA,52,3,26,14,2,3,8,8,53,3,26,12,3,4,11,11,Școala Someș Guruslău,Nr. 229,Someș-Guruslău,47.3113,23.2953
272,33,SĂLAJ,SOMEŞ-ODORHEI,182,10,65,35,10,42,63,74,165,12,63,29,9,38,96,98,Căminul Cultural Someș-Odorhei,Nr. 104,Someș-Odorhei,47.3225,23.2668
71,33,SĂLAJ,ALMAŞU,6,3,5,1,39,1,1,1,6,2,4,1,43,1,1,1,Căminul Cultural Stana,Nr. 96,Stana,46.8873,23.1441
183,33,SĂLAJ,HIDA,28,3,13,8,1,2,0,1,29,3,12,10,1,2,2,2,Căminul Cultural,Nr. 48,Stupini,47.0723,23.3826
39,33,SĂLAJ,MUNICIPIUL ZALĂU,56,1,63,4,4,3,12,14,51,1,66,4,4,5,15,16,Școala Primară Stîna,Nr. 555,Stâna,47.1532,23.1344
185,33,SĂLAJ,HOROATU CRASNEI,38,4,138,6,2,27,5,8,40,5,131,5,2,19,6,10,Căminul Cultural,Nr. 401,Stârciu,47.0893,22.9174
301,33,SĂLAJ,VALCĂU DE JOS,45,4,87,1,2,9,6,10,49,5,83,6,1,9,5,5,Școala cu Clasele I-IV,Nr. 133,Sub Cetate,47.1064,22.7005
277,33,SĂLAJ,SURDUC,202,14,280,14,5,49,55,63,212,17,279,13,3,45,55,60,Căminul Cultural Surduc,Nr. 118,Surduc,47.2552,23.3472
310,33,SĂLAJ,ZIMBOR,14,7,39,2,2,3,3,5,15,4,42,2,3,4,5,5,Căminul Cultural Sutoru,Nr. 50,Sutoru,46.9884,23.2518
264,33,SĂLAJ,SÎG,79,5,78,3,1,2,5,8,79,5,78,6,1,3,4,6,Primăria Sîg,Nr. 1,Sâg,47.077,22.7808
312,33,SĂLAJ,ZIMBOR,25,68,80,11,9,5,12,14,24,66,82,12,9,6,15,17,Școala Primară Sîncraiu Almașului,Nr. 59,Sâncraiu Almașului,46.9565,23.3459
101,33,SĂLAJ,BUCIUMI,55,8,91,6,1,6,2,5,57,10,84,8,1,6,3,4,Școala cu Clasele I-IV,Nr. 93/A,Sângeorgiu de Meseș,47.0442,23.0058
269,33,SĂLAJ,SÎNMIHAIU ALMAŞULUI,135,8,68,18,1,28,4,14,142,10,71,18,1,26,6,6,Sediul Consiliului Local Sînmihaiu Almașului,Nr. 93,Sânmihaiu Almașului,47.0369,23.2672
182,33,SĂLAJ,HIDA,49,1,38,4,1,20,5,10,50,5,37,7,1,17,9,9,Școala Generală,Nr. 146,Sânpetru Almașului,47.0832,23.3377
271,33,SĂLAJ,SÎNMIHAIU ALMAŞULUI,29,2,45,4,2,11,5,12,39,3,45,7,1,7,8,8,Școala cu Clasele I-IV Sîntă Măria,Nr. 73,Sântă Măria,47.0421,23.1995
267,33,SĂLAJ,SÎG,38,3,11,5,1,4,9,11,39,3,10,5,0,4,11,11,Școala Primară Sîrbi,Nr. 24,Sârbi,47.0663,22.7973
94,33,SĂLAJ,BOCŞA,67,5,82,7,2,5,8,10,66,5,82,8,2,5,7,7,Școala cu Clasele I-IV Sălăjeni,Nr. 29,Sălăjeni,47.3183,22.9031
259,33,SĂLAJ,SĂLĂŢIG,26,1,48,11,57,12,3,4,26,1,45,12,61,12,2,2,Școala Gimnazială „Petre Dulfu” Sălățig,Nr. 57,Sălățig,47.3659,23.1389
152,33,SĂLAJ,FILDU DE JOS,9,2,10,1,147,3,1,2,9,2,12,2,147,2,1,1,Școala Primară Tetișu,Nr. 38/A,Tetișu,46.8971,23.044
281,33,SĂLAJ,SURDUC,14,2,22,2,1,2,7,7,14,2,23,2,1,1,7,7,Căminul Cultural Teștioara,Nr. 50,Teștioara,47.2536,23.4243
282,33,SĂLAJ,SURDUC,193,8,193,21,2,26,15,19,191,11,199,13,2,27,13,16,Căminul Cultural Tihău,Nr. 231,Tihău,47.2273,23.3307
210,33,SĂLAJ,LETCA,51,0,19,2,0,3,4,4,49,0,21,5,0,3,1,2,Școala Toplița,Nr. 10,Toplița,47.3595,23.4685
236,33,SĂLAJ,NĂPRADEA,47,5,22,6,1,2,3,4,47,6,19,7,1,3,3,5,Școala Traniș,Nr. 130,Traniș,47.3329,23.3046
181,33,SĂLAJ,HIDA,25,5,28,2,1,2,1,1,25,5,28,2,1,2,1,1,Școala Generală,Nr. 63,Trestia,47.114,23.3335
295,33,SĂLAJ,TREZNEA,228,10,62,7,2,8,2,3,235,11,57,6,1,5,2,2,Școala Gimnazială Treznea,Nr. 81,Treznea,47.1063,23.1058
283,33,SĂLAJ,SURDUC,17,2,72,2,0,3,6,10,19,2,72,2,0,4,6,9,Școala Primară Clasele I-IV Turbuța,Nr. 42,Turbuța,47.2471,23.3102
268,33,SĂLAJ,SÎG,170,3,28,2,0,2,8,16,181,3,26,3,0,3,4,6,Căminul Cultural Tusa,Nr. 100,Tusa,47.044,22.775
139,33,SĂLAJ,CUZĂPLAC,69,5,27,7,1,6,1,11,75,5,28,8,2,7,1,4,Școala cu Clasele I-IV Tămașa nr. 219,Nr. 219,Tămasa,46.9474,23.187
147,33,SĂLAJ,DRAGU,8,1,5,4,1,1,1,1,8,1,6,3,1,1,1,1,Căminul Cultural nr. 20,Nr. 20,Ugruțiu,47.0058,23.3751
224,33,SĂLAJ,MĂERIŞTE,16,2,22,3,87,9,5,6,21,2,21,3,87,9,3,3,Școala cu Clasele I-IV Uileacu Șimleului,Nr. 55,Uileacu Șimleului,47.2791,22.7514
46,33,SĂLAJ,ORAŞ CEHU SILVANIEI,37,5,95,7,207,3,9,11,39,5,92,5,203,2,9,11,Sat Ulciug nr. 6 Grădinița de Copii,Nr. 6,Ulciug,47.4356,23.1878
297,33,SĂLAJ,VALCĂU DE JOS,66,16,173,0,18,24,10,15,77,16,162,0,17,29,8,9,Școala Gimnazială cu Clasele I-VIII,Nr. 100,Valcău de Jos,47.1257,22.7378
298,33,SĂLAJ,VALCĂU DE JOS,109,4,158,4,1,24,8,15,124,5,142,5,2,25,8,10,Școala Gimnazială,Nr. 179,Valcău de Sus,47.116,22.7259
306,33,SĂLAJ,ZALHA,6,0,16,4,1,17,1,1,4,1,14,5,1,16,1,2,Școala cu Clasele I-IV Valea Hranei,Nr. 68,Valea Hranei,47.2244,23.5515
213,33,SĂLAJ,LOZNA,23,3,35,1,1,17,10,13,22,2,38,1,2,17,10,10,Școala cu Clasele I-IV Valea Loznei,Nr. 35,Valea Loznei,47.2603,23.4929
308,33,SĂLAJ,ZALHA,11,3,35,5,0,5,5,5,10,4,35,4,0,5,5,5,Școala cu Clasele I-IV Valea Lungă,Nr. 20,Valea Lungă,47.1664,23.5131
285,33,SĂLAJ,ŞAMŞUD,20,1,7,2,253,0,2,4,19,3,6,2,257,0,2,2,Fosta Grădiniță cu Program Normal,Nr. 73,Valea Pomilor,47.3184,22.9514
55,33,SĂLAJ,ORAŞ JIBOU,90,14,13,55,3,16,8,9,92,19,15,42,4,19,10,10,Școala cu Clasele I-IV,Nr. 103/A,Var,47.2352,23.3022
144,33,SĂLAJ,DOBRIN,10,3,4,1,176,1,1,2,9,2,5,1,180,1,2,2,Școala Elementară Verveghiu,Nr. 108,Verveghiu,47.3146,23.1106
148,33,SĂLAJ,DRAGU,28,1,45,26,1,4,3,8,21,3,44,34,2,4,3,4,Școala cu Clasele I-IV nr. 117,Nr. 117,Voivodeni,47.0549,23.4262
302,33,SĂLAJ,VÎRŞOLŢ,32,5,31,3,616,21,4,5,32,7,30,2,617,17,6,6,Primăria Comunei Vîrșolț,Nr. 168,Vârșolț,47.2058,22.9153
237,33,SĂLAJ,NĂPRADEA,22,2,16,7,1,3,9,9,25,1,16,3,1,4,10,10,Școala Vădurele,Nr. 9,Vădurele,47.333,23.3423
130,33,SĂLAJ,CRISTOLŢ,95,6,29,8,0,5,4,4,97,6,26,7,0,5,6,7,Școala Primară Văleni,Nr. 35/a,Văleni,47.229,23.4452
211,33,SĂLAJ,LETCA,5,0,5,1,0,3,4,6,5,0,7,1,0,3,5,5,Școala Vălișoara,Nr. 11,Vălișoara,47.3806,23.4015
304,33,SĂLAJ,ZALHA,35,7,52,2,1,9,9,12,38,9,51,3,1,9,8,8,Școala Gimnazială nr. 1 Zalha,Nr. 29,Zalha,47.1897,23.5233
91,33,SĂLAJ,BOBOTA,46,2,48,10,3,2,2,5,44,3,53,9,4,1,4,5,Școala Zalnoc,Nr. 22/A,Zalnoc,47.3675,22.6857
1,33,SĂLAJ,MUNICIPIUL ZALĂU,187,105,248,29,289,57,42,50,191,93,270,28,282,59,38,41,Colegiul Național „Silvania”,Str. Unirii (Str. Pieții) nr. 1,Zalău,47.1786,23.0545
2,33,SĂLAJ,MUNICIPIUL ZALĂU,113,59,115,11,352,28,16,27,112,46,138,15,348,25,17,21,Clubul Tineretului,Str. 22 Decembrie 1989 (Piața 30 Decembrie) nr. 3,Zalău,47.1775,23.0553
3,33,SĂLAJ,MUNICIPIUL ZALĂU,178,93,185,23,172,47,19,37,185,90,184,24,172,55,22,25,Grădinița cu Program Prelungit nr. 1,Str. Gheorghe Doja nr. 13/A,Zalău,47.1765,23.058
4,33,SĂLAJ,MUNICIPIUL ZALĂU,119,64,158,19,41,34,27,32,125,62,158,20,39,34,26,30,Primăria Municipiului Zalău,Str. Gheorghe Doja nr. 40,Zalău,47.1733,23.0619
5,33,SĂLAJ,MUNICIPIUL ZALĂU,111,62,144,14,73,30,21,28,119,52,142,24,74,24,23,25,Stadionul Municipal Sediul Clubului Sportiv Municipal,Str. Stadionului nr. 5,Zalău,47.1731,23.0586
6,33,SĂLAJ,MUNICIPIUL ZALĂU,196,112,263,39,102,43,20,27,195,114,257,43,103,47,19,22,Liceul cu Program Sportiv „Avram Iancu”,Str. Avram Iancu (Str. Muncitorilor) nr. 38,Zalău,47.1732,23.0684
7,33,SĂLAJ,MUNICIPIUL ZALĂU,137,83,158,17,94,30,12,21,144,67,169,23,95,29,9,13,Liceul cu Program Sportiv „Avram Iancu”,Str. Avram Iancu (Str. Muncitorilor) nr. 38,Zalău,47.1732,23.0684
8,33,SĂLAJ,MUNICIPIUL ZALĂU,199,91,208,28,128,46,19,26,222,75,209,32,128,40,18,24,Liceul cu Program Sportiv „Avram Iancu”,Str. Avram Iancu (Str. Muncitorilor) nr. 4,Zalău,47.1732,23.0684
9,33,SĂLAJ,MUNICIPIUL ZALĂU,131,77,131,16,104,43,22,36,130,82,133,16,102,42,21,32,Direcția de Sănătate Publică Sălaj,Str. Corneliu Coposu (Str. Republicii) nr. 1,Zalău,47.1791,23.057
10,33,SĂLAJ,MUNICIPIUL ZALĂU,149,87,172,18,117,44,18,24,154,88,177,11,118,44,18,21,Direcția Generală de Administrare Domeniul Public,Piața Iuliu Maniu (Piața Libertății) nr. 35,Zalău,47.1791,23.0567
11,33,SĂLAJ,MUNICIPIUL ZALĂU,203,86,190,23,82,57,33,52,209,88,191,21,85,55,33,44,Școala Gimnazială „Simion Bărnuțiu”,Bulevardul Mihai Viteazu nr. 3,Zalău,47.1804,23.0551
12,33,SĂLAJ,MUNICIPIUL ZALĂU,216,113,202,18,117,74,38,46,241,101,209,19,121,58,37,41,Școala Gimnazială „Gheorghe Lazăr”,Str. Gheorghe Lazăr nr. 3,Zalău,47.1852,23.058
13,33,SĂLAJ,MUNICIPIUL ZALĂU,129,53,96,13,97,34,17,27,131,50,96,12,98,34,18,28,Liceul Tehnologic „Mihai Viteazu”,Str. Tudor Vladimirescu nr. 5,Zalău,47.187,23.059
14,33,SĂLAJ,MUNICIPIUL ZALĂU,173,43,123,26,56,20,12,30,170,35,130,28,59,31,12,21,Liceul Tehnologic „Mihai Viteazu”,Str. Tudor Vladimirescu nr. 5,Zalău,47.187,23.059
15,33,SĂLAJ,MUNICIPIUL ZALĂU,232,76,237,24,74,65,28,39,249,71,239,24,76,51,31,38,Școala Gimnazială „Porolissum”,Str. Porolissum nr. 9,Zalău,47.1897,23.0633
16,33,SĂLAJ,MUNICIPIUL ZALĂU,204,72,181,20,68,39,36,52,210,64,195,21,65,30,39,50,Școala Gimnazială „Porolissum”,Str. Porolissum nr. 9,Zalău,47.1897,23.0633
17,33,SĂLAJ,MUNICIPIUL ZALĂU,190,51,181,26,77,43,23,36,191,49,177,27,75,49,25,33,Școala Gimnazială „Iuliu Maniu”,Bulevardul Mihai Viteazu nr. 35,Zalău,47.1904,23.0588
18,33,SĂLAJ,MUNICIPIUL ZALĂU,139,33,97,17,18,17,9,11,138,30,97,23,17,16,11,12,Grădinița cu Program Prelungit „Voinicel”,Str. Sfânta Vineri (Str. Primăverii) nr. 3,Zalău,47.1932,23.0579
19,33,SĂLAJ,MUNICIPIUL ZALĂU,138,39,126,20,57,36,19,24,135,40,125,23,56,37,19,20,Grădinița cu Program Prelungit „Voinicel”,Str. Sfânta Vineri (Str. Primăverii) nr. 3,Zalău,47.1932,23.0579
20,33,SĂLAJ,MUNICIPIUL ZALĂU,215,54,193,21,77,45,17,28,228,46,181,26,81,44,19,31,Sala Sporturilor,Bulevardul Mihai Viteazu nr. 49,Zalău,47.1957,23.0596
21,33,SĂLAJ,MUNICIPIUL ZALĂU,171,85,226,21,34,48,21,33,180,80,236,18,36,43,20,26,Sala Sporturilor,Bulevardul Mihai Viteazu nr. 49,Zalău,47.1957,23.0596
22,33,SĂLAJ,MUNICIPIUL ZALĂU,155,47,121,32,32,23,3,8,157,48,117,29,34,24,9,12,Școala Gimnazială „Corneliu Coposu”,Str. Simion Bărnuțiu nr. 75,Zalău,47.2001,23.044
23,33,SĂLAJ,MUNICIPIUL ZALĂU,181,65,201,36,52,51,14,19,186,71,199,39,52,48,10,12,Școala Gimnazială „Corneliu Coposu”,Str. Simion Bărnuțiu nr. 75,Zalău,47.2001,23.044
24,33,SĂLAJ,MUNICIPIUL ZALĂU,152,52,163,8,38,31,12,16,146,49,171,9,38,32,13,15,Școala Gimnazială „Corneliu Coposu”,Str. Simion Bărnuțiu nr. 75,Zalău,47.2001,23.044
25,33,SĂLAJ,MUNICIPIUL ZALĂU,116,48,155,12,69,19,16,20,118,46,156,10,72,17,16,21,Școala Gimnazială „Corneliu Coposu”,Str. Simion Bărnuțiu nr. 75,Zalău,47.2001,23.044
26,33,SĂLAJ,MUNICIPIUL ZALĂU,162,70,201,32,61,37,10,12,170,67,199,24,61,39,11,15,Liceul Tehnologic „Voievod Gelu”,Str. Simion Bărnuțiu nr. 51,Zalău,47.1968,23.0483
27,33,SĂLAJ,MUNICIPIUL ZALĂU,177,89,168,25,47,39,21,28,196,85,165,23,48,29,25,28,Liceul Tehnologic „Voievod Gelu”,Str. Simion Bărnuțiu nr. 51,Zalău,47.1968,23.0483
28,33,SĂLAJ,MUNICIPIUL ZALĂU,171,82,155,18,39,38,14,22,170,69,168,21,39,40,15,21,Liceul Tehnologic „Voievod Gelu”,Str. Simion Bărnuțiu nr. 51,Zalău,47.1968,23.0483
29,33,SĂLAJ,MUNICIPIUL ZALĂU,206,69,241,36,81,44,24,33,207,61,236,44,80,48,27,32,Grădinița cu Program Normal nr. 8,Nr. 8,Zalău,47.195,23.0507
30,33,SĂLAJ,MUNICIPIUL ZALĂU,206,66,180,33,68,46,29,37,218,62,192,35,68,31,27,29,Liceul de Artă „Ioan Sima”,Str. Torentului nr. 9,Zalău,47.1914,23.0482
31,33,SĂLAJ,MUNICIPIUL ZALĂU,193,60,156,16,71,46,19,27,206,64,151,16,72,32,19,23,Școala Postliceală Sanitară,Str. Torentului nr. 1,Zalău,47.1921,23.05
32,33,SĂLAJ,MUNICIPIUL ZALĂU,177,58,205,19,65,40,21,25,185,57,196,20,63,37,24,28,Grădinița cu Program Prelungit nr. 11,Nr. 7,Zalău,47.1946,23.0549
33,33,SĂLAJ,MUNICIPIUL ZALĂU,162,32,122,17,81,23,16,24,169,36,124,15,80,17,17,22,Colegiul Tehnic „Alesandru Papiu Ilarian”,Nr. 6,Zalău,47.1893,23.0562
34,33,SĂLAJ,MUNICIPIUL ZALĂU,138,39,92,12,64,40,18,25,141,42,104,10,59,33,18,22,Colegiul Tehnic „Alesandru Papiu Ilarian”,Nr. 6,Zalău,47.1893,23.0562
35,33,SĂLAJ,MUNICIPIUL ZALĂU,198,82,183,23,111,41,24,26,200,81,183,23,110,39,23,25,Liceul Teoretic „Gheorghe Șincai”,Str. Crișan nr. 15/A,Zalău,47.1868,23.054
36,33,SĂLAJ,MUNICIPIUL ZALĂU,203,78,214,34,94,57,28,37,202,85,222,33,94,51,29,33,Școala Gimnazială „Mihai Eminescu”,Str. Crișan nr. 15/A,Zalău,47.1871,23.0548
37,33,SĂLAJ,MUNICIPIUL ZALĂU,194,86,146,13,82,47,19,27,197,84,154,12,77,45,21,26,Club S.C. Compania de Apă Someș S.A. Sucursala Municipiului Zalău,Bulevardul Mihai Viteazu nr. 25,Zalău,47.1857,23.0558
38,33,SĂLAJ,MUNICIPIUL ZALĂU,232,35,202,24,2,16,16,26,234,30,209,23,2,18,15,19,"Școala Generală „George Coșbuc”, Cartier Ortelec",Str. Moigradului nr. 3,Zalău,47.2062,23.0925
311,33,SĂLAJ,ZIMBOR,59,12,158,2,5,6,8,12,59,7,163,5,4,9,5,8,Primăria Comunei Zimbor,Nr. 116,Zimbor,47.0035,23.2621
202,33,SĂLAJ,IP,12,2,4,1,336,2,2,5,13,2,3,3,335,2,1,1,Căminul Cultural Zăuan,Nr. 51,Zăuan,47.2245,22.6611
284,33,SĂLAJ,ŞAMŞUD,16,1,2,3,511,2,1,6,15,3,4,2,511,2,1,2,Primăria Comunei Șamșud,Nr. 38,Șamșud,47.345,22.9491
195,33,SĂLAJ,ILEANDA,13,1,11,2,1,7,2,4,12,1,12,4,1,6,2,3,Școala Generală,Nr. 24,Șasa,47.3746,23.6385
186,33,SĂLAJ,HOROATU CRASNEI,69,2,36,5,1,1,4,8,72,5,34,6,2,1,4,6,Căminul Cultural,Nr. 197,Șeredeiu,47.1099,22.9497
293,33,SĂLAJ,ŞIMIŞNA,216,8,58,4,3,9,1,5,212,12,58,5,2,8,5,5,Școala Gimnazială Șimișna,Nr. 67,Șimișna,47.234,23.6225
56,33,SĂLAJ,ORAŞ ŞIMLEU SILVANIEI,181,39,231,6,91,43,26,33,196,43,217,12,91,43,20,23,Școala Gimnazială „Horea”,Str. Horea nr. 26,Șimleu Silvaniei,47.2254,22.8061
57,33,SĂLAJ,ORAŞ ŞIMLEU SILVANIEI,154,38,194,10,184,32,23,34,160,37,196,12,182,33,15,19,Liceul Tehnologic „Ioan Ossian”,Str. Simion Bărnuțiu nr. 11,Șimleu Silvaniei,47.2309,22.8046
58,33,SĂLAJ,ORAŞ ŞIMLEU SILVANIEI,121,35,193,13,198,19,25,33,117,38,200,14,208,21,13,16,Centrul Cultural,Str. Andrei Mureșan nr. 1,Șimleu Silvaniei,47.233,22.795
59,33,SĂLAJ,ORAŞ ŞIMLEU SILVANIEI,154,34,214,16,173,36,17,31,168,36,203,15,182,35,13,20,Colegiul Tehnic „Iuliu Maniu”,Str. Mihail Kogălniceanu nr. 11,Șimleu Silvaniei,47.2297,22.7961
60,33,SĂLAJ,ORAŞ ŞIMLEU SILVANIEI,159,23,220,10,126,34,16,41,164,34,208,10,132,40,16,25,Centrul Școlar Pentru Educație Incluzivă,Str. Nicolae Bălcescu nr. 19,Șimleu Silvaniei,47.2294,22.7908
61,33,SĂLAJ,ORAŞ ŞIMLEU SILVANIEI,167,46,236,18,126,37,25,40,175,47,240,18,128,37,15,26,Clubul Copiilor,Str. 1 Decembrie 1918 (Str. Dunării) nr. 55,Șimleu Silvaniei,47.2338,22.7906
62,33,SĂLAJ,ORAŞ ŞIMLEU SILVANIEI,157,26,220,3,104,27,12,14,157,18,226,2,106,25,15,16,Grădinița cu Program Prelungit nr. 3,Str. Ghioceilor nr. 18,Șimleu Silvaniei,47.2283,22.7909
274,33,SĂLAJ,SOMEŞ-ODORHEI,71,5,11,1,1,24,12,13,60,4,10,2,2,33,12,13,Căminul Cultural Șoimuș,Nr. 31,Șoimuș,47.2995,23.1841
209,33,SĂLAJ,LETCA,33,1,6,1,1,5,3,3,33,1,4,2,1,3,5,5,Școala Șoimușeni,Nr. 47,Șoimușeni,47.3363,23.3767
218,33,SĂLAJ,MARCA,35,6,79,3,1,3,15,21,34,7,75,3,1,4,18,23,Căminul Cultural Șumal,Nr. 237,Șumal,47.2799,22.5621
286,33,SĂLAJ,ŞĂRMĂŞAG,16,4,1,1,563,2,1,2,13,4,3,1,561,2,2,2,Centrul Cultural Comunitar Șărmășag,Str. Teilor nr. 71/A,Șărmășag,47.3455,22.8311
287,33,SĂLAJ,ŞĂRMĂŞAG,21,0,12,4,425,3,2,3,24,0,10,3,429,4,3,3,Liceul Tehnologic nr. 1 Șărmășag,Str. Primăverii nr. 15,Șărmășag,47.3489,22.824
288,33,SĂLAJ,ŞĂRMĂŞAG,7,2,4,1,477,3,1,2,6,2,5,3,470,3,1,1,Grădinița de Copii nr. 3 Șărmășag,Str. Garoafelor nr. 3,Șărmășag,47.3541,22.8232
289,33,SĂLAJ,ŞĂRMĂŞAG,87,15,43,7,183,12,5,12,91,16,41,7,188,9,10,12,Școala Generală nr. 2 Șărmășag,Str. Minerilor nr. 9/A,Șărmășag,47.3653,22.8188
72,33,SĂLAJ,ALMAŞU,19,0,38,6,2,2,1,3,18,0,37,9,2,2,1,2,Școala cu Clasele I-IV Țăudu,Nr. 47,Țăudu,46.9849,23.0469