id,nr_circumscriptie,circumscriptie,localitate,psd_cdep,usr_cdep,pnl_cdep,pmp_cdep,udmr_cdep,alde_cdep,pru_cdep,altele_cdep,psd_senat,usr_senat,pnl_senat,pmp_senat,udmr_senat,alde_senat,pru_senat,altele_senat,name,address,city,lat,lng
159,40,VÂLCEA,AMĂRĂŞTI,202,22,57,9,0,7,39,62,196,24,61,16,0,8,40,56,Școala Gimnazială Amărăști,,Amărăști,44.7717,24.1496
241,40,VÂLCEA,GLĂVILE,100,0,11,4,1,2,2,4,97,0,14,5,1,1,2,5,Școala Primară Aninoasa,,Aninoasa,44.7938,24.153
184,40,VÂLCEA,CERNIŞOARA,131,1,32,5,0,11,2,16,134,2,30,5,0,10,6,18,Școala cu Clasele I-VIII Armășești,,Armășești,45.0178,24.0114
344,40,VÂLCEA,RACOVIŢA,41,2,79,7,0,5,4,11,45,2,74,8,0,7,4,8,Căminul Cultural Balota,,Balota,45.4324,24.2944
322,40,VÂLCEA,PĂUŞEŞTI,115,1,119,6,1,12,3,8,114,2,119,6,1,10,5,11,Școala Primară Barcanele,,Barcanele,45.0815,24.1289
172,40,VÂLCEA,BUDEŞTI,168,16,69,13,2,9,3,22,179,15,73,11,2,7,2,15,Școala Barza,,Barza,45.0506,24.3728
219,40,VÂLCEA,FÎRTĂŢEŞTI,91,8,61,10,0,9,11,17,93,9,64,10,0,9,11,15,Fosta Școală Dejoi,,Becșani,44.8153,24.0142
120,40,VÂLCEA,ORAŞ BĂLCEŞTI,61,1,21,7,1,2,1,9,71,1,20,7,1,2,1,7,Școala Primară Benești,,Benești,44.6599,23.9047
259,40,VÂLCEA,LALOŞU,62,1,21,2,3,7,16,24,63,1,20,2,3,14,14,17,Școala Primară Berbești,,Berbești,44.5128,24.0588
175,40,VÂLCEA,BUDEŞTI,65,4,89,4,1,3,3,7,63,6,87,5,0,3,2,6,Școala Bercioiu,,Bercioiu,45.0029,24.3157
164,40,VÂLCEA,BERISLĂVEŞTI,288,9,48,7,0,9,2,7,285,9,46,6,0,13,2,10,Căminul Cultural Stoenești,,Berislăvești,45.26,24.4239
198,40,VÂLCEA,COSTEŞTI,205,6,40,7,1,10,12,32,216,7,39,8,1,5,8,26,Școala cu Clasele I-IV Bistrița,,Bistrița,45.1778,24.0443
244,40,VÂLCEA,GOLEŞTI,187,11,82,12,1,58,13,27,181,7,82,9,1,61,17,35,Școala Blidari,,Blidari,45.0674,24.44
156,40,VÂLCEA,ALUNU,48,3,27,16,1,7,2,3,47,3,24,14,1,10,1,1,"Fostul Local al Grădiniței cu Program Normal Bodești, Sat Bodești",,Bodești,45.0597,23.8094
161,40,VÂLCEA,BĂRBĂTEŞTI,199,10,23,8,4,15,5,18,205,11,24,8,3,13,6,18,Fosta Școală cu Clasele I-IV Bodești,,Bodești,45.1418,24.1139
179,40,VÂLCEA,BUJORENI,96,3,47,2,3,26,12,24,93,4,47,4,1,31,10,26,Școala cu Clasele I-IV Bogdănești,,Bogdănești,45.1779,24.3486
411,40,VÂLCEA,TOMŞANI,208,10,40,15,0,25,7,21,210,12,35,14,0,20,7,27,Căminul Cultural Bogdănești,,Bogdănești,45.1377,24.0335
169,40,VÂLCEA,BOIŞOARA,79,7,219,6,0,3,6,17,75,7,217,7,0,6,4,20,Școala cu Clasele I-VIII Boișoara,,Boișoara,45.4425,24.3734
235,40,VÂLCEA,GALICEA,90,4,41,2,6,2,3,5,93,4,40,1,6,2,2,5,Școala Bratia din Deal,,Bratia din Deal,44.9646,24.2987
234,40,VÂLCEA,GALICEA,111,5,27,4,4,6,2,4,104,6,29,5,4,7,2,4,Școala Bratia din Vale,,Bratia din Vale,44.9568,24.2825
407,40,VÂLCEA,TITEŞTI,29,0,56,2,0,7,4,6,25,1,53,2,0,9,4,7,Școala cu Clasele I-IV Bratovești,,Bratovești,45.4119,24.3625
130,40,VÂLCEA,ORAŞ BREZOI,183,19,78,21,1,27,15,39,189,17,76,20,1,31,18,31,Școala cu Clasele I-IV nr. 2 Brezoi,Str. Panduri,Brezoi,45.3435,24.2397
131,40,VÂLCEA,ORAŞ BREZOI,134,14,56,11,0,20,12,28,139,15,52,10,0,19,13,27,Grădinița cu Program Normal nr. 1- Parter,Str. Unirii nr. 22,Brezoi,45.3423,24.247
132,40,VÂLCEA,ORAŞ BREZOI,191,11,65,18,1,19,15,28,202,12,61,14,2,18,15,29,Grădinița cu Program Normal nr. 1- Parter,Str. Unirii nr. 22,Brezoi,45.3423,24.247
133,40,VÂLCEA,ORAŞ BREZOI,155,11,69,14,0,16,3,24,157,11,68,13,1,21,4,22,Școala cu Clasele I-IV nr. 1 Brezoi,Str. Eroilor (Str. 23 August) nr. 128,Brezoi,45.337,24.2499
134,40,VÂLCEA,ORAŞ BREZOI,104,7,46,9,1,6,6,21,103,8,45,10,3,8,4,15,Magazia Miniera,Str. Eroilor (Str. 23 August) nr. 37,Brezoi,45.3334,24.2692
269,40,VÂLCEA,LĂPUŞATA,136,0,53,25,0,6,0,29,144,2,55,20,0,9,2,15,Școala Primară Broșteni,,Broșteni,44.9405,24.0015
405,40,VÂLCEA,TETOIU,44,1,51,2,0,4,1,9,45,0,50,2,0,3,1,7,Școala Generală cu Clasele. I-IV Budele,,Budele,44.8321,23.8998
170,40,VÂLCEA,BUDEŞTI,183,31,133,21,1,15,15,53,175,28,141,23,1,25,18,39,Căminul Cultural Budești,,Budești,45.0641,24.3882
212,40,VÂLCEA,DICULEŞTI,162,3,84,2,0,4,4,16,162,2,80,3,0,4,4,14,Școala cu Clasele I-IV Budești,,Budești,44.6,23.9817
291,40,VÂLCEA,MIHĂEŞTI,242,26,80,9,1,17,48,74,230,22,75,7,1,21,74,92,Grădinița Buleta,,Buleta,45.0386,24.2533
181,40,VÂLCEA,BUNEŞTI,323,12,39,9,0,14,6,24,323,8,41,11,0,13,9,33,Școala cu Clasele I-VIII Bunești,,Bunești,45.1077,24.1956
325,40,VÂLCEA,PĂUŞEŞTI,93,2,46,5,2,10,9,18,95,3,42,6,1,11,9,18,Școala Gimnazială Șerbănești,,Buzdugan,45.0567,24.1445
374,40,VÂLCEA,STOENEŞTI,65,18,86,5,0,7,1,8,60,13,92,7,0,9,2,9,Căminul Cultural Bârlogu,,Bârlogu,45.1103,24.1508
173,40,VÂLCEA,BUDEŞTI,159,15,90,15,1,8,5,19,164,14,85,17,1,8,5,17,Școala Bîrsești,,Bârsești,45.04,24.3493
294,40,VÂLCEA,MIHĂEŞTI,140,16,24,5,0,4,11,30,133,14,27,6,0,4,20,37,Școala cu Clasele I-IV Bîrsești,,Bârsești,45.0239,24.2862
381,40,VÂLCEA,STOILEŞTI,171,2,55,3,0,3,2,10,169,2,51,3,0,6,4,9,Școala cu Clasele I-IV Bîrsoiu,,Bârsoiu,44.8826,24.3457
163,40,VÂLCEA,BĂRBĂTEŞTI,162,29,40,17,0,7,3,19,167,28,36,16,1,11,3,13,Fosta Școală cu Clasele I-IV Bârzești,,Bârzești,45.1299,24.1122
104,40,VÂLCEA,ORAŞ BĂBENI,324,18,180,16,0,48,7,37,337,19,146,29,0,62,5,27,Primăria Orașului Băbeni,Nr. 167,Băbeni,44.9752,24.235
105,40,VÂLCEA,ORAŞ BĂBENI,195,25,116,22,2,20,7,27,208,27,101,27,1,27,3,18,Liceul „George Țărnea” Băbeni,Nr. 134,Băbeni,44.9705,24.2353
106,40,VÂLCEA,ORAŞ BĂBENI,134,6,93,15,0,28,1,10,138,6,84,18,0,31,3,12,S.C. Alfa Farm S.R.L.,Nr. 16,Băbeni,44.959,24.2372
107,40,VÂLCEA,ORAŞ BĂBENI,139,4,102,2,2,54,18,26,144,5,86,2,2,60,17,22,Școala Generală cu Clasele I-IV Valea Mare,Nr. 1,Băbeni,44.9507,24.2408
108,40,VÂLCEA,ORAŞ BĂBENI,242,3,54,8,1,12,3,8,247,1,51,8,1,11,5,8,"Școala Gimnazială, Sat Valea Mare, Oraș Băbeni",Nr. 484,Băbeni,44.9373,24.2371
109,40,VÂLCEA,ORAŞ BĂBENI,96,9,43,10,2,31,6,17,101,10,36,13,1,33,7,15,Școala Generală Tătărani,Nr. 31,Băbeni,44.9839,24.2444
110,40,VÂLCEA,ORAŞ BĂBENI,244,3,190,23,0,25,5,13,267,7,154,24,0,19,12,23,Școala Generală Români,Nr. 99,Băbeni,44.9725,24.2033
111,40,VÂLCEA,ORAŞ BĂBENI,60,5,29,1,1,2,0,2,65,5,17,4,1,3,1,6,Școala Pădurețu,Nr. 2,Băbeni,44.9758,24.1692
211,40,VÂLCEA,DICULEŞTI,197,9,89,9,2,7,4,11,200,10,87,6,2,6,4,11,Școala cu Clasele I-VIII Băbeni-Oltețu,,Băbeni-Oltețu,44.6085,23.9769
206,40,VÂLCEA,DĂEŞTI,14,0,25,0,0,1,1,3,14,0,24,1,0,1,1,3,Școala Băbuești,,Băbuești,45.2086,24.4088
345,40,VÂLCEA,ROEŞTI,144,9,24,18,4,5,12,17,139,8,30,12,4,9,13,21,Școala cu Clasele I-IV Roești,,Băiașa,44.9198,24.0702
118,40,VÂLCEA,ORAŞ BĂLCEŞTI,158,9,90,12,2,20,7,48,168,11,90,8,1,15,10,47,Liceul Tehnologic Petrache Poenaru,,Bălcești,44.6189,23.9412
119,40,VÂLCEA,ORAŞ BĂLCEŞTI,160,4,45,6,2,10,8,24,158,6,49,4,1,9,11,27,Liceul Tehnologic Petrache Poenaru,,Bălcești,44.6189,23.9412
195,40,VÂLCEA,COPĂCENI,78,0,25,6,1,7,4,12,77,1,26,8,1,6,6,11,Școala cu Clasele I-IV Bălteni,,Bălteni,45.0186,23.9484
287,40,VÂLCEA,MĂDULARI,107,0,34,2,2,2,2,4,105,0,35,2,2,1,1,2,Școala cu Clasele I-IV Bălșoara,,Bălșoara,44.6783,24.1232
288,40,VÂLCEA,MĂDULARI,92,0,29,1,1,1,3,7,94,0,28,1,2,0,2,8,Școala cu Clasele. I-IV Bănțești,,Bănțești,44.684,24.074
340,40,VÂLCEA,PRUNDENI,274,4,17,19,0,30,4,19,272,4,20,21,1,28,3,14,Școala Bărbuceni,Str. George Călinescu nr. 2,Bărbuceni,44.7538,24.2418
348,40,VÂLCEA,ROEŞTI,65,0,40,4,1,3,11,13,60,1,40,6,1,4,9,14,Școala cu Clasele I-IV Bărbărigeni,,Bărbărigeni,44.8829,24.0628
162,40,VÂLCEA,BĂRBĂTEŞTI,379,10,35,28,3,20,13,31,381,15,32,27,2,13,12,26,Căminul Cultural Bărbătești,,Bărbătești,45.1695,24.118
401,40,VÂLCEA,TETOIU,86,0,34,13,0,14,1,8,84,0,36,12,0,16,2,4,Școala cu Clasele I-IV Băroiu,,Băroiu,44.7116,23.9186
418,40,VÂLCEA,VALEA MARE,102,0,40,5,1,2,0,6,103,0,40,6,1,2,0,8,Școala cu Clasele I-VIII Bătășani,,Bătășani,44.6788,23.9913
311,40,VÂLCEA,OLANU,124,7,121,7,0,7,18,24,120,7,124,8,0,5,21,29,Școala cu Clasele. I-IV Casa Veche,,Casa Veche,44.8671,24.3125
210,40,VÂLCEA,DĂNICEI,109,1,33,0,1,2,0,9,68,3,70,2,1,2,0,9,Școala Primară Ceretu,,Ceretu,44.8865,24.4539
324,40,VÂLCEA,PĂUŞEŞTI,109,1,71,6,0,19,5,25,112,2,63,6,0,20,9,28,Căminul Cultural Șerbănești,,Cernelele,45.0585,24.1485
185,40,VÂLCEA,CERNIŞOARA,186,1,44,8,2,16,9,28,191,1,46,6,2,13,10,26,Școala cu Clasele I-VIII Cernișoara,,Cernișoara,45.0446,23.9623
117,40,VÂLCEA,ORAŞ BĂILE OLĂNEŞTI,274,0,69,7,2,22,10,40,277,1,69,10,2,21,11,30,Școala Gimnazială Ionescu Cheianu,Str. Cheia nr. 80,Cheia,45.1828,24.2154
266,40,VÂLCEA,LĂDEŞTI,146,3,25,11,0,7,11,22,146,2,26,4,2,9,13,22,Școala Primară Chiricești,,Chiricești,44.8697,24.0601
312,40,VÂLCEA,OLANU,136,5,117,0,0,5,2,6,134,6,114,0,0,5,4,11,Școala cu Clasele I-IV Cioboți,,Cioboți,44.8551,24.2885
346,40,VÂLCEA,ROEŞTI,164,2,40,6,1,2,4,10,164,2,40,6,1,2,4,10,Școala cu Clasele I-VIII Ciocîltei,,Ciocâltei,44.9364,24.0725
390,40,VÂLCEA,ŞIRINEASA,160,1,34,10,0,18,1,6,163,3,29,11,0,15,0,8,Școala Primară Ciorăști,,Ciorăști,44.9558,24.1619
383,40,VÂLCEA,STROEŞTI,138,7,75,8,0,10,12,22,140,7,72,7,0,12,14,22,Școala cu Clasele I-VIII Cireșu,,Cireșu,45.0563,23.9125
278,40,VÂLCEA,MALAIA,55,10,49,5,0,37,3,5,56,9,47,4,0,39,3,6,Școala Primară Ciunget,,Ciungetu,45.387,23.9535
300,40,VÂLCEA,MILCOIU,64,0,57,2,2,4,2,6,68,0,55,3,2,2,1,4,Grădinița Ciutești,,Ciutești,45.0481,24.4962
233,40,VÂLCEA,GALICEA,178,4,78,5,0,4,4,12,184,4,76,6,0,1,4,14,Școala Cocoru,,Cocoru,44.9458,24.2967
157,40,VÂLCEA,ALUNU,288,14,30,14,2,122,13,23,306,13,27,14,4,115,19,26,"Grădinița cu Program Normal Coltești, Sat Coltești",,Coltești,44.9822,23.8286
262,40,VÂLCEA,LĂCUSTENI,43,2,48,4,0,3,8,11,44,1,43,4,0,5,8,12,Școala cu Clasele V-VIII Lăcusteni,,Contea,44.7108,23.9021
306,40,VÂLCEA,NICOLAE BĂLCESCU,115,1,38,10,1,12,7,13,119,1,36,9,1,11,7,13,Școala cu Clasele I-IV Corbi,,Corbii din Vale,44.9934,24.4662
197,40,VÂLCEA,COSTEŞTI,413,55,80,21,1,26,29,66,419,60,80,24,3,37,25,48,Școala cu Clasele I-VIII Costești,,Costești,45.1489,24.0589
226,40,VÂLCEA,FRÎNCEŞTI,178,3,66,4,1,8,10,26,187,5,64,5,1,8,12,20,Școala Generală cu Clasele I-IV Coșani,,Coșani,45.0075,24.1907
236,40,VÂLCEA,GALICEA,116,6,25,3,13,8,3,15,113,6,29,3,13,8,5,11,Căminul Cultural Cremenari,,Cremenari,44.9811,24.3133
200,40,VÂLCEA,CREŢENI,213,14,58,22,0,11,14,27,214,17,55,22,1,8,12,29,Școala Gimnazială Crețeni,,Crețeni,44.6974,24.1828
361,40,VÂLCEA,SCUNDU,274,3,28,1,0,8,11,35,262,2,29,1,0,23,11,26,Școala cu Clasele I-VIII Avrămești,,Crângu,44.8628,24.1649
347,40,VÂLCEA,ROEŞTI,111,4,46,10,1,1,10,21,105,4,49,7,1,5,12,24,Școala cu Clasele I-VIII Cueni,,Cueni,44.8916,24.0664
112,40,VÂLCEA,ORAŞ BĂILE GOVORA,241,24,163,12,1,32,11,61,236,21,174,18,2,39,12,50,Sala de Căsătorii a Primăriei,Nr. 75-77,Curăturile,45.0724,24.2058
190,40,VÂLCEA,CÎINENI,88,12,56,5,3,10,4,12,91,11,56,7,3,9,3,12,Școala Gimnazială Cîinenii Mari,,Câinenii Mari,45.4993,24.2948
189,40,VÂLCEA,CÎINENI,83,9,39,10,1,9,5,11,83,6,42,12,1,8,4,11,Școala Primară Cîinenii Mici,,Câinenii Mici,45.4958,24.3096
318,40,VÂLCEA,OTEŞANI,201,6,162,7,0,14,10,30,200,5,167,7,0,16,10,26,Școala Cîrstănești,,Cârstănești,45.0452,24.0422
136,40,VÂLCEA,ORAŞ CĂLIMĂNEŞTI,93,5,64,7,0,11,3,11,94,4,67,11,0,14,1,7,Școala Generală cu Clasele I-IV Seaca,"Str. Calea lui Traian (Str. Maxim Gorki, Str. Ștefan Gheorghiu, Str. V. I. Lenin) nr. 15",Călimănești,45.2192,24.3491
137,40,VÂLCEA,ORAŞ CĂLIMĂNEŞTI,183,17,86,19,0,46,11,38,184,17,77,13,0,67,8,30,Liceul Tehnologic de Turism Călimănești (Sală Cantină Restaurant),"Str. Calea lui Traian (Str. Maxim Gorki, Str. Ștefan Gheorghiu, Str. V. I. Lenin) nr. 278",Călimănești,45.2401,24.3421
138,40,VÂLCEA,ORAŞ CĂLIMĂNEŞTI,203,14,90,16,2,35,7,36,189,10,86,14,1,48,12,41,Școala Gimnazială „Șerban Vodă Cantacuzino” Călimănești,"Str. Calea lui Traian (Str. Maxim Gorki, Str. Ștefan Gheorghiu, Str. V. I. Lenin) nr. 289",Călimănești,45.2398,24.3411
139,40,VÂLCEA,ORAŞ CĂLIMĂNEŞTI,252,10,94,17,1,39,10,41,240,11,95,16,1,59,10,34,Școala Generală cu Clasele I-IV Călimănești (Deal),Str. Tudor Vladimirescu nr. 40,Călimănești,45.2386,24.3388
140,40,VÂLCEA,ORAŞ CĂLIMĂNEŞTI,110,16,33,14,0,14,7,29,104,16,34,15,0,23,5,24,Centrul de Informare Turistică Călimănești,"Str. Calea lui Traian (Str. Maxim Gorki, Str. Ștefan Gheorghiu, Str. V. I. Lenin) nr. 708",Călimănești,45.2498,24.3374
141,40,VÂLCEA,ORAŞ CĂLIMĂNEŞTI,96,11,60,11,1,15,7,23,96,13,60,10,1,18,6,19,Hotel Traian (Cofetăria),"Str. Calea lui Traian (Str. Maxim Gorki, Str. Ștefan Gheorghiu, Str. V. I. Lenin) nr. 559",Călimănești,45.2593,24.3211
142,40,VÂLCEA,ORAŞ CĂLIMĂNEŞTI,131,9,48,9,0,15,2,22,123,9,38,9,0,36,2,22,Școala Gimnazială Jiblea Veche,Nr. 10,Călimănești,45.2413,24.3517
143,40,VÂLCEA,ORAŞ CĂLIMĂNEŞTI,155,13,68,15,1,7,6,31,150,12,70,12,0,19,6,29,Școala Gimnazială Jiblea Veche,Nr. 10,Călimănești,45.2413,24.3517
144,40,VÂLCEA,ORAŞ CĂLIMĂNEŞTI,158,9,60,9,1,20,2,16,150,9,63,9,1,24,4,13,Școala Primară Jiblea Nouă,Str. Ion Luca Caragiale nr. 10,Călimănești,45.2221,24.3549
339,40,VÂLCEA,PRUNDENI,350,13,30,8,0,26,17,30,338,14,34,10,0,26,16,30,Școala Călina,Nr. 292,Călina,44.7017,24.2534
135,40,VÂLCEA,ORAŞ BREZOI,153,6,25,5,2,3,1,13,152,5,26,6,0,3,3,14,Căminul Cultural Călinești,Nr. 146,Călinești,45.3693,24.2912
220,40,VÂLCEA,FÎRTĂŢEŞTI,120,2,19,2,1,2,3,8,121,2,17,2,1,2,2,6,Fosta Școală Cățetu,,Cățetu,44.8218,23.9582
124,40,VÂLCEA,ORAŞ BERBEŞTI,125,10,46,9,0,47,10,27,128,10,43,8,0,47,13,27,Grădinița nr. 1 (Peco),,Dealu Aluniș,44.9911,23.8708
125,40,VÂLCEA,ORAŞ BERBEŞTI,177,9,67,12,0,87,9,25,186,8,74,8,0,81,8,20,Grădinița nr. 2 Blocuri,,Dealu Aluniș,44.9861,23.8691
208,40,VÂLCEA,DĂNICEI,44,0,68,0,2,3,2,5,49,0,71,0,2,1,1,4,Școala Primară Dealu Scheiului,,Dealu Scheiului,44.953,24.4581
429,40,VÂLCEA,ZĂTRENI,64,0,9,8,0,5,3,9,63,0,11,5,0,4,3,9,Școala Dealul Văleni,,Dealu Văleni,44.7891,23.8015
254,40,VÂLCEA,IONEŞTI,158,6,22,10,0,10,6,14,154,4,21,10,0,11,9,21,Școala FiȘcolia,,Delureni,44.8165,24.2455
416,40,VÂLCEA,VALEA MARE,88,4,47,3,0,9,1,6,96,3,46,1,2,9,1,4,Școala cu Clasele I-IV Delureni,,Delureni,44.6401,23.995
227,40,VÂLCEA,FRÎNCEŞTI,131,2,60,2,0,4,32,39,133,1,59,4,0,4,30,37,Grădinița Dezrobiți,,Dezrobiți,45.0286,24.1826
384,40,VÂLCEA,STROEŞTI,134,0,9,3,1,18,5,11,131,1,11,4,1,13,5,12,Școala cu Clasele I-VIII Dianu,,Dianu,45.0852,23.9415
249,40,VÂLCEA,GRĂDIŞTEA,130,1,59,12,0,11,8,18,133,2,56,12,1,11,5,12,Școala cu Clasele I-VIII Dobricea,,Dobricea,44.8903,23.8496
375,40,VÂLCEA,STOENEŞTI,235,7,150,8,0,6,2,20,231,10,149,9,0,5,7,20,Școala Gimnazială Dobriceni,,Dobriceni,45.1567,24.1422
394,40,VÂLCEA,ŞTEFĂNEŞTI,114,7,49,10,1,40,12,22,110,9,51,7,1,40,10,18,Școala Generală cu Clasele. I-IV Dobrușa de Jos,,Dobrușa,44.6167,24.2227
395,40,VÂLCEA,ŞTEFĂNEŞTI,163,0,49,6,1,17,15,26,167,1,52,8,1,17,13,20,Grădinița Dobrușa de Sus,,Dobrușa,44.6251,24.2068
221,40,VÂLCEA,FÎRTĂŢEŞTI,163,7,56,3,0,16,15,28,160,7,52,6,1,18,19,26,Școala cu Clasele I-VIII Dozești,,Dozești,44.7959,23.9599
420,40,VÂLCEA,VALEA MARE,136,3,31,1,1,12,4,10,138,4,29,1,1,11,4,7,Căminul Cultural Drăgani,,Drăganu,44.7113,24.0003
313,40,VÂLCEA,OLANU,118,2,79,10,0,16,4,10,113,3,78,12,0,17,6,10,Școala cu Clasele I-IV Drăgioiu,,Drăgioiu,44.8813,24.2899
213,40,VÂLCEA,DRĂGOEŞTI,157,5,109,3,0,37,7,21,147,4,119,6,0,37,4,20,Școala cu Clasele I-VIII Drăgoești,,Drăgoești,44.8201,24.2931
214,40,VÂLCEA,DRĂGOEŞTI,201,2,78,0,0,18,6,15,198,4,74,2,0,18,8,20,Școala cu Clasele I- Iv Geamăna- Buciumeni,,Drăgoești,44.7871,24.2915
215,40,VÂLCEA,DRĂGOEŞTI,128,4,57,1,0,29,11,19,133,4,54,2,0,30,11,15,Școala cu Clasele I-IV Boncani,,Drăgoești,44.8363,24.2908
89,40,VÂLCEA,MUNICIPIUL DRĂGĂŞANI,278,44,80,24,1,41,22,45,278,40,82,24,1,46,20,40,Școala Tudor Vladimirescu,Str. Regele Carol (Str. 1 Mai) nr. 18,Drăgășani,44.6599,24.2636
90,40,VÂLCEA,MUNICIPIUL DRĂGĂŞANI,283,49,90,27,2,34,18,36,285,49,87,34,1,35,18,29,Școala Tudor Vladimirescu,Str. Regele Carol (Str. 1 Mai) nr. 18,Drăgășani,44.6599,24.2636
91,40,VÂLCEA,MUNICIPIUL DRĂGĂŞANI,258,11,49,14,2,19,10,21,254,10,47,24,2,17,14,23,Liceul Tehnologic Brătianu,Nr. 5,Drăgășani,44.6571,24.2667
92,40,VÂLCEA,MUNICIPIUL DRĂGĂŞANI,266,39,45,27,1,31,17,31,265,37,48,35,1,29,13,23,Liceul Tehnologic Brătianu,Str. Mihail Kogălniceanu nr. 5,Drăgășani,44.6571,24.2667
93,40,VÂLCEA,MUNICIPIUL DRĂGĂŞANI,258,31,67,21,0,21,21,40,266,31,64,19,0,16,23,46,Căminul de Copii,Aleea Muncii nr. 11,Drăgășani,44.6534,24.2645
94,40,VÂLCEA,MUNICIPIUL DRĂGĂŞANI,187,10,29,19,1,5,10,32,173,12,29,20,1,13,13,29,Grădinița de Copii Brătianu,Nr. 7,Drăgășani,44.6561,24.2614
95,40,VÂLCEA,MUNICIPIUL DRĂGĂŞANI,209,35,67,26,3,24,13,34,196,35,67,41,3,27,18,31,Școala Nicolae Bălcescu,Nr. 9,Drăgășani,44.662,24.2623
96,40,VÂLCEA,MUNICIPIUL DRĂGĂŞANI,270,40,74,20,0,24,16,46,271,40,72,32,1,27,13,30,Colegiul Național Gib Mihăescu,Nr. 1,Drăgășani,44.6595,24.2598
97,40,VÂLCEA,MUNICIPIUL DRĂGĂŞANI,256,12,67,16,0,25,21,54,267,12,67,22,0,26,15,35,Liceul Tehnologic Brătianu - Școala Profesională,Nr. 50D,Drăgășani,44.661,24.2753
98,40,VÂLCEA,MUNICIPIUL DRĂGĂŞANI,235,24,47,17,1,29,4,14,237,24,47,21,1,28,4,13,Școala Bârsanu,Nr. 110,Drăgășani,44.6781,24.2572
99,40,VÂLCEA,MUNICIPIUL DRĂGĂŞANI,124,0,59,3,1,38,62,83,124,2,62,4,1,38,65,77,Grădinița Colonia Rudari,Str. Digului nr. 20,Drăgășani,44.6842,24.2744
100,40,VÂLCEA,MUNICIPIUL DRĂGĂŞANI,284,30,83,31,1,27,15,35,273,29,83,40,2,30,16,34,Școala Nicolae Bălcescu,Nr. 9,Drăgășani,44.662,24.2623
101,40,VÂLCEA,MUNICIPIUL DRĂGĂŞANI,177,10,33,9,3,22,3,14,184,10,30,13,3,22,3,11,Școala Momotești,"Str. Avram Iancu nr. 112 L, Bloc bloc",Drăgășani,44.6408,24.269
102,40,VÂLCEA,MUNICIPIUL DRĂGĂŞANI,178,8,47,12,2,35,10,27,177,9,43,19,1,38,7,21,Grădinița Capul Dealului,,Drăgășani,44.6552,24.2353
103,40,VÂLCEA,MUNICIPIUL DRĂGĂŞANI,237,15,72,14,2,42,11,27,241,16,68,21,3,45,10,24,Școala Zlătărei,Str. Școlii nr. 10,Drăgășani,44.633,24.2533
276,40,VÂLCEA,LUNGEŞTI,70,0,60,9,0,7,3,5,67,1,62,8,0,6,3,7,Școala cu Clasele I-IV Dumbrava,,Dumbrava,44.6389,24.1504
165,40,VÂLCEA,BERISLĂVEŞTI,144,4,8,1,1,1,3,6,136,4,10,2,0,1,5,10,Căminul Cultural Dîngești,,Dângești,45.2893,24.423
203,40,VÂLCEA,DĂEŞTI,128,6,256,13,0,18,7,28,131,8,251,14,0,20,4,21,Școala Dăești,,Dăești,45.2011,24.3817
334,40,VÂLCEA,POPEŞTI,193,1,16,4,2,11,2,9,188,0,16,5,1,14,3,8,Școala cu Clasele I-VIII Dăești,,Dăești,44.9699,24.111
205,40,VÂLCEA,DĂEŞTI,156,23,223,9,0,15,6,23,154,23,228,6,1,19,6,23,Școala Fedeleșoiu,,Fedeleșoiu,45.1489,24.3967
410,40,VÂLCEA,TOMŞANI,159,8,13,4,2,40,21,36,160,8,13,6,2,45,19,30,Căminul Cultural Foleștii de Jos,,Foleștii de Jos,45.061,24.0778
409,40,VÂLCEA,TOMŞANI,215,9,39,10,1,7,12,34,223,10,41,9,1,9,11,28,Școala Generală Foleștii de Sus,,Foleștii de Sus,45.0918,24.0581
255,40,VÂLCEA,IONEŞTI,205,1,29,10,0,6,2,8,209,0,31,10,0,6,4,7,Școala Fotești,,Fotești,44.8487,24.2243
223,40,VÂLCEA,FRÎNCEŞTI,131,4,45,9,0,1,10,17,132,4,42,10,0,2,8,15,Școala cu Clasele I-VIII Frîncești,,Frâncești,44.9989,24.185
275,40,VÂLCEA,LUNGEŞTI,120,4,76,6,1,20,7,13,126,3,75,7,0,18,7,13,Căminul Cultural Fumureni,,Fumureni,44.6162,24.1561
218,40,VÂLCEA,FÎRTĂŢEŞTI,112,10,19,6,0,4,17,22,110,10,17,4,0,4,21,27,Primăria Fîrtățești,,Fârtățești,44.7652,23.992
230,40,VÂLCEA,GALICEA,235,6,129,4,4,15,19,32,242,6,123,4,4,17,20,31,Căminul Cultural Galicea,,Galicea,44.9252,24.2753
380,40,VÂLCEA,STOILEŞTI,248,8,33,4,0,4,8,17,251,7,30,4,0,5,9,17,Școala cu Clasele I-IV Geamăna,,Geamăna,44.9378,24.3982
225,40,VÂLCEA,FRÎNCEŞTI,115,4,39,2,0,5,2,10,115,5,36,2,0,6,2,12,Grădinița Negreni,,Genuneni,45.0432,24.091
238,40,VÂLCEA,GHIOROIU,66,1,42,11,2,72,31,42,70,1,41,10,3,72,37,45,Căminul Cultural Ghioroiu,,Ghioroiu,44.6911,23.8343
222,40,VÂLCEA,FÎRTĂŢEŞTI,162,3,41,15,1,3,21,31,160,3,43,13,2,5,24,32,Școala cu Clasele I-VIII Rusănești,,Giulești,44.7216,23.9815
240,40,VÂLCEA,GLĂVILE,274,5,35,5,0,13,11,31,268,6,41,5,0,9,15,35,Școala Gimnazială „Bartolomeu Valeriu Anania” Glăvile,,Glăvile,44.8194,24.1368
121,40,VÂLCEA,ORAŞ BĂLCEŞTI,154,2,66,3,1,5,5,12,155,2,65,2,1,5,5,13,Școala Primară Gorunești,,Gorunești,44.5642,23.9642
368,40,VÂLCEA,SLĂTIOARA,117,2,13,3,0,23,0,3,118,0,13,3,0,23,1,5,Școala Generală Gorunești,,Gorunești,45.0987,23.8912
191,40,VÂLCEA,CÎINENI,145,6,66,4,2,5,3,10,143,5,68,4,2,4,6,12,Grădinița cu Program Normal Greblești,,Greblești,45.4715,24.3066
281,40,VÂLCEA,MATEEŞTI,127,7,84,6,0,4,4,20,126,8,82,6,0,5,4,21,Grădinița Greci,,Greci,45.0932,23.8467
186,40,VÂLCEA,CERNIŞOARA,195,8,57,8,0,6,8,20,197,8,55,7,0,10,7,17,Școala cu Clasele I-IV Groși,,Groși,44.9992,24.0351
342,40,VÂLCEA,RACOVIŢA,26,0,33,1,0,3,3,3,26,0,31,1,0,3,4,5,Școala Gruiul Lupului,,Gruiu Lupului,45.4282,24.3388
247,40,VÂLCEA,GRĂDIŞTEA,66,0,34,3,0,3,6,7,68,0,32,3,0,4,5,7,Sala de Sport de La Liceul Teoretic Grădiștea,,Grădiștea,44.873,23.8211
153,40,VÂLCEA,ORAŞ OCNELE MARI,253,21,103,12,3,120,17,63,240,22,103,13,2,117,15,72,Școala Gimnazială Costea Marinoiu Ocnele Mari,Nr. 56,Gura Suhașului,45.0877,24.2984
180,40,VÂLCEA,BUJORENI,172,22,82,1,6,15,43,69,171,24,84,14,6,15,35,50,Școala cu Clasele I-VIII Gura Văii,,Gura Văii,45.1834,24.3653
297,40,VÂLCEA,MIHĂEŞTI,163,7,34,15,1,7,7,25,157,7,42,12,1,8,10,23,Școala Generală,,Gurișoara,45.0755,24.2186
252,40,VÂLCEA,GUŞOENI,214,4,24,2,1,7,7,15,218,2,20,3,0,4,8,16,Căminul Cultural Gușoianca,,Gușoianca,44.7472,24.1105
309,40,VÂLCEA,NICOLAE BĂLCESCU,53,0,28,4,5,7,0,4,52,0,28,5,5,8,1,3,Școala cu Clasele I-IV Gâltofani,,Gâltofani,45.0013,24.3803
265,40,VÂLCEA,LĂDEŞTI,82,2,26,11,0,0,7,13,91,2,26,6,0,2,5,7,Școala Primară Găgeni,,Găgeni,44.8395,24.0286
263,40,VÂLCEA,LĂCUSTENI,111,3,69,5,1,0,3,6,109,3,70,3,1,1,1,3,Școala cu Clasele I-IV Gănești,,Gănești,44.7274,23.8907
114,40,VÂLCEA,ORAŞ BĂILE GOVORA,69,0,59,8,0,7,9,16,69,0,58,6,0,8,8,15,Școala Generală cu Clasele I-IV Gătejești,Str. Căpșunilor nr. 6,Gătejești,45.0988,24.2051
146,40,VÂLCEA,ORAŞ HOREZU,263,52,94,21,1,59,19,46,258,69,84,15,1,73,15,35,Liceul Constantin Brâncoveanu,Str. Alexandru Ioan Cuza nr. 1,Horezu,45.1452,23.9924
147,40,VÂLCEA,ORAŞ HOREZU,248,43,93,15,1,60,6,25,239,71,88,11,0,53,8,26,Clubul Copiilor Horezu,Str. Constantin Brâncoveanu nr. 1,Horezu,45.1461,23.9916
148,40,VÂLCEA,ORAŞ HOREZU,276,50,75,17,1,34,9,32,269,66,67,18,0,37,9,28,Casa de Cultură Constantin Brâncoveanu,Str. 1 Decembrie (Str. 23 August) nr. 11,Horezu,45.1457,23.9892
196,40,VÂLCEA,COPĂCENI,107,1,7,4,0,4,2,14,117,1,6,2,2,6,1,8,Școala cu Clasele I-VIII - Hotărasa,,Hotărasa,44.9518,23.9968
155,40,VÂLCEA,ALUNU,237,4,58,22,2,59,7,22,242,4,55,21,1,59,8,17,"Școala Gimnazială, Comuna Alunu, Sat Igoiu",,Igoiu,45.035,23.8149
253,40,VÂLCEA,IONEŞTI,260,9,35,15,1,8,9,18,254,9,33,20,1,8,9,21,Școala Ioneștii Govorii,,Ionești,44.8795,24.2328
122,40,VÂLCEA,ORAŞ BĂLCEŞTI,95,1,24,24,1,2,5,34,110,1,29,15,2,6,8,19,Școala Primară Cârlogani,,Irimești,44.6822,23.9158
299,40,VÂLCEA,MILCOIU,65,0,23,4,2,4,3,6,66,0,26,4,2,4,4,6,Grădinița Izbășești,,Izbăsești,45.0387,24.4467
201,40,VÂLCEA,CREŢENI,138,10,25,7,1,7,6,19,141,9,25,6,1,6,7,18,Grădinița cu Program Normal Izvoru,,Izvoru,44.7236,24.1759
414,40,VÂLCEA,VAIDEENI,187,5,64,8,0,33,6,15,184,5,67,8,1,30,10,22,Căminul Cultural Izvoru Rece,,Izvoru Rece,45.168,23.9006
257,40,VÂLCEA,LALOŞU,91,3,17,6,8,10,7,26,91,2,22,6,9,24,7,10,Școala Primară Laloșu,,Laloșu,44.5433,24.0323
171,40,VÂLCEA,BUDEŞTI,104,7,27,4,1,6,18,28,109,7,30,2,1,6,18,26,Școala Racovița,,Linia,45.0748,24.3954
372,40,VÂLCEA,STĂNEŞTI,34,0,35,1,0,10,0,3,33,0,37,1,0,10,1,3,Școala cu Clasele I-IV Linia Dealului,,Linia Dealului,44.7891,24.0506
115,40,VÂLCEA,ORAŞ BĂILE OLĂNEŞTI,346,22,91,34,1,144,28,75,381,23,86,33,1,141,24,53,Liceul Tehnologic Justinian Marina,Str. 1 Decembrie (D) nr. 2,Livadia,45.2043,24.2446
270,40,VÂLCEA,LIVEZI,118,3,29,35,0,4,9,15,117,3,34,19,0,8,11,18,Căminul Cultural Tina,,Livezi,44.8503,23.8239
178,40,VÂLCEA,BUJORENI,77,4,36,3,2,8,5,103,82,4,117,4,2,12,7,21,Școala cu Clasele I-IV Lunca,,Lunca,45.1696,24.3663
273,40,VÂLCEA,LUNGEŞTI,169,3,115,8,0,5,5,11,161,4,112,10,0,3,4,18,Școala Lungești,,Lungești,44.5694,24.1988
261,40,VÂLCEA,LĂCUSTENI,96,0,39,12,2,25,2,9,94,0,41,12,2,26,3,6,Școala cu Clasele I-IV Lăcusteni,,Lăcusteni,44.6946,23.8987
264,40,VÂLCEA,LĂDEŞTI,264,3,140,43,0,19,3,26,260,6,147,27,2,36,3,14,Căminul Cultural Lădești,,Lădești,44.8775,24.0436
209,40,VÂLCEA,DĂNICEI,120,4,30,3,1,24,1,19,94,5,66,5,1,15,1,13,Școala Gimnazială Lăunele de Jos,,Lăunele de Jos,44.8816,24.4376
277,40,VÂLCEA,MALAIA,195,8,159,8,1,18,11,31,203,8,165,8,1,13,9,26,Școala Gimnazială Malaia,,Malaia,45.3527,24.0472
256,40,VÂLCEA,IONEŞTI,215,3,28,10,1,11,2,14,216,4,29,9,0,10,6,14,Școala Marcea,,Marcea,44.9052,24.2329
415,40,VÂLCEA,VAIDEENI,169,3,30,0,1,6,4,21,174,3,28,2,1,8,4,14,Căminul Cultural Marița,,Marița,45.1742,23.8664
280,40,VÂLCEA,MATEEŞTI,264,7,161,13,0,20,7,32,270,9,159,13,0,16,6,33,Școala Gimnazială Mateești,,Mateești,45.0686,23.8477
335,40,VÂLCEA,POPEŞTI,144,2,12,7,0,7,2,7,136,3,10,6,0,14,4,11,Căminul Cultural Popești,,Meieni,44.9794,24.1008
296,40,VÂLCEA,MIHĂEŞTI,263,5,34,16,2,15,18,35,268,7,37,12,3,16,17,31,Grădinița Mihăești,,Mihăești,45.0173,24.243
363,40,VÂLCEA,SINEŞTI,164,2,59,3,0,18,17,30,166,1,56,3,0,24,16,24,"Școala Urzica, Sat Urzica",,Mijlocu,44.9128,23.8352
298,40,VÂLCEA,MILCOIU,164,13,92,8,3,5,17,31,169,17,93,5,3,5,16,25,Primăria Milcoiu,,Milcoiu,45.0409,24.4695
217,40,VÂLCEA,FĂUREŞTI,94,0,86,3,1,8,1,6,93,0,87,2,1,7,0,7,Grădinița Milești,,Milești,44.576,23.9975
366,40,VÂLCEA,SLĂTIOARA,168,11,33,19,1,2,7,24,161,11,31,16,1,2,9,30,Școala cu Clasele I-VIII Milostea,,Milostea,45.1244,23.8342
301,40,VÂLCEA,MITROFANI,94,0,82,21,3,45,9,17,92,1,83,23,3,46,8,17,Căminul Cultural Mitrofani,,Mitrofani,44.7322,24.2072
327,40,VÂLCEA,PERIŞANI,91,2,97,2,0,11,6,17,96,6,86,2,0,10,6,22,Căminul Cultural Mlăceni,,Mlăceni,45.3848,24.4347
365,40,VÂLCEA,SLĂTIOARA,264,13,23,7,0,20,1,13,268,13,25,6,0,21,1,11,Casa de Cultură Slătioara,,Mogești,45.1195,23.8929
258,40,VÂLCEA,LALOŞU,90,1,28,9,5,7,7,36,90,1,23,10,4,36,6,14,Școala Gimnazială Mologești,,Mologești,44.5317,24.0491
228,40,VÂLCEA,FRÎNCEŞTI,151,4,43,8,2,5,39,51,150,4,40,10,2,5,44,54,Școala Generală cu Clasele I-IV Surpate,,Moșteni,45.0444,24.1771
303,40,VÂLCEA,MUEREASCA,156,14,55,1,1,20,5,19,161,15,56,2,1,18,6,16,Școala Muereasca de Jos,,Muereasca,45.1865,24.3186
304,40,VÂLCEA,MUEREASCA,134,5,148,10,0,41,8,22,134,5,150,12,0,38,13,24,Școala Muereasca de Sus,,Muereasca de Sus,45.2036,24.293
187,40,VÂLCEA,CERNIŞOARA,209,1,25,2,0,14,5,11,210,0,24,2,0,14,5,13,Școala cu Clasele I-VIII Mădulari,,Mădulari,45.0459,23.9946
286,40,VÂLCEA,MĂDULARI,252,0,59,4,0,3,5,13,252,0,59,5,0,4,6,11,Școala cu Clasele . I-VIII Mădulari,,Mădulari,44.6877,24.0942
292,40,VÂLCEA,MIHĂEŞTI,206,6,51,13,1,8,7,30,209,8,41,12,1,13,9,28,Căminul Cultural Măgura,,Măgura,45.0078,24.2427
289,40,VÂLCEA,MĂLDĂREŞTI,276,15,127,13,0,45,19,37,276,19,125,12,1,42,22,41,Școala Veche Măldărești,,Măldărești,45.1221,23.9983
224,40,VÂLCEA,FRÎNCEŞTI,152,6,50,3,0,17,2,7,149,6,51,2,0,18,4,11,Școala Generală cu Clasele I-VIII Genuneni,,Mănăilești,45.0243,24.1228
216,40,VÂLCEA,FĂUREŞTI,108,0,146,9,1,10,2,18,107,0,154,9,1,11,4,13,Școala Gimnazială Făurești,,Mărcușu,44.5715,24.0075
419,40,VÂLCEA,VALEA MARE,92,1,16,8,0,1,2,11,91,1,17,6,0,1,2,12,Școala Mărgineni,,Mărgineni,44.6938,24.0015
387,40,VÂLCEA,SUTEŞTI,240,11,109,9,1,14,91,108,232,11,105,12,1,16,93,105,Căminul Cultural Sutești,,Măzili,44.6689,24.2122
160,40,VÂLCEA,AMĂRĂŞTI,135,5,59,9,1,9,8,19,134,6,58,6,2,12,8,18,Fosta Școală Nemoiu,,Nemoiu,44.7479,24.1625
404,40,VÂLCEA,TETOIU,74,4,37,5,0,3,11,17,75,5,40,4,0,5,9,14,Școala Generală cu Clasele. I-IV Nenciulești,,Nenciulești,44.8196,23.9161
385,40,VÂLCEA,STROEŞTI,62,3,17,6,0,30,1,7,66,4,20,6,0,24,3,5,Centrul Social Obrocești,,Obrocești,45.1017,23.9297
188,40,VÂLCEA,CERNIŞOARA,179,1,18,0,0,6,2,5,173,1,19,0,0,7,2,5,Școala cu Clasele I-IV Obîrșia,,Obârșia,45.0763,23.9873
154,40,VÂLCEA,ORAŞ OCNELE MARI,246,20,92,7,2,189,13,38,240,20,102,5,2,182,21,43,Fosta Școala cu Clasele I-VIII Ocnița,Nr. 2,Ocnița,45.0883,24.2753
310,40,VÂLCEA,OLANU,112,18,52,4,0,5,6,19,108,23,45,6,0,7,7,19,Școala cu Clasele I-IV Peretu,,Olanu,44.8636,24.2806
242,40,VÂLCEA,GLĂVILE,272,1,20,2,1,13,3,13,270,1,21,4,1,15,2,9,Școala Primară Olteanca,,Olteanca,44.8101,24.1078
267,40,VÂLCEA,LĂDEŞTI,11,1,7,38,1,5,5,8,17,1,8,22,1,8,13,15,Școala Primară Olteanca,,Olteanca,44.8632,24.0966
177,40,VÂLCEA,BUJORENI,222,61,93,25,0,77,18,73,223,65,111,28,0,86,19,45,Școala cu Clasele I-VIII Olteni,,Olteni,45.1491,24.371
260,40,VÂLCEA,LALOŞU,51,1,40,1,2,25,1,7,50,1,44,1,2,24,1,4,Școala Primară Oltețani,,Oltețani,44.4945,24.0761
116,40,VÂLCEA,ORAŞ BĂILE OLĂNEŞTI,354,12,87,17,1,54,27,55,365,15,85,24,2,47,30,45,Școala Gimnazială Dumitru Bădescu,Str. Tudor Vladimirescu nr. 108,Olănești,45.1819,24.2579
315,40,VÂLCEA,ORLEŞTI,287,11,197,14,1,42,7,32,282,12,197,14,1,47,14,31,Cămin Cultural (Fostul Cămin Cultural din Curtea Primăriei),,Orlești,44.7906,24.2307
123,40,VÂLCEA,ORAŞ BĂLCEŞTI,127,3,81,4,1,12,5,22,129,3,83,4,1,13,5,22,Școala Primară Otetelișu,,Otetelișu,44.6384,23.9583
317,40,VÂLCEA,OTEŞANI,235,3,136,10,0,12,7,20,235,5,129,11,1,12,7,19,Căminul Cultural Oteșani,,Oteșani,45.0782,24.025
283,40,VÂLCEA,MĂCIUCA,231,5,66,5,2,12,7,39,230,6,70,6,2,15,6,31,Sediu Vechi Primărie Centru Civic,,Oveselu,44.7518,24.0108
326,40,VÂLCEA,PERIŞANI,63,0,112,5,0,4,12,19,70,1,104,5,0,5,14,22,Școala cu Clasele I-VIII Perișani,,Perișani,45.3719,24.3944
352,40,VÂLCEA,ROŞIILE,7,2,12,10,0,7,1,2,8,1,20,1,0,8,1,3,Fosta Școală Pertești,,Pertești,44.8712,23.8864
331,40,VÂLCEA,PESCEANA,446,3,37,19,3,19,4,33,452,6,39,25,2,21,6,24,Școala cu Clasele I-IV Pesceana (Școala Veche nr. 2 Pesceana),,Pesceana,44.8827,24.1364
319,40,VÂLCEA,PĂUSEŞTI-MĂGLAŞI,210,24,137,17,0,37,10,50,211,24,148,16,0,28,9,46,Școala Gimnazială Achim Popescu,,Pietrari,45.1388,24.2474
332,40,VÂLCEA,PIETRARI,304,23,117,19,2,15,17,50,301,23,119,18,2,12,22,57,Școală Gimnazială Pietrari,,Pietrari,45.1088,24.116
333,40,VÂLCEA,PIETRARI,275,14,92,9,2,10,14,28,280,14,91,8,1,7,16,35,Școala Primară Pietrarii de Sus,,Pietrarii de Sus,45.1171,24.1045
199,40,VÂLCEA,COSTEŞTI,144,9,14,3,0,6,3,16,145,10,16,3,0,5,3,15,Școala cu Clasele I-IV Pietreni,,Pietreni,45.1867,24.0638
376,40,VÂLCEA,STOENEŞTI,93,5,45,1,0,4,17,30,103,4,49,0,0,1,15,25,Căminul Cultural Piscu Mare,,Piscu Mare,45.1539,24.1718
271,40,VÂLCEA,LIVEZI,69,0,18,17,0,5,4,11,75,0,20,9,0,6,3,8,Școala cu Clasele I-IV Pleșoiu,,Pleșoiu,44.8479,23.8415
330,40,VÂLCEA,PERIŞANI,19,0,20,1,0,1,1,2,18,0,18,1,0,1,1,3,Școala Podeni,,Podeni,45.3962,24.417
328,40,VÂLCEA,PERIŞANI,80,2,65,4,0,12,3,10,82,2,62,4,0,14,5,10,Școala cu Clasele I-VIII Poiana,,Poiana,45.3487,24.4235
239,40,VÂLCEA,GHIOROIU,59,2,59,5,1,40,4,8,61,2,56,3,1,40,3,8,Școala Poienari,,Poienari,44.7182,23.805
386,40,VÂLCEA,STROEŞTI,47,0,25,5,1,10,3,10,50,0,23,7,1,8,4,8,Căminul Cultural Pojogi - Cerna,,Pojogi-Cerna,45.037,23.9307
243,40,VÂLCEA,GOLEŞTI,153,9,41,7,0,22,9,23,154,9,42,9,0,19,9,25,Școala cu Clasele I-VIII Popești,,Popești,45.0957,24.4763
284,40,VÂLCEA,MĂCIUCA,133,1,7,3,2,4,7,19,135,0,9,4,2,6,4,16,"Școala Generală Popești, Comuna Măciuca, Satul Popești",,Popești,44.7381,24.0037
336,40,VÂLCEA,POPEŞTI,156,7,17,11,0,4,1,8,149,4,21,9,0,10,2,12,Școala cu Clasele I-IV Popești,,Popești,44.9939,24.0877
364,40,VÂLCEA,SINEŞTI,99,2,82,3,0,9,5,7,97,5,79,4,0,6,6,13,"Școala Primară, Sat Popești",,Popești,44.9452,23.8256
113,40,VÂLCEA,ORAŞ BĂILE GOVORA,276,27,113,12,1,26,15,44,269,23,120,10,2,36,17,43,Liceul Tehnologic Băile Govora,Str. Nuferilor nr. 46,Prajila,45.0764,24.1899
308,40,VÂLCEA,NICOLAE BĂLCESCU,207,4,63,3,1,18,4,10,196,4,62,5,1,18,4,14,Școala cu Clasele I-VIII Predești,Nr. 165,Predești,44.9715,24.3695
422,40,VÂLCEA,VLĂDEŞTI,241,26,66,12,1,34,16,50,241,29,63,15,1,40,17,42,Școala cu Clasele I-VIII Vlădești,,Priporu,45.1194,24.3032
338,40,VÂLCEA,PRUNDENI,378,22,42,14,0,35,6,22,363,20,44,16,0,43,4,23,Școala Prundeni,Nr. 177,Prundeni,44.7353,24.2494
272,40,VÂLCEA,LIVEZI,232,4,24,19,1,12,24,42,234,7,28,12,1,10,23,38,Căminul Cultural Pîrîieni,,Pârâienii de Mijloc,44.8126,23.8273
128,40,VÂLCEA,ORAŞ BREZOI,63,0,11,3,1,3,4,7,64,0,10,2,1,6,2,6,Școala cu Clasele I-IV Păscoaia,Nr. 67,Păscoaia,45.3536,24.1566
358,40,VÂLCEA,SĂLĂTRUCEL,19,1,18,3,0,2,2,5,19,1,16,2,0,1,2,7,Școala Patești,,Pătești,45.2786,24.3921
323,40,VÂLCEA,PĂUŞEŞTI,195,9,111,9,2,23,6,22,208,6,104,7,1,26,5,20,Căminul Cultural Păușești,,Păușești,45.0737,24.135
320,40,VÂLCEA,PĂUSEŞTI-MĂGLAŞI,266,20,151,19,2,38,6,38,251,20,160,21,2,39,11,37,Școala Gimnazială Achim Popescu,,Păușești-Măglași,45.1388,24.2474
176,40,VÂLCEA,BUDEŞTI,161,15,33,10,0,17,7,35,162,15,36,14,0,18,7,22,Grădinița Racovița,,Racovița,45.0748,24.3954
341,40,VÂLCEA,RACOVIŢA,105,3,143,21,0,16,12,23,105,4,136,21,0,19,16,27,Căminul Cultural Racovița,,Racovița,45.4059,24.3101
302,40,VÂLCEA,MITROFANI,25,0,38,42,2,23,3,7,25,0,37,43,2,21,4,8,Fosta Școală Racu,,Racu,44.7571,24.2005
167,40,VÂLCEA,BERISLĂVEŞTI,106,0,6,1,1,3,1,3,108,0,4,3,0,3,1,4,Căminul Cultural Robaia,,Robaia,45.2496,24.4731
192,40,VÂLCEA,CÎINENI,30,3,27,0,1,9,3,6,29,4,27,0,0,9,4,6,Căminul Cultural Robești,,Robești,45.4508,24.2969
150,40,VÂLCEA,ORAŞ HOREZU,149,9,60,6,0,8,8,12,151,10,59,4,0,8,8,14,Școala Generală cu Clasele I-VIII Romanii de Jos,Str. Mănăstirii nr. 104,Romanii de Jos,45.1589,24.0063
151,40,VÂLCEA,ORAŞ HOREZU,280,4,17,4,0,26,6,20,279,5,17,6,0,27,6,18,Magazinul Sătesc Romanii de Sus,Str. Romanii de Sus nr. 43,Romanii de Sus,45.1864,24.0009
350,40,VÂLCEA,ROŞIILE,98,7,87,42,0,78,4,16,113,8,84,34,0,76,4,14,Școala Primară Romanești,,Românești,44.9046,23.9282
305,40,VÂLCEA,NICOLAE BĂLCESCU,309,13,46,14,7,17,6,22,319,9,42,15,7,16,11,25,Școala cu Clasele I-VIII Rotărăști,,Rotărăști,44.9963,24.441
158,40,VÂLCEA,ALUNU,139,4,8,5,1,10,20,26,130,5,8,6,1,10,19,26,Grădinița cu Program Normal Roșia,,Roșia,45.0009,23.8045
349,40,VÂLCEA,ROŞIILE,142,1,62,95,0,23,9,22,150,3,75,67,0,28,9,19,Școala Gimnazială Roșiile,,Roșiile,44.8765,23.922
126,40,VÂLCEA,ORAŞ BERBEŞTI,326,11,108,10,2,69,13,30,326,11,111,9,2,69,14,29,Școala Generală cu Clasele I- VIII Berbești,,Roșioara,44.975,23.862
174,40,VÂLCEA,BUDEŞTI,68,2,68,6,0,9,3,13,70,3,71,6,0,10,4,8,Centru Social Ruda,,Ruda,45.0286,24.3308
367,40,VÂLCEA,SLĂTIOARA,199,3,9,5,1,13,10,15,206,3,7,6,1,11,8,11,Școala cu Clasele I-VIII Rugetu,,Rugetu,45.1404,23.8712
353,40,VÂLCEA,RUNCU,93,12,34,1,0,101,3,19,87,12,39,2,0,105,3,19,Școala Gimnazială cu Clasele I-VIII Runcu,,Runcu,45.1756,24.4428
149,40,VÂLCEA,ORAŞ HOREZU,121,5,46,5,0,13,2,5,119,5,46,5,0,14,3,5,Căminul Cultural Râmești,Str. Râmești nr. 8,Râmești,45.1716,23.9867
400,40,VÂLCEA,ŞUŞANI,118,2,118,2,0,7,38,43,121,3,116,1,0,8,39,43,Școala Rîmești,,Râmești,44.5664,24.1113
1,40,VÂLCEA,MUNICIPIUL RÂMNICU VÂLCEA,250,95,81,25,1,54,32,122,270,95,102,23,1,70,28,67,Colegiul Energetic,Str. Prof. Sergiu Purece nr. 10,Râmnicu Vâlcea,45.1216,24.3655
2,40,VÂLCEA,MUNICIPIUL RÂMNICU VÂLCEA,148,79,49,17,1,29,13,65,152,79,66,16,1,37,16,40,Colegiul Energetic,Str. Prof. Sergiu Purece nr. 10,Râmnicu Vâlcea,45.1216,24.3655
3,40,VÂLCEA,MUNICIPIUL RÂMNICU VÂLCEA,242,47,56,15,3,47,8,60,257,39,55,24,5,48,15,37,Liceul Sanitar „Antim Ivireanu”,Str. Republicii nr. 19,Râmnicu Vâlcea,45.1191,24.3695
4,40,VÂLCEA,MUNICIPIUL RÂMNICU VÂLCEA,166,45,54,9,1,27,6,50,170,41,60,9,3,30,9,37,Liceul Sanitar „Antim Ivireanu”,Str. Republicii nr. 19,Râmnicu Vâlcea,45.1191,24.3695
5,40,VÂLCEA,MUNICIPIUL RÂMNICU VÂLCEA,229,42,53,18,1,34,25,90,228,42,60,10,3,48,21,63,Liceul Sanitar „Antim Ivireanu”,Str. Republicii nr. 19,Râmnicu Vâlcea,45.1191,24.3695
6,40,VÂLCEA,MUNICIPIUL RÂMNICU VÂLCEA,174,39,53,15,1,29,11,59,177,43,59,10,1,37,11,45,Grădinița cu Program Prelungit Nord Ii,"Str. Constantin Brâncuși (Str. Constantin Brîncuși, Str. Hidrocentralei) nr. 7",Râmnicu Vâlcea,45.1177,24.3712
7,40,VÂLCEA,MUNICIPIUL RÂMNICU VÂLCEA,210,33,43,14,3,17,4,59,216,34,50,14,2,30,3,33,Grădinița cu Program Prelungit Nord Ii,"Str. Constantin Brâncuși (Str. Constantin Brîncuși, Str. Hidrocentralei) nr. 7",Râmnicu Vâlcea,45.1177,24.3712
8,40,VÂLCEA,MUNICIPIUL RÂMNICU VÂLCEA,150,56,60,21,0,26,18,61,155,57,60,22,1,35,14,42,Grădinița cu Program Prelungit Nord Ii,"Str. Constantin Brâncuși (Str. Constantin Brîncuși, Str. Hidrocentralei) nr. 7",Râmnicu Vâlcea,45.1177,24.3712
9,40,VÂLCEA,MUNICIPIUL RÂMNICU VÂLCEA,163,48,41,18,2,17,17,69,170,55,46,20,1,21,14,44,Liceul Tehnologic Henr. Coandă,Str. Henri Coandă (Str. Mareșal Ion Antonescu) nr. 23,Râmnicu Vâlcea,45.1154,24.3694
10,40,VÂLCEA,MUNICIPIUL RÂMNICU VÂLCEA,164,32,56,21,0,28,20,63,167,33,61,24,0,31,23,49,Liceul Tehnologic Henr. Coandă,Str. Henri Coandă (Str. Mareșal Ion Antonescu) nr. 23,Râmnicu Vâlcea,45.1154,24.3694
11,40,VÂLCEA,MUNICIPIUL RÂMNICU VÂLCEA,164,59,70,20,0,27,10,73,173,55,82,21,0,34,9,47,Liceul Tehnologic Henr. Coandă,Str. Henri Coandă (Str. Mareșal Ion Antonescu) nr. 23,Râmnicu Vâlcea,45.1154,24.3694
12,40,VÂLCEA,MUNICIPIUL RÂMNICU VÂLCEA,218,29,55,25,1,30,15,69,225,36,63,27,1,42,17,36,Liceul Tehnologic Henr. Coandă,Str. Henri Coandă (Str. Mareșal Ion Antonescu) nr. 23,Râmnicu Vâlcea,45.1154,24.3694
13,40,VÂLCEA,MUNICIPIUL RÂMNICU VÂLCEA,142,27,36,7,1,23,11,56,142,30,37,9,1,30,11,41,Liceul Tehnologic Henr. Coandă,Str. Henri Coandă (Str. Mareșal Ion Antonescu) nr. 23,Râmnicu Vâlcea,45.1154,24.3694
14,40,VÂLCEA,MUNICIPIUL RÂMNICU VÂLCEA,190,29,39,15,1,26,12,54,196,34,42,14,2,28,11,36,Colegiul Național de Informatică „Matei Basarab”,Str. Henri Coandă (Str. Mareșal Ion Antonescu) nr. 21,Râmnicu Vâlcea,45.1158,24.3679
15,40,VÂLCEA,MUNICIPIUL RÂMNICU VÂLCEA,134,32,41,12,1,38,12,41,143,32,44,14,1,40,11,30,Colegiul Național de Informatică „Matei Basarab”,Str. Henri Coandă (Str. Mareșal Ion Antonescu) nr. 21,Râmnicu Vâlcea,45.1158,24.3679
16,40,VÂLCEA,MUNICIPIUL RÂMNICU VÂLCEA,129,54,45,14,2,35,22,79,139,59,53,15,2,46,21,38,Colegiul Național de Informatică „Matei Basarab”,Str. Henri Coandă (Str. Mareșal Ion Antonescu) nr. 21,Râmnicu Vâlcea,45.1158,24.3679
17,40,VÂLCEA,MUNICIPIUL RÂMNICU VÂLCEA,239,54,71,14,2,36,19,69,246,55,71,21,1,47,21,46,Colegiul Național de Informatică „Matei Basarab”,Str. Henri Coandă (Str. Mareșal Ion Antonescu) nr. 21,Râmnicu Vâlcea,45.1158,24.3679
18,40,VÂLCEA,MUNICIPIUL RÂMNICU VÂLCEA,166,66,69,21,2,55,16,71,176,72,70,23,1,53,16,50,Colegiul de Silvicultură și Protecția Mediului,Str. Calea lui Traian (Str. V. I. Lenin) nr. 195,Râmnicu Vâlcea,45.1172,24.3629
19,40,VÂLCEA,MUNICIPIUL RÂMNICU VÂLCEA,250,70,69,29,3,58,21,88,257,76,79,30,2,56,27,63,Colegiul de Silvicultură și Protecția Mediului,Str. Calea lui Traian (Str. V. I. Lenin) nr. 195,Râmnicu Vâlcea,45.1172,24.3629
20,40,VÂLCEA,MUNICIPIUL RÂMNICU VÂLCEA,140,42,57,19,2,22,12,63,140,41,59,21,3,24,19,53,Colegiul de Silvicultură și Protecția Mediului,Str. Calea lui Traian (Str. V. I. Lenin) nr. 195,Râmnicu Vâlcea,45.1172,24.3629
21,40,VÂLCEA,MUNICIPIUL RÂMNICU VÂLCEA,158,50,62,19,1,21,15,47,162,52,55,21,1,30,17,41,Școala Gimnazială „Ioan Gh. Duca”,Str. Mărășești nr. 14,Râmnicu Vâlcea,45.1114,24.3672
22,40,VÂLCEA,MUNICIPIUL RÂMNICU VÂLCEA,180,66,57,21,6,25,7,58,196,68,63,19,4,27,8,36,Școala Gimnazială „Ioan Gh. Duca”,Str. Mărășești nr. 14,Râmnicu Vâlcea,45.1114,24.3672
23,40,VÂLCEA,MUNICIPIUL RÂMNICU VÂLCEA,192,75,38,13,2,34,12,63,185,79,53,14,1,40,12,46,Școala Gimnazială „Ioan Gh. Duca”,Str. Mărășești nr. 14,Râmnicu Vâlcea,45.1114,24.3672
24,40,VÂLCEA,MUNICIPIUL RÂMNICU VÂLCEA,171,28,34,11,1,32,8,49,186,28,40,10,1,32,12,28,Școala Gimnazială „Ioan Gh. Duca”,Str. Mărășești nr. 14,Râmnicu Vâlcea,45.1114,24.3672
25,40,VÂLCEA,MUNICIPIUL RÂMNICU VÂLCEA,170,52,44,16,2,25,25,89,169,53,55,16,2,32,29,71,Școala Gimnazială „Ioan Gh. Duca”,Str. Mărășești nr. 14,Râmnicu Vâlcea,45.1114,24.3672
26,40,VÂLCEA,MUNICIPIUL RÂMNICU VÂLCEA,171,50,49,20,2,28,19,76,181,48,55,25,2,28,15,58,Școala Gimnazială „Ioan Gh. Duca”,Str. Mărășești nr. 14,Râmnicu Vâlcea,45.1114,24.3672
27,40,VÂLCEA,MUNICIPIUL RÂMNICU VÂLCEA,179,49,58,22,2,32,10,59,179,52,63,21,2,38,14,42,Școala Gimnazială „Ioan Gh. Duca”,Str. Mărășești nr. 14,Râmnicu Vâlcea,45.1114,24.3672
28,40,VÂLCEA,MUNICIPIUL RÂMNICU VÂLCEA,181,90,55,24,1,42,26,92,179,82,70,30,2,57,27,63,Școala Gimnazială Take Ionescu,Str. Calea lui Traian (Str. V. I. Lenin) nr. 128,Râmnicu Vâlcea,45.1065,24.3639
29,40,VÂLCEA,MUNICIPIUL RÂMNICU VÂLCEA,216,95,74,20,3,58,9,69,215,98,87,18,4,61,16,52,Colegiul Național Alexandru Lahovari,Str. General Praporgescu (Str. Gen. David Praporgescu) nr. 19,Râmnicu Vâlcea,45.1088,24.364
30,40,VÂLCEA,MUNICIPIUL RÂMNICU VÂLCEA,302,116,86,27,3,59,31,131,303,105,102,35,1,80,32,90,Colegiul Național Alexandru Lahovari,Str. General Praporgescu (Str. Gen. David Praporgescu) nr. 19,Râmnicu Vâlcea,45.1088,24.364
31,40,VÂLCEA,MUNICIPIUL RÂMNICU VÂLCEA,229,61,60,22,1,35,25,79,230,66,64,27,1,37,25,58,Liceul Tehnologic Oltchim,Bulevardul Nicolae Bălcescu (Bulevardul Traian) nr. 26,Râmnicu Vâlcea,45.1083,24.3733
32,40,VÂLCEA,MUNICIPIUL RÂMNICU VÂLCEA,245,59,79,20,2,39,15,84,241,56,88,26,2,48,16,47,Liceul Tehnologic Oltchim,Bulevardul Nicolae Bălcescu (Bulevardul Traian) nr. 26,Râmnicu Vâlcea,45.1083,24.3733
33,40,VÂLCEA,MUNICIPIUL RÂMNICU VÂLCEA,185,69,57,29,1,39,19,72,184,77,69,28,1,45,25,50,Școala Gimnazială nr. 5,Bulevardul Tudor Vladimirescu nr. 27,Râmnicu Vâlcea,45.1038,24.371
34,40,VÂLCEA,MUNICIPIUL RÂMNICU VÂLCEA,256,102,88,44,1,44,14,98,258,110,97,48,1,55,20,59,"Dadp - Sediu, Bl A17",Str. Eroilor nr. 5,Râmnicu Vâlcea,45.1022,24.3749
35,40,VÂLCEA,MUNICIPIUL RÂMNICU VÂLCEA,139,82,55,16,2,47,17,63,156,82,62,11,2,44,19,46,S.C. Piețe Prest S.A. - Sediu Piața Centrală,Str. Emil Avramescu nr. 3,Râmnicu Vâlcea,45.1019,24.364
36,40,VÂLCEA,MUNICIPIUL RÂMNICU VÂLCEA,146,40,28,10,2,28,14,46,143,39,35,10,3,33,16,36,S.C. Piețe Prest S.A. - Sediu Piața Centrală,Str. Emil Avramescu nr. 3,Râmnicu Vâlcea,45.1019,24.364
37,40,VÂLCEA,MUNICIPIUL RÂMNICU VÂLCEA,209,41,49,16,2,27,14,63,213,42,58,20,2,33,11,39,S.C. Piețe Prest S.A. - Sediu Piața Centrală,Str. Emil Avramescu nr. 3,Râmnicu Vâlcea,45.1019,24.364
38,40,VÂLCEA,MUNICIPIUL RÂMNICU VÂLCEA,172,86,49,25,2,50,26,88,175,90,53,21,2,64,25,64,Grădinița cu Program Prelungit „Cozia”,Str. Regina Maria (Str. Cozia) nr. 14,Râmnicu Vâlcea,45.1022,24.3692
39,40,VÂLCEA,MUNICIPIUL RÂMNICU VÂLCEA,192,68,60,25,1,30,7,74,199,68,75,22,1,41,10,44,Grădinița cu Program Prelungit „Cozia”,Str. Regina Maria (Str. Cozia) nr. 14,Râmnicu Vâlcea,45.1022,24.3692
40,40,VÂLCEA,MUNICIPIUL RÂMNICU VÂLCEA,215,96,74,18,1,53,22,75,215,98,78,17,1,52,24,68,Liceul Tehnologic „Căpitan Nicolae Pleșoianu”,Str. Gabriel Stoianovici nr. 5,Râmnicu Vâlcea,45.1035,24.3594
41,40,VÂLCEA,MUNICIPIUL RÂMNICU VÂLCEA,183,88,72,20,2,45,15,77,182,79,91,17,1,60,18,54,Liceul Tehnologic „Căpitan Nicolae Pleșoianu”,Str. Gabriel Stoianovici nr. 5,Râmnicu Vâlcea,45.1035,24.3594
42,40,VÂLCEA,MUNICIPIUL RÂMNICU VÂLCEA,447,73,74,17,1,45,17,94,451,73,83,17,1,47,15,73,Liceul Tehnologic „Căpitan Nicolae Pleșoianu”,Str. Morilor nr. 4,Râmnicu Vâlcea,45.1003,24.3568
43,40,VÂLCEA,MUNICIPIUL RÂMNICU VÂLCEA,265,46,86,23,1,22,22,87,273,52,99,25,1,28,20,58,Școala Gimnazială „Spiru Haret” (fostă nr. 3),Str. Știrbei Vodă nr. 111,Râmnicu Vâlcea,45.1056,24.3439
44,40,VÂLCEA,MUNICIPIUL RÂMNICU VÂLCEA,223,31,56,18,1,27,12,52,219,30,60,16,1,33,15,46,Școala Gimnazială Goranu,Str. Straubing nr. 39,Râmnicu Vâlcea,45.1076,24.3881
45,40,VÂLCEA,MUNICIPIUL RÂMNICU VÂLCEA,195,24,35,17,1,32,11,39,193,24,39,17,2,33,10,32,Școala Gimnazială Goranu,Str. Straubing nr. 39,Râmnicu Vâlcea,45.1076,24.3881
46,40,VÂLCEA,MUNICIPIUL RÂMNICU VÂLCEA,194,44,50,16,1,30,17,81,191,47,61,17,1,34,15,60,Școala Lespezi - Arhivă,Str. Lespezi nr. 51,Râmnicu Vâlcea,45.1204,24.3824
47,40,VÂLCEA,MUNICIPIUL RÂMNICU VÂLCEA,46,2,8,2,0,6,0,16,48,3,9,4,0,5,0,10,Școala Fețeni,Cartierul Fețeni (Cartierul Feteni) (D) nr. 25,Râmnicu Vâlcea,45.0943,24.4226
48,40,VÂLCEA,MUNICIPIUL RÂMNICU VÂLCEA,299,41,77,18,3,29,17,65,300,45,83,22,4,33,16,39,Cartier Petrișor - Pt8,Str. Zorilor nr. 3A,Râmnicu Vâlcea,45.0964,24.3557
49,40,VÂLCEA,MUNICIPIUL RÂMNICU VÂLCEA,187,53,51,26,0,40,19,82,200,55,61,29,0,47,18,43,Școala Gimnazială nr. 4,Str. Calea lui Traian (Str. V. I. Lenin) nr. 97,Râmnicu Vâlcea,45.0967,24.3611
50,40,VÂLCEA,MUNICIPIUL RÂMNICU VÂLCEA,263,85,62,23,2,43,10,94,281,92,71,25,2,39,18,62,Școala Gimnazială nr. 4,Str. Calea lui Traian (Str. V. I. Lenin) nr. 97,Râmnicu Vâlcea,45.0967,24.3611
51,40,VÂLCEA,MUNICIPIUL RÂMNICU VÂLCEA,192,86,67,21,2,30,21,78,181,89,74,23,2,45,23,57,Școala Gimnazială nr. 4,Str. Calea lui Traian (Str. V. I. Lenin) nr. 97,Râmnicu Vâlcea,45.0967,24.3611
52,40,VÂLCEA,MUNICIPIUL RÂMNICU VÂLCEA,237,66,94,16,3,37,24,99,251,66,104,19,3,43,20,66,Colegiul Economic,Str. Calea lui Traian (Str. V. I. Lenin) nr. 91,Râmnicu Vâlcea,45.0951,24.3608
53,40,VÂLCEA,MUNICIPIUL RÂMNICU VÂLCEA,215,62,54,19,1,47,19,79,221,55,61,24,1,59,19,55,Colegiul Economic,Str. Calea lui Traian (Str. V. I. Lenin) nr. 91,Râmnicu Vâlcea,45.0951,24.3608
54,40,VÂLCEA,MUNICIPIUL RÂMNICU VÂLCEA,244,41,47,11,2,22,4,55,258,38,60,8,1,22,4,36,Colegiul Economic,Str. Calea lui Traian (Str. V. I. Lenin) nr. 91,Râmnicu Vâlcea,45.0951,24.3608
55,40,VÂLCEA,MUNICIPIUL RÂMNICU VÂLCEA,256,75,58,26,4,31,17,78,257,78,59,25,3,30,20,73,Școala Gimnazială nr. 10,Str. Luceafărului nr. 7,Râmnicu Vâlcea,45.0973,24.372
56,40,VÂLCEA,MUNICIPIUL RÂMNICU VÂLCEA,319,72,52,26,3,46,23,79,333,72,61,28,3,33,24,64,Școala Gimnazială nr. 10,Str. Luceafărului nr. 7,Râmnicu Vâlcea,45.0973,24.372
57,40,VÂLCEA,MUNICIPIUL RÂMNICU VÂLCEA,223,28,41,19,1,26,15,62,225,30,46,23,0,27,11,49,Școala Gimnazială nr. 10,Str. Luceafărului nr. 7,Râmnicu Vâlcea,45.0973,24.372
58,40,VÂLCEA,MUNICIPIUL RÂMNICU VÂLCEA,273,32,46,20,1,38,12,62,284,36,62,19,2,33,12,39,Grădinița cu Program Prelungit Ostroveni I,Aleea Teilor nr. 5,Râmnicu Vâlcea,45.0961,24.3699
59,40,VÂLCEA,MUNICIPIUL RÂMNICU VÂLCEA,153,28,37,16,2,31,7,31,153,31,40,18,2,28,8,26,Liceul Tehnologic Ferdinand I,Aleea Teilor nr. 1,Râmnicu Vâlcea,45.0948,24.3691
60,40,VÂLCEA,MUNICIPIUL RÂMNICU VÂLCEA,163,19,32,8,2,13,8,26,162,19,37,8,1,12,6,23,Liceul Tehnologic Ferdinand I,Aleea Teilor nr. 1,Râmnicu Vâlcea,45.0948,24.3691
61,40,VÂLCEA,MUNICIPIUL RÂMNICU VÂLCEA,162,30,31,9,2,20,9,38,175,32,31,10,2,15,7,25,Liceul Tehnologic Ferdinand I,Aleea Teilor nr. 1,Râmnicu Vâlcea,45.0948,24.3691
62,40,VÂLCEA,MUNICIPIUL RÂMNICU VÂLCEA,227,37,48,26,1,19,11,51,219,41,52,27,2,19,17,45,Liceul Tehnologic Ferdinand I,Aleea Teilor nr. 1,Râmnicu Vâlcea,45.0948,24.3691
63,40,VÂLCEA,MUNICIPIUL RÂMNICU VÂLCEA,145,29,38,11,1,16,17,56,152,33,42,11,1,13,17,44,Liceul Tehnologic Ferdinand I,Aleea Teilor nr. 1,Râmnicu Vâlcea,45.0948,24.3691
64,40,VÂLCEA,MUNICIPIUL RÂMNICU VÂLCEA,150,39,29,5,1,16,13,41,149,42,29,5,1,21,10,32,Liceul Tehnologic Ferdinand I,Aleea Teilor nr. 1,Râmnicu Vâlcea,45.0948,24.3691
65,40,VÂLCEA,MUNICIPIUL RÂMNICU VÂLCEA,256,56,62,17,1,33,17,66,264,59,65,19,2,35,14,45,Grădinița cu Program Prelungit Ostroveni Ii,Aleea Zorelelor nr. 2,Râmnicu Vâlcea,45.0937,24.3664
66,40,VÂLCEA,MUNICIPIUL RÂMNICU VÂLCEA,205,22,41,15,2,23,15,57,214,26,43,16,2,27,12,37,Grădinița cu Program Prelungit Ostroveni Ii,Aleea Zorelelor nr. 2,Râmnicu Vâlcea,45.0937,24.3664
67,40,VÂLCEA,MUNICIPIUL RÂMNICU VÂLCEA,166,37,39,16,1,23,14,40,169,35,44,15,2,25,10,26,Grădinița cu Program Prelungit Ostroveni Ii,Aleea Zorelelor nr. 2,Râmnicu Vâlcea,45.0937,24.3664
68,40,VÂLCEA,MUNICIPIUL RÂMNICU VÂLCEA,258,44,37,13,4,26,9,46,268,45,39,15,5,26,6,25,Grădinița cu Program Prelungit Ostroveni Ii,Aleea Zorelelor nr. 2,Râmnicu Vâlcea,45.0937,24.3664
69,40,VÂLCEA,MUNICIPIUL RÂMNICU VÂLCEA,200,63,67,39,1,42,14,71,213,66,77,33,2,45,12,43,Școala Gimnazială „Anton Pann”,Str. Lucian Blaga (Str. Rubinului) nr. 3,Râmnicu Vâlcea,45.0921,24.3736
70,40,VÂLCEA,MUNICIPIUL RÂMNICU VÂLCEA,221,44,44,14,0,30,12,42,226,43,44,13,0,32,14,39,Școala Gimnazială „Anton Pann”,Str. Lucian Blaga (Str. Rubinului) nr. 3,Râmnicu Vâlcea,45.0921,24.3736
71,40,VÂLCEA,MUNICIPIUL RÂMNICU VÂLCEA,169,36,35,21,1,16,7,50,173,37,37,28,2,22,11,27,Școala Gimnazială „Anton Pann”,Str. Lucian Blaga (Str. Rubinului) nr. 3,Râmnicu Vâlcea,45.0921,24.3736
72,40,VÂLCEA,MUNICIPIUL RÂMNICU VÂLCEA,312,64,84,31,1,57,24,120,320,73,98,31,2,57,32,86,Școala Gimnazială „Anton Pann”,Str. Lucian Blaga (Str. Rubinului) nr. 3,Râmnicu Vâlcea,45.0921,24.3736
73,40,VÂLCEA,MUNICIPIUL RÂMNICU VÂLCEA,184,54,40,19,2,20,11,46,190,53,54,14,1,24,12,28,Școala Gimnazială „Anton Pann”,Str. Lucian Blaga (Str. Rubinului) nr. 3,Râmnicu Vâlcea,45.0921,24.3736
74,40,VÂLCEA,MUNICIPIUL RÂMNICU VÂLCEA,157,27,41,6,3,18,12,40,157,29,45,6,3,17,14,33,Școala Gimnazială „Anton Pann”,Str. Lucian Blaga (Str. Rubinului) nr. 3,Râmnicu Vâlcea,45.0921,24.3736
75,40,VÂLCEA,MUNICIPIUL RÂMNICU VÂLCEA,201,43,42,17,1,25,6,41,209,39,47,19,2,29,9,23,Școala Gimnazială „Anton Pann”,Str. Lucian Blaga (Str. Rubinului) nr. 3,Râmnicu Vâlcea,45.0921,24.3736
76,40,VÂLCEA,MUNICIPIUL RÂMNICU VÂLCEA,222,39,42,10,1,31,33,80,242,35,47,10,1,31,28,61,Școala Gimnazială „Anton Pann”,Str. Lucian Blaga (Str. Rubinului) nr. 3,Râmnicu Vâlcea,45.0921,24.3736
77,40,VÂLCEA,MUNICIPIUL RÂMNICU VÂLCEA,163,37,36,7,1,31,9,42,168,42,50,8,2,34,8,14,Școala Gimnazială nr. 13,Str. Nichita Stănescu (Str. Topazului) nr. 1,Râmnicu Vâlcea,45.0932,24.3762
78,40,VÂLCEA,MUNICIPIUL RÂMNICU VÂLCEA,173,23,51,2,0,26,7,46,176,24,55,6,0,27,7,32,Școala Gimnazială nr. 13,Str. Nichita Stănescu (Str. Topazului) nr. 1,Râmnicu Vâlcea,45.0932,24.3762
79,40,VÂLCEA,MUNICIPIUL RÂMNICU VÂLCEA,188,34,52,16,1,16,11,55,201,35,54,18,1,25,9,28,Școala Gimnazială nr. 13,Str. Nichita Stănescu (Str. Topazului) nr. 1,Râmnicu Vâlcea,45.0932,24.3762
80,40,VÂLCEA,MUNICIPIUL RÂMNICU VÂLCEA,219,24,44,9,2,21,13,55,241,27,47,9,2,23,14,30,Școala Gimnazială nr. 13,Str. Nichita Stănescu (Str. Topazului) nr. 1,Râmnicu Vâlcea,45.0932,24.3762
81,40,VÂLCEA,MUNICIPIUL RÂMNICU VÂLCEA,180,51,59,15,1,22,12,43,182,48,62,14,1,21,19,44,Școala Gimnazială nr. 13,Str. Nichita Stănescu (Str. Topazului) nr. 1,Râmnicu Vâlcea,45.0932,24.3762
82,40,VÂLCEA,MUNICIPIUL RÂMNICU VÂLCEA,242,56,55,19,1,34,6,83,257,63,61,21,1,39,13,48,Școala Gimnazială nr. 13,Str. Nichita Stănescu (Str. Topazului) nr. 1,Râmnicu Vâlcea,45.0932,24.3762
83,40,VÂLCEA,MUNICIPIUL RÂMNICU VÂLCEA,170,48,55,15,0,28,12,60,185,45,59,17,0,27,14,41,Școala Gimnazială nr. 13,Str. Nichita Stănescu (Str. Topazului) nr. 1,Râmnicu Vâlcea,45.0932,24.3762
84,40,VÂLCEA,MUNICIPIUL RÂMNICU VÂLCEA,181,23,28,13,1,23,8,35,181,27,29,14,1,25,10,23,Secția 1 de Poliție Rurală Râmnicu Vâlcea,Str. Râureni (Str. Rîureni) (D) nr. 194,Râmnicu Vâlcea,45.0557,24.3297
85,40,VÂLCEA,MUNICIPIUL RÂMNICU VÂLCEA,118,5,16,3,1,11,6,33,125,2,16,6,1,14,12,24,Școala Stolniceni,Str. Stolniceni nr. 168,Râmnicu Vâlcea,45.0396,24.3047
86,40,VÂLCEA,MUNICIPIUL RÂMNICU VÂLCEA,277,4,29,5,1,5,4,46,291,5,34,5,1,9,7,25,Școala Gimnazială Colonie,Str. Cap. Dumitru Hanciu nr. 1,Râmnicu Vâlcea,45.026,24.2789
87,40,VÂLCEA,MUNICIPIUL RÂMNICU VÂLCEA,447,46,69,25,3,49,11,57,452,37,87,22,3,49,15,52,Școala Copăcelu,Str. Copăcelu nr. 182,Râmnicu Vâlcea,45.0679,24.3103
88,40,VÂLCEA,MUNICIPIUL RÂMNICU VÂLCEA,248,21,30,4,1,11,9,29,252,18,28,7,2,12,10,24,Grădinița Căzănești,Str. Căzănești nr. 90,Râmnicu Vâlcea,45.0556,24.2871
166,40,VÂLCEA,BERISLĂVEŞTI,189,1,52,16,0,7,0,14,192,1,50,13,0,10,2,14,Căminul Cultural Rădăcinești,,Rădăcinești,45.2794,24.4419
360,40,VÂLCEA,SCUNDU,434,1,55,8,0,13,6,17,430,1,49,12,0,23,7,16,Școala cu Clasele I-VIII Scundu,,Scundu,44.8389,24.1876
168,40,VÂLCEA,BERISLĂVEŞTI,172,2,26,3,0,3,0,8,163,3,28,5,0,6,0,8,Școala cu Clasele I-IV Scăueni,,Scăueni,45.2638,24.4415
359,40,VÂLCEA,SĂLĂTRUCEL,25,2,5,8,0,1,2,4,24,2,5,7,0,2,3,5,Școala Seaca,,Seaca,45.2654,24.4088
316,40,VÂLCEA,ORLEŞTI,260,4,101,12,1,27,3,24,255,9,98,14,1,31,3,17,Grădinița Silea,,Silea,44.7651,24.2367
362,40,VÂLCEA,SINEŞTI,128,7,108,6,0,18,4,11,123,9,105,6,0,20,5,17,Școala Gimnazială Comuna Sinești,,Sinești,44.9361,23.8405
369,40,VÂLCEA,SLĂTIOARA,105,3,13,2,0,3,2,13,109,5,13,2,0,5,1,10,Grădinița Cumpene,,Slătioara,45.1259,23.9266
391,40,VÂLCEA,ŞIRINEASA,55,2,20,14,0,13,3,12,56,2,20,16,0,9,6,17,Școala Primară Slăvitești,,Slăvitești,44.9231,24.219
329,40,VÂLCEA,PERIŞANI,47,0,60,4,0,5,2,5,48,0,58,5,0,6,2,3,Căminul Cultural Spinu,,Spinu,45.3756,24.4069
251,40,VÂLCEA,GUŞOENI,216,6,48,13,1,17,29,35,220,7,49,14,2,12,21,25,Școala Gimnazială Gușoeni,,Spârleni,44.712,24.1287
427,40,VÂLCEA,ZĂTRENI,105,1,19,8,0,14,3,7,107,2,22,4,0,11,5,7,Școala Primară Stanomiru,,Stanomiru,44.7438,23.8621
373,40,VÂLCEA,STOENEŞTI,180,13,217,7,0,11,13,24,181,11,216,7,0,11,13,26,Școala Gimnazială Stoenești,,Stoenești,45.1192,24.1647
399,40,VÂLCEA,ŞUŞANI,93,0,37,2,1,3,6,16,99,2,33,2,3,2,5,12,Școala Stoiculești,,Stoiculești,44.5901,24.1149
314,40,VÂLCEA,OLANU,80,4,83,2,1,18,4,11,80,5,82,2,1,17,6,9,Școala cu Clasele I-IV Stoicănești,,Stoicănești,44.8795,24.2744
379,40,VÂLCEA,STOILEŞTI,224,0,33,0,0,7,2,9,219,0,33,0,0,8,4,12,Școala cu Clasele I-VIII Stoilești,,Stoilești,44.9108,24.3755
202,40,VÂLCEA,CREŢENI,196,1,21,5,0,15,3,12,199,0,21,6,1,14,3,13,Grădinița cu Program Normal Streminoasa,,Streminoasa,44.6841,24.1773
382,40,VÂLCEA,STROEŞTI,153,6,40,8,1,62,16,25,165,6,39,8,2,65,13,21,Școala cu Clasele I-VIII Căpitan Mărășanu Stroești,,Stroești,45.0855,23.9095
295,40,VÂLCEA,MIHĂEŞTI,160,8,125,8,2,13,7,25,154,9,121,11,1,14,6,26,Grădinița Stupărei,,Stupărei,45.0237,24.2859
370,40,VÂLCEA,STĂNEŞTI,97,1,97,7,0,10,5,13,89,4,98,8,1,12,5,12,Școala cu Clasele I-VIII Stănești,,Stănești,44.8172,24.0402
274,40,VÂLCEA,LUNGEŞTI,167,1,126,10,1,15,2,9,166,1,129,12,0,11,3,4,Școala cu Clasele I-IV Stănești-Lunca,,Stănești-Lunca,44.5662,24.2117
355,40,VÂLCEA,RUNCU,19,0,14,2,1,25,1,7,17,0,16,2,1,28,3,6,Școala Generală cu Clasele I-IV Surpați,,Surpați,45.2016,24.4835
204,40,VÂLCEA,DĂEŞTI,117,6,109,7,1,12,9,22,111,6,111,10,2,16,9,20,Căminul Cultural Sînbotin,,Sânbotin,45.1763,24.3771
279,40,VÂLCEA,MALAIA,71,2,30,1,1,9,2,11,72,2,28,2,1,10,1,8,Grădinița cu Program Normal Săliște,,Săliștea,45.3533,24.1356
356,40,VÂLCEA,SĂLĂTRUCEL,175,16,94,53,1,17,17,34,184,14,97,29,1,21,26,51,Căminul Cultural Sălătrucel,,Sălătrucel,45.2484,24.3881
268,40,VÂLCEA,LĂPUŞATA,199,4,177,96,1,26,5,38,228,5,182,66,1,33,5,33,Școala Gimnazială Sărulești,,Sărulești,44.9145,24.0226
430,40,VÂLCEA,ZĂTRENI,90,3,54,12,0,2,2,9,91,4,56,4,0,2,3,11,Școala Primară Săscioara,,Sășcioara,44.7971,23.869
231,40,VÂLCEA,GALICEA,98,3,33,4,3,9,21,29,104,1,35,4,3,10,21,24,Școala Teiu,,Teiu,44.9033,24.2819
183,40,VÂLCEA,BUNEŞTI,133,6,14,4,1,4,1,9,126,7,12,3,1,5,4,15,"Școala Teiușu, Comuna Bunești",,Teiușu,45.0965,24.239
290,40,VÂLCEA,MĂLDĂREŞTI,31,2,14,1,0,4,3,7,30,1,14,1,2,4,3,6,Școala Telechești,,Telechești,45.0913,24.0024
402,40,VÂLCEA,TETOIU,123,8,27,20,0,10,6,10,128,7,25,20,0,8,7,10,Căminul Cultural Tetoiu,,Tetoiu,44.7472,23.9189
406,40,VÂLCEA,TITEŞTI,65,3,135,13,1,8,4,12,67,5,127,1,0,13,4,18,Școala cu Clasele I-VIII Titești (Sală de Festivități),,Titești,45.4193,24.3941
182,40,VÂLCEA,BUNEŞTI,286,14,34,4,0,5,11,29,277,18,33,3,0,7,12,25,Școala cu Clasele I-VIII Bunești,,Titireci,45.1077,24.1956
408,40,VÂLCEA,TOMŞANI,324,18,60,10,1,15,6,24,321,18,63,10,2,19,6,21,Căminul Cultural Tomșani,,Tomșani,45.1253,24.0458
245,40,VÂLCEA,GOLEŞTI,57,4,26,2,0,16,0,7,57,6,28,3,0,16,0,7,Școala Poenița,,Tulei-Câmpeni,45.1432,24.4779
282,40,VÂLCEA,MATEEŞTI,288,2,108,5,0,8,9,29,292,2,111,5,0,4,12,34,Școala Gimnazială Turcești,,Turcești,45.0405,23.8658
343,40,VÂLCEA,RACOVIŢA,19,0,54,1,0,1,4,6,16,0,56,2,0,1,4,7,Ocolul Silvic Loviștea,,Tuțulești,45.3966,24.2995
127,40,VÂLCEA,ORAŞ BERBEŞTI,118,3,108,4,0,51,10,17,122,5,108,5,0,46,11,19,Grup Școlar Preda Buzescu,,Târgu Gângulești,45.011,23.879
152,40,VÂLCEA,ORAŞ HOREZU,39,4,14,0,0,3,2,11,36,8,12,0,0,3,2,11,Căminul Cultural Tănăsești,Str. Tănăsești nr. 37,Tănăsești,45.1829,23.9667
207,40,VÂLCEA,DĂNICEI,199,5,36,11,2,42,3,14,197,6,56,13,1,28,2,11,Școala Gimnazială Udrești,,Udrești,44.9259,24.4639
193,40,VÂLCEA,COPĂCENI,286,3,15,31,1,17,3,42,304,6,19,30,2,17,4,13,Grădinița Ulmetu,,Ulmetu,45.0034,23.9649
145,40,VÂLCEA,ORAŞ HOREZU,101,10,41,11,0,6,3,7,102,10,39,9,0,7,2,7,Căminul Cultural Urșani,Str. Urșani nr. 14,Urșani,45.1718,23.961
337,40,VÂLCEA,POPEŞTI,250,6,41,15,2,29,9,19,239,7,35,18,0,44,10,14,Școala cu Clasele I-VIII Urși,,Urși,45.0132,24.0663
378,40,VÂLCEA,STOILEŞTI,465,4,38,3,0,20,3,10,456,4,34,3,0,19,6,19,Școala cu Clasele I-VIII Urși,,Urși,44.9123,24.3358
396,40,VÂLCEA,ŞUŞANI,154,0,8,1,1,1,13,20,148,0,7,2,1,2,17,24,Căminul Cultural Ușurei,,Ușurei,44.632,24.0877
412,40,VÂLCEA,VAIDEENI,240,16,89,13,6,17,5,18,231,21,101,11,5,15,6,16,Căminul Cultural Vaideeni,,Vaideeni,45.1692,23.9338
413,40,VÂLCEA,VAIDEENI,380,7,144,18,4,16,5,27,381,8,167,14,5,20,9,18,Căminul Cultural Vaideeni,,Vaideeni,45.1692,23.9338
354,40,VÂLCEA,RUNCU,38,3,4,1,0,36,1,5,35,2,4,1,0,42,1,5,Școala Generală cu Clasele I-IV Valea Babei,,Valea Babei,45.1805,24.4966
321,40,VÂLCEA,PĂUSEŞTI-MĂGLAŞI,152,7,62,15,0,19,4,30,158,6,69,13,0,18,6,23,Școala Primară Valea Cheii,,Valea Cheii,45.1559,24.2476
248,40,VÂLCEA,GRĂDIŞTEA,28,1,42,2,0,1,2,5,29,0,44,2,0,1,2,6,Școala cu Clasele I-IV Valea Grădiștea,,Valea Grădiștei,44.8862,23.7911
417,40,VÂLCEA,VALEA MARE,114,5,80,5,1,4,4,9,114,5,75,8,1,4,5,10,Grădinița Valea Mare,,Valea Mare,44.6663,23.9985
232,40,VÂLCEA,GALICEA,109,4,42,8,2,6,3,11,112,4,43,7,2,8,1,6,Școala Valea Rîului,,Valea Râului,44.9385,24.3131
129,40,VÂLCEA,ORAŞ BREZOI,96,1,22,7,1,3,0,37,115,2,36,11,0,3,2,10,Școala cu Clasele I-VIII Valea Lui Stan,Nr. 16,Valea lui Stan,45.3497,24.1621
388,40,VÂLCEA,SUTEŞTI,135,4,19,2,0,17,8,14,131,3,20,1,0,17,9,15,Fosta Școala Verdea,,Verdea,44.6911,24.2269
194,40,VÂLCEA,COPĂCENI,114,4,28,9,1,3,1,16,119,5,31,6,1,4,1,9,Școala cu Clasele I-IV Vețelu,,Vețelu,44.9692,23.9883
229,40,VÂLCEA,FRÎNCEŞTI,79,2,19,0,2,2,3,11,78,1,20,1,1,6,4,9,Grădinița Viișoara,,Viișoara,44.9919,24.1645
421,40,VÂLCEA,VLĂDEŞTI,360,40,89,15,0,27,16,55,356,38,94,21,1,35,15,39,Școala cu Clasele I-VIII Vlădești,,Vlădești,45.1194,24.3032
423,40,VÂLCEA,VOICEŞTI,263,4,209,19,3,47,18,35,260,4,207,19,3,49,18,29,Grădinița cu Program Normal Voicești,,Voicești,44.6063,24.2911
424,40,VÂLCEA,VOINEASA,149,10,50,31,0,9,8,25,149,12,50,32,0,17,6,22,Localul Primăriei Voineasa,Nr. 98,Voineasa,45.4199,23.9556
425,40,VÂLCEA,VOINEASA,163,11,62,31,0,8,6,22,159,13,68,35,0,7,6,15,Școala cu Clasele I-VIII Voineasa,Nr. 2,Voineșița,45.417,23.9613
293,40,VÂLCEA,MIHĂEŞTI,210,1,47,7,1,10,10,19,206,2,45,9,1,11,12,19,Căminul Cultural Vulpuești,,Vulpuești,45.0647,24.2251
371,40,VÂLCEA,STĂNEŞTI,93,7,54,6,1,5,3,11,91,6,58,6,1,4,4,11,Școala cu Clasele I-IV Vârleni,,Vârleni,44.793,24.0259
428,40,VÂLCEA,ZĂTRENI,94,5,25,12,0,6,7,21,95,5,27,10,0,6,6,17,Școala Primară Văleni,Nr. 12,Văleni,44.7851,23.8368
246,40,VÂLCEA,GOLEŞTI,55,1,9,4,0,12,6,13,55,1,7,4,0,13,7,15,Școala Vătășești,,Vătășești,45.1196,24.4916
351,40,VÂLCEA,ROŞIILE,54,1,76,11,1,5,0,3,55,1,74,6,0,6,0,3,Grădinița cu Program Normal Zgubea,,Zgubea,44.9216,23.9066
377,40,VÂLCEA,STOENEŞTI,55,1,28,1,0,0,4,16,60,1,33,1,0,2,5,8,Căminul Cultural Zmeurătu,,Zmeurătu,45.1456,24.1905
426,40,VÂLCEA,ZĂTRENI,121,0,39,18,2,10,5,9,123,1,40,12,2,14,3,7,Școala Gimnazială Zătreni,Nr. 7,Zătreni,44.7615,23.8558
307,40,VÂLCEA,NICOLAE BĂLCESCU,218,7,27,7,5,13,34,54,220,9,27,10,5,14,35,49,Școala cu Clasele I-IV Șerbăneasa,,Șerbăneasa,44.979,24.3998
357,40,VÂLCEA,SĂLĂTRUCEL,91,0,43,7,0,3,6,13,92,0,40,6,1,3,5,15,Școala Șerbănești,,Șerbănești,45.2464,24.3847
393,40,VÂLCEA,ŞTEFĂNEŞTI,193,1,26,84,0,11,11,19,188,1,27,88,0,15,16,21,Grădinița Șerbănești,,Șerbănești,44.5874,24.2431
389,40,VÂLCEA,ŞIRINEASA,295,7,59,11,0,49,30,87,297,9,68,12,0,57,31,72,Școala Gimnazială Șirineasa,,Șirineasa,44.9421,24.1796
285,40,VÂLCEA,MĂCIUCA,54,7,43,5,3,1,2,10,55,6,46,5,2,1,1,12,Școala cu Clasele I-IV Zăvoieni,,Ștefănești,44.7757,24.0212
392,40,VÂLCEA,ŞTEFĂNEŞTI,185,4,76,62,1,35,9,33,179,3,78,65,2,39,13,32,Școala cu Clasele I-VIII Ștefănești,,Ștefănești,44.6035,24.245
237,40,VÂLCEA,GHIOROIU,86,3,60,27,1,27,7,13,86,3,57,25,1,29,9,13,Școala Știrbești,,Știrbești,44.647,23.8768
397,40,VÂLCEA,ŞUŞANI,137,2,54,1,1,1,0,6,143,2,49,0,1,2,0,7,Școala Șușanii de Sus,,Șușani,44.6048,24.0961
398,40,VÂLCEA,ŞUŞANI,118,5,18,0,1,6,11,17,117,4,19,0,1,7,11,19,Școala Șușanii de Jos,,Șușani,44.5883,24.0999
403,40,VÂLCEA,TETOIU,154,8,57,4,0,4,2,21,153,6,57,6,1,4,4,19,Școala Generală cu Clasele.I-VIII Țepești,,Țepești,44.7925,23.9197
250,40,VÂLCEA,GRĂDIŞTEA,130,0,165,19,0,5,9,21,130,1,170,19,0,5,8,22,Grădinița cu Program Normal Țuțuru,,Țuțuru,44.9093,23.7901